{"type":"FeatureCollection","features":[{"type":"Feature","properties":{"pcode":"KM323","name":"Moimbassa","island":"Moh\u00e9li (Mwali)"},"geometry":{"type":"Polygon","coordinates":[[[43.657398,-12.249928],[43.657603,-12.249988],[43.65812,-12.249431],[43.658135,-12.249284],[43.658348,-12.249255],[43.658508,-12.249602],[43.658706,-12.249964],[43.658672,-12.25019],[43.658745,-12.250443],[43.658776,-12.250553],[43.658844,-12.250554],[43.658958,-12.250495],[43.659095,-12.250467],[43.659164,-12.250872],[43.659362,-12.251013],[43.659515,-12.251147],[43.659628,-12.251092],[43.659739,-12.250964],[43.659834,-12.250974],[43.659845,-12.251066],[43.659705,-12.251276],[43.659624,-12.251569],[43.659608,-12.251799],[43.659534,-12.251954],[43.659595,-12.252349],[43.659739,-12.252505],[43.659787,-12.25256],[43.659901,-12.252588],[43.660288,-12.252553],[43.660477,-12.252526],[43.66052,-12.252506],[43.660577,-12.252636],[43.660749,-12.252692],[43.660863,-12.252662],[43.661037,-12.252538],[43.661144,-12.252487],[43.661305,-12.25248],[43.66122,-12.252922],[43.661113,-12.253384],[43.6611,-12.253978],[43.661029,-12.254206],[43.660936,-12.254412],[43.660751,-12.254854],[43.660631,-12.255247],[43.660374,-12.255529],[43.66031,-12.25577],[43.660068,-12.256094],[43.66004,-12.256211],[43.660083,-12.25626],[43.660204,-12.256357],[43.660333,-12.25653],[43.660647,-12.256843],[43.661097,-12.257114],[43.661775,-12.257532],[43.662596,-12.258088],[43.662824,-12.258172],[43.662967,-12.258166],[43.66326,-12.258084],[43.663331,-12.257967],[43.663337,-12.257414],[43.66343,-12.257311],[43.663822,-12.257147],[43.664428,-12.25697],[43.664714,-12.257027],[43.664871,-12.257166],[43.665149,-12.257188],[43.666276,-12.257366],[43.668046,-12.25736],[43.668274,-12.257188],[43.668545,-12.257107],[43.668816,-12.257094],[43.669222,-12.256917],[43.669907,-12.256588],[43.670634,-12.25617],[43.67109,-12.255896],[43.671525,-12.25567],[43.672117,-12.255424],[43.672744,-12.254964],[43.67283,-12.254971],[43.672958,-12.255082],[43.672973,-12.255442],[43.673009,-12.255456],[43.673229,-12.255167],[43.673315,-12.254905],[43.673514,-12.254823],[43.673671,-12.254913],[43.673993,-12.255136],[43.674171,-12.255316],[43.674393,-12.255614],[43.674636,-12.255815],[43.67495,-12.256059],[43.675371,-12.256289],[43.675835,-12.256532],[43.676428,-12.257046],[43.676507,-12.25724],[43.676942,-12.257636],[43.677135,-12.257733],[43.677813,-12.258165],[43.678155,-12.25798],[43.678405,-12.257988],[43.678498,-12.258223],[43.678612,-12.258217],[43.678619,-12.258044],[43.678712,-12.257996],[43.67879,-12.258045],[43.678883,-12.258211],[43.678948,-12.258225],[43.67904,-12.258129],[43.679126,-12.258185],[43.679219,-12.258275],[43.679433,-12.258276],[43.679718,-12.257994],[43.679854,-12.258133],[43.679932,-12.258147],[43.680003,-12.258044],[43.680232,-12.258093],[43.68041,-12.258322],[43.680632,-12.258461],[43.681253,-12.258733],[43.682066,-12.258937],[43.682837,-12.259051],[43.684663,-12.259177],[43.685319,-12.259084],[43.685312,-12.258862],[43.685405,-12.258773],[43.685483,-12.258787],[43.685512,-12.259188],[43.685805,-12.259438],[43.687147,-12.260087],[43.687668,-12.260372],[43.689502,-12.260954],[43.689888,-12.260956],[43.690301,-12.260819],[43.690608,-12.260842],[43.692192,-12.261346],[43.69389,-12.261375],[43.694562,-12.261188],[43.695131,-12.260842],[43.695474,-12.260878],[43.696488,-12.261684],[43.696951,-12.261707],[43.697251,-12.261791],[43.697401,-12.261937],[43.69768,-12.262283],[43.697794,-12.262387],[43.697972,-12.262478],[43.698551,-12.26266],[43.699129,-12.262843],[43.69985,-12.263212],[43.700002,-12.26339],[43.700197,-12.263636],[43.700498,-12.263891],[43.700721,-12.264014],[43.700994,-12.264194],[43.701217,-12.264336],[43.701528,-12.26462],[43.701869,-12.264913],[43.702151,-12.265234],[43.702403,-12.265498],[43.702676,-12.265706],[43.703074,-12.266094],[43.703424,-12.266406],[43.703755,-12.266717],[43.704114,-12.266992],[43.704455,-12.267228],[43.704873,-12.267512],[43.705203,-12.267721],[43.705708,-12.267921],[43.706029,-12.268082],[43.706398,-12.268225],[43.706797,-12.268405],[43.707107,-12.268501],[43.707341,-12.268539],[43.707778,-12.268579],[43.70804,-12.268843],[43.70838,-12.268845],[43.708642,-12.268874],[43.708817,-12.268913],[43.709031,-12.269045],[43.709235,-12.269216],[43.709585,-12.269368],[43.709828,-12.269425],[43.710148,-12.269511],[43.710517,-12.269541],[43.710806,-12.269644],[43.710855,-12.269664],[43.710827,-12.269892],[43.708494,-12.285114],[43.704335,-12.288661],[43.688214,-12.305734],[43.685741,-12.304158],[43.684837,-12.303371],[43.683742,-12.302446],[43.683076,-12.301798],[43.682647,-12.3006],[43.682028,-12.299861],[43.680981,-12.298844],[43.680457,-12.297415],[43.679457,-12.296259],[43.678458,-12.295703],[43.677745,-12.295469],[43.677127,-12.295466],[43.676414,-12.295693],[43.676034,-12.295553],[43.67413,-12.293566],[43.673322,-12.292918],[43.672608,-12.292546],[43.671848,-12.292497],[43.671372,-12.292173],[43.670848,-12.291572],[43.670278,-12.291155],[43.669564,-12.290692],[43.668755,-12.290044],[43.667424,-12.289669],[43.666853,-12.289069],[43.666045,-12.288881],[43.664999,-12.28883],[43.664286,-12.288643],[43.66419,-12.288136],[43.663999,-12.287491],[43.663094,-12.286106],[43.662429,-12.285689],[43.661715,-12.285318],[43.661097,-12.285131],[43.660574,-12.285082],[43.660193,-12.284712],[43.659575,-12.284249],[43.659337,-12.283834],[43.659051,-12.282958],[43.658574,-12.282174],[43.656005,-12.280183],[43.655719,-12.2794],[43.655243,-12.278891],[43.653388,-12.277916],[43.652769,-12.276855],[43.648774,-12.274306],[43.647679,-12.273104],[43.645871,-12.271807],[43.639438,-12.270142],[43.634188,-12.269419],[43.627218,-12.266048],[43.627128,-12.266026],[43.627096,-12.265942],[43.626943,-12.265565],[43.626753,-12.265248],[43.626623,-12.264945],[43.626501,-12.264554],[43.626417,-12.264318],[43.626439,-12.263736],[43.626476,-12.263435],[43.626529,-12.26331],[43.626719,-12.263141],[43.626795,-12.263097],[43.626887,-12.263105],[43.627009,-12.26312],[43.627199,-12.263099],[43.627313,-12.263078],[43.627419,-12.262975],[43.627556,-12.262843],[43.627662,-12.262681],[43.627867,-12.262594],[43.628012,-12.262543],[43.628225,-12.262411],[43.628308,-12.262272],[43.628597,-12.261949],[43.628749,-12.261861],[43.629106,-12.261701],[43.629205,-12.261606],[43.62922,-12.261363],[43.629372,-12.261253],[43.629448,-12.261275],[43.629509,-12.261327],[43.629562,-12.261276],[43.629707,-12.261269],[43.629866,-12.26113],[43.630125,-12.260807],[43.630413,-12.260521],[43.630443,-12.260227],[43.63039,-12.25991],[43.630214,-12.25943],[43.630229,-12.259187],[43.630305,-12.259107],[43.630533,-12.259115],[43.630563,-12.25896],[43.630693,-12.258821],[43.630913,-12.258579],[43.63105,-12.258587],[43.631301,-12.258529],[43.6314,-12.258449],[43.631361,-12.258294],[43.631201,-12.258043],[43.631231,-12.257697],[43.63133,-12.257616],[43.631536,-12.257661],[43.631672,-12.257684],[43.631802,-12.257478],[43.631801,-12.257279],[43.631763,-12.256933],[43.632034,-12.256852],[43.632247,-12.257245],[43.632486,-12.257599],[43.632699,-12.257892],[43.632799,-12.257881],[43.632836,-12.257748],[43.633247,-12.257426],[43.633498,-12.257236],[43.633421,-12.256749],[43.633307,-12.256535],[43.633367,-12.25644],[43.633527,-12.256418],[43.633535,-12.256632],[43.633611,-12.256691],[43.633702,-12.256677],[43.633781,-12.256668],[43.633832,-12.256744],[43.633748,-12.256773],[43.633731,-12.256857],[43.633771,-12.256986],[43.633942,-12.257048],[43.634198,-12.257239],[43.634434,-12.257439],[43.634586,-12.257631],[43.634677,-12.257742],[43.63524,-12.257708],[43.635255,-12.257457],[43.635354,-12.257355],[43.635674,-12.257445],[43.635803,-12.257386],[43.635917,-12.257247],[43.635985,-12.257056],[43.636335,-12.257035],[43.636424,-12.257209],[43.63686,-12.25731],[43.637276,-12.257516],[43.637393,-12.25743],[43.638397,-12.257317],[43.638906,-12.257319],[43.639865,-12.257641],[43.640162,-12.257693],[43.640299,-12.257569],[43.640641,-12.25718],[43.640907,-12.257424],[43.640999,-12.257646],[43.641128,-12.257823],[43.641357,-12.257883],[43.641532,-12.258061],[43.641859,-12.258062],[43.641958,-12.258114],[43.642011,-12.257989],[43.642353,-12.25788],[43.64284,-12.257684],[43.643342,-12.257443],[43.644239,-12.25685],[43.644459,-12.256667],[43.644634,-12.256506],[43.644869,-12.25636],[43.645052,-12.256199],[43.645135,-12.256066],[43.645059,-12.255948],[43.644739,-12.255571],[43.644739,-12.255203],[43.644898,-12.255034],[43.644905,-12.254629],[43.644722,-12.254334],[43.644539,-12.254156],[43.644258,-12.253897],[43.644265,-12.25372],[43.644349,-12.253603],[43.644547,-12.253788],[43.644547,-12.253987],[43.644608,-12.254039],[43.644844,-12.254099],[43.645042,-12.254232],[43.645148,-12.254387],[43.645255,-12.254402],[43.645392,-12.254351],[43.645437,-12.254241],[43.645384,-12.254057],[43.645383,-12.253578],[43.645315,-12.253504],[43.645306,-12.25304],[43.645436,-12.253033],[43.645412,-12.252488],[43.645556,-12.252327],[43.645671,-12.252335],[43.645808,-12.252431],[43.645777,-12.2526],[43.645793,-12.252807],[43.64593,-12.252837],[43.646158,-12.252587],[43.64628,-12.252603],[43.646493,-12.252883],[43.646592,-12.252913],[43.646729,-12.252855],[43.6471,-12.252749],[43.647412,-12.252585],[43.647775,-12.252359],[43.647816,-12.25233],[43.647884,-12.25219],[43.648036,-12.251992],[43.648051,-12.25183],[43.648157,-12.251698],[43.64834,-12.251485],[43.648393,-12.251242],[43.648438,-12.250963],[43.648559,-12.250735],[43.648711,-12.250551],[43.648894,-12.250471],[43.649053,-12.250472],[43.649152,-12.250502],[43.649297,-12.250635],[43.649487,-12.250444],[43.649738,-12.250431],[43.649913,-12.250535],[43.650043,-12.250594],[43.650157,-12.250565],[43.650301,-12.2505],[43.650316,-12.250242],[43.650415,-12.250184],[43.650658,-12.250185],[43.650788,-12.250222],[43.650796,-12.250524],[43.650788,-12.250826],[43.65091,-12.250863],[43.651275,-12.250607],[43.651404,-12.250608],[43.65145,-12.250918],[43.65142,-12.251065],[43.651405,-12.251168],[43.651451,-12.251227],[43.651771,-12.251494],[43.652014,-12.251723],[43.652182,-12.251908],[43.652342,-12.252166],[43.652517,-12.252292],[43.65254,-12.252447],[43.652753,-12.252625],[43.652807,-12.252721],[43.652898,-12.25292],[43.654543,-12.252952],[43.65464,-12.252818],[43.655073,-12.251965],[43.655126,-12.251885],[43.655445,-12.251569],[43.655863,-12.251092],[43.656075,-12.250777],[43.656151,-12.250549],[43.65615,-12.250077],[43.6565,-12.249659],[43.656552,-12.249026],[43.656659,-12.248953],[43.65678,-12.248946],[43.656849,-12.249064],[43.656842,-12.249698],[43.657129,-12.249744],[43.657398,-12.249928]]]}}]}