{"type":"FeatureCollection","features":[{"type":"Feature","properties":{"pcode":"KM321","name":"Fomboni","name_src":"Fomboni","island":"Moh\u00e9li (Mwali)"},"geometry":{"type":"Polygon","coordinates":[[[43.750996,-12.286641],[43.748246,-12.290263],[43.740806,-12.313043],[43.735147,-12.318459],[43.725787,-12.326292],[43.725589,-12.319389],[43.724302,-12.317128],[43.723066,-12.316386],[43.721119,-12.31762],[43.719455,-12.317704],[43.717174,-12.317924],[43.715748,-12.317595],[43.714844,-12.317038],[43.713417,-12.315789],[43.712561,-12.315831],[43.711659,-12.316242],[43.711091,-12.317988],[43.71019,-12.320008],[43.70986,-12.321617],[43.710479,-12.323185],[43.712999,-12.323979],[43.713139,-12.324551],[43.711051,-12.324246],[43.709768,-12.32447],[43.70915,-12.324329],[43.708293,-12.323175],[43.707864,-12.32193],[43.707671,-12.320135],[43.707101,-12.31981],[43.706292,-12.31953],[43.705056,-12.319432],[43.703725,-12.319196],[43.702394,-12.318868],[43.701538,-12.318496],[43.701063,-12.318264],[43.700016,-12.317292],[43.699302,-12.316507],[43.698588,-12.315859],[43.697874,-12.31535],[43.696733,-12.314516],[43.695877,-12.314144],[43.695353,-12.313083],[43.69383,-12.311834],[43.693069,-12.311462],[43.692498,-12.310723],[43.691832,-12.310674],[43.691357,-12.310396],[43.691451,-12.309982],[43.691308,-12.308969],[43.690974,-12.308415],[43.690308,-12.307952],[43.689405,-12.30781],[43.688692,-12.307945],[43.688122,-12.307804],[43.688359,-12.307161],[43.688453,-12.306471],[43.688214,-12.305734],[43.704335,-12.288661],[43.708494,-12.285114],[43.710827,-12.269892],[43.710855,-12.269664],[43.711178,-12.269798],[43.711537,-12.269865],[43.711615,-12.26995],[43.71179,-12.269979],[43.711946,-12.270149],[43.712111,-12.270254],[43.712247,-12.270395],[43.712539,-12.2705],[43.71283,-12.270661],[43.712966,-12.270784],[43.71318,-12.270954],[43.713345,-12.271115],[43.713802,-12.271126],[43.714064,-12.270977],[43.714239,-12.270978],[43.714618,-12.271375],[43.715958,-12.271729],[43.71624,-12.27173],[43.716492,-12.271449],[43.716803,-12.271451],[43.716861,-12.271338],[43.716997,-12.271329],[43.717172,-12.271142],[43.717366,-12.271133],[43.717444,-12.271284],[43.717599,-12.271294],[43.717628,-12.271238],[43.717764,-12.271211],[43.7179,-12.271446],[43.717998,-12.271738],[43.718115,-12.27188],[43.718221,-12.271965],[43.718474,-12.271975],[43.718688,-12.272033],[43.71894,-12.272231],[43.719591,-12.272328],[43.720058,-12.2725],[43.720339,-12.272576],[43.720922,-12.272739],[43.721223,-12.27274],[43.721534,-12.272601],[43.721786,-12.272611],[43.721961,-12.272509],[43.722194,-12.272416],[43.72233,-12.272162],[43.722572,-12.272173],[43.722738,-12.272475],[43.722874,-12.272522],[43.722971,-12.272523],[43.723049,-12.272504],[43.723301,-12.272477],[43.723466,-12.272506],[43.723583,-12.272554],[43.723661,-12.272648],[43.723768,-12.272799],[43.723855,-12.272893],[43.724661,-12.272888],[43.725399,-12.272675],[43.72605,-12.272678],[43.726079,-12.272725],[43.726551,-12.272724],[43.726613,-12.272652],[43.726729,-12.272521],[43.726846,-12.272428],[43.726991,-12.272325],[43.727185,-12.272222],[43.727535,-12.272233],[43.727719,-12.272168],[43.727836,-12.272084],[43.72802,-12.272029],[43.72835,-12.271974],[43.728836,-12.271967],[43.728846,-12.272014],[43.729195,-12.272053],[43.729555,-12.272064],[43.729974,-12.272048],[43.730234,-12.27186],[43.730282,-12.271635],[43.730476,-12.271354],[43.731059,-12.271375],[43.731185,-12.271272],[43.731457,-12.271255],[43.731573,-12.271199],[43.731739,-12.2712],[43.731875,-12.271228],[43.731942,-12.2712],[43.732175,-12.271089],[43.732311,-12.270882],[43.732457,-12.27078],[43.732583,-12.27078],[43.732767,-12.270443],[43.732845,-12.270462],[43.73302,-12.270566],[43.733263,-12.270661],[43.733768,-12.270758],[43.733972,-12.270824],[43.734215,-12.271258],[43.734361,-12.271531],[43.734536,-12.271645],[43.734653,-12.271834],[43.73474,-12.272069],[43.735003,-12.272211],[43.735149,-12.272315],[43.735333,-12.272467],[43.73545,-12.27258],[43.735586,-12.27275],[43.735625,-12.272882],[43.735781,-12.273127],[43.735849,-12.273296],[43.736053,-12.273495],[43.736238,-12.273524],[43.736432,-12.27375],[43.736695,-12.274081],[43.73687,-12.274382],[43.736997,-12.274646],[43.737162,-12.275098],[43.737298,-12.275099],[43.737425,-12.275184],[43.737561,-12.275486],[43.737542,-12.275787],[43.737688,-12.275844],[43.737669,-12.276126],[43.737805,-12.276145],[43.737814,-12.27622],[43.737669,-12.276436],[43.737494,-12.276501],[43.737436,-12.276858],[43.737563,-12.277141],[43.737738,-12.27748],[43.737749,-12.278232],[43.737846,-12.278571],[43.73809,-12.278958],[43.738265,-12.279175],[43.738391,-12.279354],[43.73877,-12.2796],[43.739052,-12.27978],[43.739548,-12.280083],[43.740218,-12.280472],[43.74084,-12.28086],[43.741151,-12.281059],[43.741443,-12.281192],[43.741521,-12.281277],[43.741812,-12.281485],[43.742104,-12.281684],[43.742532,-12.281959],[43.742813,-12.282111],[43.743047,-12.28229],[43.743231,-12.282442],[43.743455,-12.282631],[43.743776,-12.282858],[43.744077,-12.283094],[43.744388,-12.283359],[43.744631,-12.283539],[43.745001,-12.283747],[43.745438,-12.283994],[43.746011,-12.28426],[43.746448,-12.284487],[43.746857,-12.284677],[43.747342,-12.284887],[43.747595,-12.285066],[43.74777,-12.285218],[43.747955,-12.285378],[43.748159,-12.285492],[43.748557,-12.285701],[43.748752,-12.285777],[43.748917,-12.285919],[43.749238,-12.286183],[43.749636,-12.286514],[43.749685,-12.286524],[43.749704,-12.28628],[43.750151,-12.286413],[43.750695,-12.286566],[43.750986,-12.286633],[43.750996,-12.286641]]]}},{"type":"Feature","properties":{"pcode":"KM322","name":"Moili Mdjini","name_src":"Moili Mdjini","island":"Moh\u00e9li (Mwali)"},"geometry":{"type":"Polygon","coordinates":[[[43.803162,-12.321777],[43.794348,-12.334291],[43.785382,-12.333975],[43.784632,-12.333725],[43.779327,-12.329503],[43.763527,-12.328826],[43.74446,-12.340594],[43.742962,-12.339533],[43.742152,-12.33801],[43.740628,-12.33561],[43.739629,-12.334916],[43.737869,-12.333941],[43.737345,-12.333248],[43.736725,-12.331359],[43.736533,-12.329517],[43.734916,-12.328543],[43.733251,-12.327339],[43.732585,-12.327198],[43.731111,-12.326547],[43.729874,-12.325851],[43.72859,-12.325477],[43.727307,-12.325655],[43.72669,-12.326021],[43.725787,-12.326292],[43.735147,-12.318459],[43.740806,-12.313043],[43.748246,-12.290263],[43.750996,-12.286641],[43.751181,-12.286757],[43.75141,-12.287023],[43.751667,-12.287201],[43.75191,-12.287456],[43.752017,-12.287644],[43.752202,-12.287843],[43.752444,-12.288118],[43.752659,-12.288371],[43.75296,-12.288673],[43.753164,-12.2889],[43.753233,-12.289051],[43.753321,-12.289437],[43.753136,-12.28968],[43.752913,-12.289924],[43.752855,-12.290055],[43.752923,-12.290347],[43.753069,-12.290489],[43.753245,-12.290837],[43.753284,-12.291044],[43.753369,-12.291202],[43.753585,-12.291149],[43.75373,-12.291314],[43.75398,-12.291663],[43.754197,-12.291791],[43.754576,-12.291793],[43.754858,-12.291569],[43.75511,-12.291561],[43.755256,-12.291552],[43.755518,-12.29129],[43.755615,-12.29129],[43.755761,-12.291488],[43.756169,-12.29165],[43.756198,-12.291791],[43.756024,-12.292167],[43.756092,-12.292628],[43.756209,-12.292854],[43.756724,-12.29311],[43.756986,-12.293168],[43.757044,-12.293065],[43.757229,-12.293009],[43.757501,-12.292944],[43.757646,-12.292983],[43.75788,-12.29304],[43.758006,-12.293041],[43.758181,-12.292985],[43.758307,-12.292892],[43.758452,-12.292742],[43.758617,-12.292432],[43.758695,-12.292433],[43.758753,-12.292499],[43.758821,-12.292499],[43.758937,-12.292265],[43.759044,-12.292246],[43.759112,-12.292566],[43.759355,-12.292549],[43.759588,-12.292691],[43.759783,-12.292748],[43.759967,-12.292909],[43.760113,-12.292919],[43.760249,-12.292656],[43.760326,-12.292619],[43.760395,-12.292901],[43.76056,-12.292883],[43.760608,-12.292583],[43.760802,-12.292471],[43.760889,-12.292462],[43.761084,-12.292594],[43.761055,-12.292857],[43.761172,-12.292971],[43.761385,-12.292972],[43.76157,-12.292925],[43.761735,-12.292936],[43.761978,-12.29304],[43.762065,-12.293172],[43.762328,-12.293183],[43.762396,-12.293155],[43.76257,-12.293128],[43.762658,-12.293184],[43.762823,-12.293213],[43.76293,-12.293157],[43.762997,-12.293035],[43.763143,-12.292876],[43.763308,-12.292689],[43.763541,-12.29254],[43.763851,-12.292428],[43.764278,-12.292317],[43.764861,-12.292217],[43.766133,-12.292081],[43.766259,-12.292157],[43.766259,-12.292204],[43.766182,-12.292336],[43.766017,-12.292485],[43.766008,-12.292701],[43.766105,-12.292815],[43.766212,-12.292815],[43.766687,-12.292573],[43.76694,-12.292941],[43.767231,-12.29297],[43.767418,-12.293112],[43.767543,-12.293263],[43.767718,-12.293471],[43.767902,-12.293585],[43.768058,-12.293595],[43.768261,-12.293455],[43.768465,-12.293173],[43.768611,-12.293052],[43.768747,-12.293043],[43.768805,-12.293109],[43.76895,-12.293218],[43.76931,-12.293224],[43.769465,-12.293103],[43.769562,-12.293103],[43.769728,-12.293358],[43.76998,-12.293463],[43.770146,-12.293736],[43.770282,-12.293831],[43.770612,-12.293766],[43.770748,-12.293758],[43.771108,-12.294192],[43.771224,-12.294305],[43.771157,-12.29454],[43.77107,-12.294718],[43.770914,-12.294774],[43.770876,-12.294849],[43.770905,-12.294924],[43.771158,-12.295123],[43.771187,-12.295302],[43.771158,-12.295433],[43.771119,-12.295518],[43.771178,-12.29564],[43.771255,-12.295669],[43.771343,-12.29566],[43.77144,-12.295604],[43.771566,-12.295642],[43.771595,-12.295698],[43.771518,-12.29583],[43.77146,-12.295933],[43.771479,-12.296065],[43.771528,-12.296112],[43.771703,-12.296141],[43.771848,-12.296085],[43.772052,-12.296114],[43.772062,-12.296274],[43.771975,-12.296509],[43.771975,-12.296753],[43.772043,-12.296838],[43.77216,-12.296905],[43.772315,-12.296924],[43.772432,-12.29699],[43.772568,-12.297123],[43.772636,-12.297273],[43.772666,-12.297518],[43.772734,-12.297594],[43.772851,-12.297745],[43.772987,-12.297802],[43.773472,-12.297823],[43.773677,-12.298115],[43.773677,-12.298313],[43.773357,-12.299007],[43.773367,-12.299345],[43.773494,-12.299788],[43.773591,-12.29992],[43.773563,-12.300174],[43.773417,-12.300371],[43.773427,-12.300549],[43.773534,-12.300644],[43.773632,-12.300926],[43.773943,-12.301577],[43.774381,-12.302556],[43.774566,-12.302877],[43.774722,-12.303179],[43.7748,-12.303414],[43.775004,-12.303688],[43.77515,-12.304036],[43.775433,-12.304583],[43.775657,-12.304988],[43.775851,-12.305271],[43.776036,-12.305479],[43.776259,-12.305536],[43.776405,-12.305509],[43.77658,-12.305416],[43.776813,-12.305294],[43.777007,-12.305164],[43.777152,-12.305183],[43.777269,-12.305297],[43.777454,-12.305401],[43.777668,-12.305552],[43.777804,-12.305797],[43.777872,-12.305995],[43.77794,-12.306155],[43.778212,-12.306156],[43.778348,-12.306101],[43.778513,-12.305904],[43.778687,-12.305689],[43.77894,-12.30552],[43.779027,-12.305417],[43.779065,-12.305126],[43.779259,-12.304883],[43.779385,-12.30477],[43.779541,-12.304724],[43.779686,-12.304696],[43.779842,-12.304707],[43.780007,-12.304773],[43.780133,-12.304905],[43.780211,-12.305028],[43.780318,-12.305245],[43.780484,-12.305575],[43.780795,-12.305952],[43.781048,-12.306282],[43.781184,-12.306527],[43.781311,-12.306735],[43.781661,-12.307056],[43.782059,-12.307453],[43.782302,-12.307482],[43.782565,-12.307681],[43.782924,-12.307767],[43.783497,-12.308043],[43.783876,-12.308223],[43.784119,-12.308422],[43.784469,-12.308649],[43.78479,-12.308848],[43.785091,-12.308943],[43.785266,-12.308888],[43.785421,-12.308794],[43.785732,-12.308777],[43.785984,-12.308712],[43.786217,-12.308629],[43.786411,-12.308507],[43.786576,-12.308358],[43.786673,-12.308236],[43.786663,-12.30786],[43.786799,-12.307484],[43.786905,-12.307466],[43.787003,-12.307532],[43.786964,-12.307814],[43.787081,-12.307824],[43.787265,-12.307712],[43.787284,-12.307439],[43.787333,-12.307411],[43.787449,-12.307421],[43.787575,-12.307497],[43.787585,-12.30776],[43.787401,-12.307872],[43.787382,-12.308089],[43.787304,-12.308248],[43.787324,-12.308399],[43.787626,-12.308833],[43.787878,-12.308853],[43.788033,-12.308712],[43.78814,-12.308722],[43.788199,-12.308873],[43.788276,-12.308873],[43.788451,-12.308695],[43.788762,-12.308706],[43.788781,-12.308857],[43.788843,-12.30883],[43.788927,-12.308745],[43.789053,-12.308736],[43.789044,-12.309196],[43.7892,-12.309413],[43.789306,-12.309442],[43.789423,-12.309386],[43.789666,-12.309293],[43.78983,-12.308918],[43.790024,-12.308919],[43.790209,-12.30875],[43.790208,-12.308459],[43.790344,-12.308431],[43.790354,-12.308168],[43.790461,-12.308187],[43.790509,-12.308385],[43.790742,-12.308433],[43.790854,-12.308571],[43.790869,-12.308706],[43.7905,-12.308714],[43.79051,-12.308902],[43.790442,-12.309175],[43.790258,-12.30954],[43.790162,-12.310076],[43.790318,-12.310284],[43.790589,-12.310304],[43.790696,-12.310379],[43.790697,-12.310577],[43.790522,-12.310726],[43.790445,-12.310924],[43.790454,-12.311083],[43.790736,-12.31131],[43.790843,-12.31132],[43.79095,-12.311086],[43.791076,-12.311058],[43.791076,-12.311218],[43.791232,-12.31135],[43.791416,-12.31137],[43.791552,-12.311051],[43.791756,-12.311014],[43.791756,-12.31123],[43.791892,-12.31125],[43.791931,-12.311175],[43.792019,-12.311152],[43.792057,-12.311392],[43.791844,-12.31156],[43.791844,-12.311635],[43.792048,-12.311636],[43.792193,-12.311505],[43.792281,-12.311515],[43.792271,-12.311675],[43.792126,-12.311787],[43.792116,-12.311909],[43.792291,-12.31191],[43.792301,-12.311854],[43.792456,-12.311835],[43.792446,-12.311939],[43.792398,-12.312052],[43.792369,-12.312239],[43.792476,-12.312268],[43.792525,-12.312372],[43.792573,-12.312419],[43.792738,-12.312316],[43.792942,-12.312317],[43.792933,-12.31259],[43.793137,-12.312619],[43.793418,-12.31246],[43.793506,-12.312555],[43.793535,-12.312696],[43.793671,-12.312678],[43.793904,-12.312529],[43.794001,-12.312501],[43.794011,-12.312783],[43.79405,-12.312821],[43.794147,-12.312671],[43.794244,-12.31253],[43.79436,-12.312455],[43.79436,-12.312606],[43.794302,-12.312812],[43.794215,-12.312981],[43.794079,-12.313103],[43.793924,-12.313215],[43.793779,-12.313374],[43.793779,-12.313431],[43.793963,-12.313507],[43.794128,-12.313554],[43.794129,-12.313865],[43.794081,-12.314118],[43.794217,-12.314843],[43.794364,-12.315154],[43.79449,-12.315333],[43.794655,-12.315362],[43.794908,-12.315439],[43.795238,-12.315487],[43.795297,-12.315958],[43.79553,-12.316194],[43.795628,-12.316354],[43.795715,-12.316561],[43.795735,-12.316721],[43.795784,-12.317154],[43.796153,-12.317381],[43.796629,-12.317656],[43.796921,-12.317799],[43.797115,-12.317781],[43.797212,-12.317734],[43.797455,-12.317472],[43.797445,-12.317143],[43.797561,-12.31704],[43.797609,-12.31704],[43.797687,-12.317238],[43.797678,-12.317341],[43.797581,-12.317491],[43.797649,-12.317745],[43.797805,-12.317746],[43.79796,-12.317973],[43.798358,-12.318031],[43.798549,-12.318194],[43.79867,-12.318258],[43.798845,-12.318569],[43.798874,-12.318673],[43.798952,-12.318823],[43.799001,-12.318974],[43.799137,-12.31904],[43.799234,-12.319097],[43.799748,-12.318846],[43.799923,-12.318828],[43.800001,-12.318922],[43.80002,-12.318998],[43.799894,-12.319213],[43.799778,-12.31926],[43.799632,-12.319297],[43.799487,-12.319418],[43.79939,-12.319521],[43.7994,-12.319719],[43.799662,-12.320143],[43.799828,-12.320435],[43.799877,-12.320614],[43.800169,-12.320982],[43.80049,-12.321407],[43.800742,-12.321746],[43.800801,-12.321784],[43.801141,-12.321833],[43.801267,-12.321918],[43.801374,-12.321919],[43.801471,-12.321853],[43.801529,-12.321581],[43.80182,-12.32161],[43.801888,-12.321545],[43.801878,-12.321347],[43.801946,-12.321216],[43.802247,-12.321208],[43.802451,-12.321294],[43.802451,-12.321463],[43.802733,-12.321577],[43.803005,-12.321653],[43.803083,-12.321701],[43.803162,-12.321777]]]}},{"type":"Feature","properties":{"pcode":"KM323","name":"Moimbassa","name_src":"Moimbassa","island":"Moh\u00e9li (Mwali)"},"geometry":{"type":"Polygon","coordinates":[[[43.657398,-12.249928],[43.657603,-12.249988],[43.65812,-12.249431],[43.658135,-12.249284],[43.658348,-12.249255],[43.658508,-12.249602],[43.658706,-12.249964],[43.658672,-12.25019],[43.658745,-12.250443],[43.658776,-12.250553],[43.658844,-12.250554],[43.658958,-12.250495],[43.659095,-12.250467],[43.659164,-12.250872],[43.659362,-12.251013],[43.659515,-12.251147],[43.659628,-12.251092],[43.659739,-12.250964],[43.659834,-12.250974],[43.659845,-12.251066],[43.659705,-12.251276],[43.659624,-12.251569],[43.659608,-12.251799],[43.659534,-12.251954],[43.659595,-12.252349],[43.659739,-12.252505],[43.659787,-12.25256],[43.659901,-12.252588],[43.660288,-12.252553],[43.660477,-12.252526],[43.66052,-12.252506],[43.660577,-12.252636],[43.660749,-12.252692],[43.660863,-12.252662],[43.661037,-12.252538],[43.661144,-12.252487],[43.661305,-12.25248],[43.66122,-12.252922],[43.661113,-12.253384],[43.6611,-12.253978],[43.661029,-12.254206],[43.660936,-12.254412],[43.660751,-12.254854],[43.660631,-12.255247],[43.660374,-12.255529],[43.66031,-12.25577],[43.660068,-12.256094],[43.66004,-12.256211],[43.660083,-12.25626],[43.660204,-12.256357],[43.660333,-12.25653],[43.660647,-12.256843],[43.661097,-12.257114],[43.661775,-12.257532],[43.662596,-12.258088],[43.662824,-12.258172],[43.662967,-12.258166],[43.66326,-12.258084],[43.663331,-12.257967],[43.663337,-12.257414],[43.66343,-12.257311],[43.663822,-12.257147],[43.664428,-12.25697],[43.664714,-12.257027],[43.664871,-12.257166],[43.665149,-12.257188],[43.666276,-12.257366],[43.668046,-12.25736],[43.668274,-12.257188],[43.668545,-12.257107],[43.668816,-12.257094],[43.669222,-12.256917],[43.669907,-12.256588],[43.670634,-12.25617],[43.67109,-12.255896],[43.671525,-12.25567],[43.672117,-12.255424],[43.672744,-12.254964],[43.67283,-12.254971],[43.672958,-12.255082],[43.672973,-12.255442],[43.673009,-12.255456],[43.673229,-12.255167],[43.673315,-12.254905],[43.673514,-12.254823],[43.673671,-12.254913],[43.673993,-12.255136],[43.674171,-12.255316],[43.674393,-12.255614],[43.674636,-12.255815],[43.67495,-12.256059],[43.675371,-12.256289],[43.675835,-12.256532],[43.676428,-12.257046],[43.676507,-12.25724],[43.676942,-12.257636],[43.677135,-12.257733],[43.677813,-12.258165],[43.678155,-12.25798],[43.678405,-12.257988],[43.678498,-12.258223],[43.678612,-12.258217],[43.678619,-12.258044],[43.678712,-12.257996],[43.67879,-12.258045],[43.678883,-12.258211],[43.678948,-12.258225],[43.67904,-12.258129],[43.679126,-12.258185],[43.679219,-12.258275],[43.679433,-12.258276],[43.679718,-12.257994],[43.679854,-12.258133],[43.679932,-12.258147],[43.680003,-12.258044],[43.680232,-12.258093],[43.68041,-12.258322],[43.680632,-12.258461],[43.681253,-12.258733],[43.682066,-12.258937],[43.682837,-12.259051],[43.684663,-12.259177],[43.685319,-12.259084],[43.685312,-12.258862],[43.685405,-12.258773],[43.685483,-12.258787],[43.685512,-12.259188],[43.685805,-12.259438],[43.687147,-12.260087],[43.687668,-12.260372],[43.689502,-12.260954],[43.689888,-12.260956],[43.690301,-12.260819],[43.690608,-12.260842],[43.692192,-12.261346],[43.69389,-12.261375],[43.694562,-12.261188],[43.695131,-12.260842],[43.695474,-12.260878],[43.696488,-12.261684],[43.696951,-12.261707],[43.697251,-12.261791],[43.697401,-12.261937],[43.69768,-12.262283],[43.697794,-12.262387],[43.697972,-12.262478],[43.698551,-12.26266],[43.699129,-12.262843],[43.69985,-12.263212],[43.700002,-12.26339],[43.700197,-12.263636],[43.700498,-12.263891],[43.700721,-12.264014],[43.700994,-12.264194],[43.701217,-12.264336],[43.701528,-12.26462],[43.701869,-12.264913],[43.702151,-12.265234],[43.702403,-12.265498],[43.702676,-12.265706],[43.703074,-12.266094],[43.703424,-12.266406],[43.703755,-12.266717],[43.704114,-12.266992],[43.704455,-12.267228],[43.704873,-12.267512],[43.705203,-12.267721],[43.705708,-12.267921],[43.706029,-12.268082],[43.706398,-12.268225],[43.706797,-12.268405],[43.707107,-12.268501],[43.707341,-12.268539],[43.707778,-12.268579],[43.70804,-12.268843],[43.70838,-12.268845],[43.708642,-12.268874],[43.708817,-12.268913],[43.709031,-12.269045],[43.709235,-12.269216],[43.709585,-12.269368],[43.709828,-12.269425],[43.710148,-12.269511],[43.710517,-12.269541],[43.710806,-12.269644],[43.710855,-12.269664],[43.710827,-12.269892],[43.708494,-12.285114],[43.704335,-12.288661],[43.688214,-12.305734],[43.685741,-12.304158],[43.684837,-12.303371],[43.683742,-12.302446],[43.683076,-12.301798],[43.682647,-12.3006],[43.682028,-12.299861],[43.680981,-12.298844],[43.680457,-12.297415],[43.679457,-12.296259],[43.678458,-12.295703],[43.677745,-12.295469],[43.677127,-12.295466],[43.676414,-12.295693],[43.676034,-12.295553],[43.67413,-12.293566],[43.673322,-12.292918],[43.672608,-12.292546],[43.671848,-12.292497],[43.671372,-12.292173],[43.670848,-12.291572],[43.670278,-12.291155],[43.669564,-12.290692],[43.668755,-12.290044],[43.667424,-12.289669],[43.666853,-12.289069],[43.666045,-12.288881],[43.664999,-12.28883],[43.664286,-12.288643],[43.66419,-12.288136],[43.663999,-12.287491],[43.663094,-12.286106],[43.662429,-12.285689],[43.661715,-12.285318],[43.661097,-12.285131],[43.660574,-12.285082],[43.660193,-12.284712],[43.659575,-12.284249],[43.659337,-12.283834],[43.659051,-12.282958],[43.658574,-12.282174],[43.656005,-12.280183],[43.655719,-12.2794],[43.655243,-12.278891],[43.653388,-12.277916],[43.652769,-12.276855],[43.648774,-12.274306],[43.647679,-12.273104],[43.645871,-12.271807],[43.639438,-12.270142],[43.634188,-12.269419],[43.627218,-12.266048],[43.627128,-12.266026],[43.627096,-12.265942],[43.626943,-12.265565],[43.626753,-12.265248],[43.626623,-12.264945],[43.626501,-12.264554],[43.626417,-12.264318],[43.626439,-12.263736],[43.626476,-12.263435],[43.626529,-12.26331],[43.626719,-12.263141],[43.626795,-12.263097],[43.626887,-12.263105],[43.627009,-12.26312],[43.627199,-12.263099],[43.627313,-12.263078],[43.627419,-12.262975],[43.627556,-12.262843],[43.627662,-12.262681],[43.627867,-12.262594],[43.628012,-12.262543],[43.628225,-12.262411],[43.628308,-12.262272],[43.628597,-12.261949],[43.628749,-12.261861],[43.629106,-12.261701],[43.629205,-12.261606],[43.62922,-12.261363],[43.629372,-12.261253],[43.629448,-12.261275],[43.629509,-12.261327],[43.629562,-12.261276],[43.629707,-12.261269],[43.629866,-12.26113],[43.630125,-12.260807],[43.630413,-12.260521],[43.630443,-12.260227],[43.63039,-12.25991],[43.630214,-12.25943],[43.630229,-12.259187],[43.630305,-12.259107],[43.630533,-12.259115],[43.630563,-12.25896],[43.630693,-12.258821],[43.630913,-12.258579],[43.63105,-12.258587],[43.631301,-12.258529],[43.6314,-12.258449],[43.631361,-12.258294],[43.631201,-12.258043],[43.631231,-12.257697],[43.63133,-12.257616],[43.631536,-12.257661],[43.631672,-12.257684],[43.631802,-12.257478],[43.631801,-12.257279],[43.631763,-12.256933],[43.632034,-12.256852],[43.632247,-12.257245],[43.632486,-12.257599],[43.632699,-12.257892],[43.632799,-12.257881],[43.632836,-12.257748],[43.633247,-12.257426],[43.633498,-12.257236],[43.633421,-12.256749],[43.633307,-12.256535],[43.633367,-12.25644],[43.633527,-12.256418],[43.633535,-12.256632],[43.633611,-12.256691],[43.633702,-12.256677],[43.633781,-12.256668],[43.633832,-12.256744],[43.633748,-12.256773],[43.633731,-12.256857],[43.633771,-12.256986],[43.633942,-12.257048],[43.634198,-12.257239],[43.634434,-12.257439],[43.634586,-12.257631],[43.634677,-12.257742],[43.63524,-12.257708],[43.635255,-12.257457],[43.635354,-12.257355],[43.635674,-12.257445],[43.635803,-12.257386],[43.635917,-12.257247],[43.635985,-12.257056],[43.636335,-12.257035],[43.636424,-12.257209],[43.63686,-12.25731],[43.637276,-12.257516],[43.637393,-12.25743],[43.638397,-12.257317],[43.638906,-12.257319],[43.639865,-12.257641],[43.640162,-12.257693],[43.640299,-12.257569],[43.640641,-12.25718],[43.640907,-12.257424],[43.640999,-12.257646],[43.641128,-12.257823],[43.641357,-12.257883],[43.641532,-12.258061],[43.641859,-12.258062],[43.641958,-12.258114],[43.642011,-12.257989],[43.642353,-12.25788],[43.64284,-12.257684],[43.643342,-12.257443],[43.644239,-12.25685],[43.644459,-12.256667],[43.644634,-12.256506],[43.644869,-12.25636],[43.645052,-12.256199],[43.645135,-12.256066],[43.645059,-12.255948],[43.644739,-12.255571],[43.644739,-12.255203],[43.644898,-12.255034],[43.644905,-12.254629],[43.644722,-12.254334],[43.644539,-12.254156],[43.644258,-12.253897],[43.644265,-12.25372],[43.644349,-12.253603],[43.644547,-12.253788],[43.644547,-12.253987],[43.644608,-12.254039],[43.644844,-12.254099],[43.645042,-12.254232],[43.645148,-12.254387],[43.645255,-12.254402],[43.645392,-12.254351],[43.645437,-12.254241],[43.645384,-12.254057],[43.645383,-12.253578],[43.645315,-12.253504],[43.645306,-12.25304],[43.645436,-12.253033],[43.645412,-12.252488],[43.645556,-12.252327],[43.645671,-12.252335],[43.645808,-12.252431],[43.645777,-12.2526],[43.645793,-12.252807],[43.64593,-12.252837],[43.646158,-12.252587],[43.64628,-12.252603],[43.646493,-12.252883],[43.646592,-12.252913],[43.646729,-12.252855],[43.6471,-12.252749],[43.647412,-12.252585],[43.647775,-12.252359],[43.647816,-12.25233],[43.647884,-12.25219],[43.648036,-12.251992],[43.648051,-12.25183],[43.648157,-12.251698],[43.64834,-12.251485],[43.648393,-12.251242],[43.648438,-12.250963],[43.648559,-12.250735],[43.648711,-12.250551],[43.648894,-12.250471],[43.649053,-12.250472],[43.649152,-12.250502],[43.649297,-12.250635],[43.649487,-12.250444],[43.649738,-12.250431],[43.649913,-12.250535],[43.650043,-12.250594],[43.650157,-12.250565],[43.650301,-12.2505],[43.650316,-12.250242],[43.650415,-12.250184],[43.650658,-12.250185],[43.650788,-12.250222],[43.650796,-12.250524],[43.650788,-12.250826],[43.65091,-12.250863],[43.651275,-12.250607],[43.651404,-12.250608],[43.65145,-12.250918],[43.65142,-12.251065],[43.651405,-12.251168],[43.651451,-12.251227],[43.651771,-12.251494],[43.652014,-12.251723],[43.652182,-12.251908],[43.652342,-12.252166],[43.652517,-12.252292],[43.65254,-12.252447],[43.652753,-12.252625],[43.652807,-12.252721],[43.652898,-12.25292],[43.654543,-12.252952],[43.65464,-12.252818],[43.655073,-12.251965],[43.655126,-12.251885],[43.655445,-12.251569],[43.655863,-12.251092],[43.656075,-12.250777],[43.656151,-12.250549],[43.65615,-12.250077],[43.6565,-12.249659],[43.656552,-12.249026],[43.656659,-12.248953],[43.65678,-12.248946],[43.656849,-12.249064],[43.656842,-12.249698],[43.657129,-12.249744],[43.657398,-12.249928]]]}},{"type":"Feature","properties":{"pcode":"KM331","name":"Mledjele","name_src":"Ml\u00e9dj\u00e9l\u00e9","island":"Moh\u00e9li (Mwali)"},"geometry":{"type":"MultiPolygon","coordinates":[[[[43.715748,-12.317595],[43.717174,-12.317924],[43.719455,-12.317704],[43.721119,-12.31762],[43.723066,-12.316386],[43.724302,-12.317128],[43.725589,-12.319389],[43.725787,-12.326292],[43.72669,-12.326021],[43.727307,-12.325655],[43.72859,-12.325477],[43.729874,-12.325851],[43.731111,-12.326547],[43.732585,-12.327198],[43.733251,-12.327339],[43.734916,-12.328543],[43.736533,-12.329517],[43.736725,-12.331359],[43.737345,-12.333248],[43.737869,-12.333941],[43.739629,-12.334916],[43.740628,-12.33561],[43.742152,-12.33801],[43.742962,-12.339533],[43.74446,-12.340594],[43.74539,-12.343179],[43.74641,-12.344892],[43.748744,-12.345836],[43.752188,-12.346725],[43.757137,-12.348986],[43.758849,-12.349638],[43.76118,-12.351121],[43.764556,-12.352517],[43.767466,-12.355531],[43.772299,-12.368336],[43.772688,-12.368642],[43.778034,-12.380748],[43.777762,-12.380718],[43.777558,-12.380482],[43.777373,-12.380359],[43.777169,-12.380274],[43.777033,-12.380226],[43.776655,-12.380187],[43.776499,-12.380148],[43.776315,-12.380138],[43.776208,-12.379884],[43.776188,-12.379564],[43.776051,-12.379262],[43.775915,-12.379234],[43.775731,-12.379167],[43.775604,-12.378706],[43.775555,-12.378301],[43.775516,-12.378113],[43.775224,-12.377792],[43.775,-12.377575],[43.774845,-12.377423],[43.774592,-12.377225],[43.774543,-12.376548],[43.774426,-12.376255],[43.774445,-12.376011],[43.774493,-12.375993],[43.774483,-12.37556],[43.774541,-12.375541],[43.774522,-12.375372],[43.774269,-12.375004],[43.774239,-12.374825],[43.774084,-12.374524],[43.773928,-12.37426],[43.773792,-12.374137],[43.773675,-12.374042],[43.773578,-12.373835],[43.7735,-12.373722],[43.773277,-12.373627],[43.773121,-12.373551],[43.772868,-12.373437],[43.772664,-12.373427],[43.772422,-12.373378],[43.772266,-12.373284],[43.77212,-12.372954],[43.77212,-12.372785],[43.772178,-12.372729],[43.772196,-12.371948],[43.772206,-12.371845],[43.772041,-12.371515],[43.771846,-12.371232],[43.77169,-12.370977],[43.771603,-12.370704],[43.771524,-12.370318],[43.771417,-12.370073],[43.771252,-12.3698],[43.771038,-12.369555],[43.77095,-12.369319],[43.770892,-12.369103],[43.770746,-12.368782],[43.770629,-12.368622],[43.770434,-12.36847],[43.770269,-12.3683],[43.770259,-12.368047],[43.76989,-12.367763],[43.769705,-12.367574],[43.769539,-12.367338],[43.769403,-12.367149],[43.769277,-12.366961],[43.769189,-12.366772],[43.769111,-12.366584],[43.769014,-12.366527],[43.768868,-12.36646],[43.768587,-12.366478],[43.768266,-12.366505],[43.767907,-12.366578],[43.767587,-12.366652],[43.767286,-12.366792],[43.767043,-12.36695],[43.76681,-12.367025],[43.766674,-12.367184],[43.766578,-12.367531],[43.766374,-12.367671],[43.765995,-12.367754],[43.765617,-12.36779],[43.765287,-12.367873],[43.764947,-12.367966],[43.764558,-12.36802],[43.764316,-12.367982],[43.764111,-12.367699],[43.764121,-12.367435],[43.764295,-12.367276],[43.764344,-12.367135],[43.764392,-12.36691],[43.764508,-12.366666],[43.764615,-12.366469],[43.764595,-12.366168],[43.764488,-12.36598],[43.764274,-12.365885],[43.764002,-12.365789],[43.763594,-12.365797],[43.762973,-12.36585],[43.76238,-12.365866],[43.762041,-12.365902],[43.761856,-12.365949],[43.761701,-12.366051],[43.761575,-12.366051],[43.761409,-12.365937],[43.761302,-12.36572],[43.761127,-12.365419],[43.760991,-12.365277],[43.760787,-12.365257],[43.760447,-12.364964],[43.760223,-12.364691],[43.760077,-12.364615],[43.759834,-12.364454],[43.759805,-12.364219],[43.759309,-12.363972],[43.759222,-12.363971],[43.759057,-12.364196],[43.758824,-12.364195],[43.758814,-12.363612],[43.758706,-12.363076],[43.758657,-12.362906],[43.758395,-12.362604],[43.758065,-12.362866],[43.757949,-12.363063],[43.757813,-12.363043],[43.757822,-12.362724],[43.757764,-12.362724],[43.757628,-12.362798],[43.757308,-12.362956],[43.757152,-12.362946],[43.757132,-12.362683],[43.756948,-12.362673],[43.75686,-12.362353],[43.756636,-12.362126],[43.75619,-12.362067],[43.756141,-12.361964],[43.755995,-12.361869],[43.755781,-12.361774],[43.755461,-12.361594],[43.754956,-12.36161],[43.754674,-12.361731],[43.754422,-12.361824],[43.754179,-12.361842],[43.754092,-12.361926],[43.753956,-12.361963],[43.753869,-12.362207],[43.753714,-12.362545],[43.753433,-12.362863],[43.75319,-12.36305],[43.752977,-12.363162],[43.752578,-12.36317],[43.752355,-12.363009],[43.752219,-12.36282],[43.75215,-12.362641],[43.75215,-12.362058],[43.752023,-12.361804],[43.751945,-12.361568],[43.751944,-12.360807],[43.751478,-12.360664],[43.751206,-12.360502],[43.750904,-12.360304],[43.750545,-12.360058],[43.750273,-12.359972],[43.750176,-12.359971],[43.749943,-12.359914],[43.749739,-12.359875],[43.749525,-12.359743],[43.749389,-12.359629],[43.749311,-12.359488],[43.749291,-12.359384],[43.749049,-12.359468],[43.748748,-12.359532],[43.748087,-12.359717],[43.747719,-12.359885],[43.747253,-12.360155],[43.747001,-12.360361],[43.746943,-12.360511],[43.746885,-12.360718],[43.746953,-12.361],[43.747089,-12.361142],[43.747157,-12.361321],[43.747236,-12.361989],[43.747178,-12.36212],[43.746682,-12.362184],[43.746586,-12.362371],[43.74644,-12.362634],[43.746256,-12.362877],[43.746169,-12.362943],[43.745975,-12.36298],[43.745664,-12.363044],[43.745295,-12.363042],[43.745071,-12.362975],[43.744887,-12.362946],[43.744673,-12.362974],[43.74445,-12.36301],[43.744304,-12.363038],[43.74411,-12.363187],[43.743906,-12.363356],[43.7438,-12.363515],[43.743751,-12.363656],[43.743693,-12.363768],[43.743703,-12.363872],[43.743839,-12.363995],[43.744053,-12.364099],[43.744131,-12.364165],[43.744219,-12.364344],[43.744316,-12.364533],[43.744433,-12.364693],[43.74454,-12.364797],[43.744744,-12.364948],[43.744919,-12.365034],[43.744977,-12.365185],[43.745026,-12.365655],[43.745162,-12.365928],[43.745347,-12.366221],[43.745474,-12.3664],[43.7456,-12.366523],[43.745678,-12.36657],[43.745804,-12.366636],[43.745892,-12.366637],[43.746057,-12.366591],[43.746163,-12.366506],[43.74626,-12.366319],[43.746357,-12.366188],[43.746551,-12.365944],[43.746716,-12.365776],[43.746939,-12.365664],[43.747017,-12.365674],[43.747066,-12.36589],[43.747173,-12.366032],[43.747377,-12.366202],[43.747668,-12.366222],[43.747795,-12.366411],[43.747795,-12.366655],[43.748048,-12.366901],[43.748271,-12.366911],[43.74831,-12.366986],[43.748146,-12.367559],[43.748214,-12.367691],[43.748389,-12.367833],[43.748409,-12.36819],[43.748458,-12.368257],[43.748477,-12.368492],[43.748371,-12.368651],[43.748274,-12.36881],[43.748138,-12.368951],[43.74806,-12.369007],[43.748061,-12.369703],[43.747722,-12.369964],[43.747527,-12.37002],[43.747421,-12.369944],[43.747275,-12.369709],[43.74709,-12.369463],[43.746944,-12.36934],[43.746798,-12.369227],[43.746643,-12.369019],[43.746603,-12.36885],[43.746545,-12.368605],[43.746438,-12.368426],[43.746272,-12.368237],[43.746175,-12.368058],[43.746087,-12.367804],[43.746058,-12.367521],[43.745883,-12.367464],[43.745747,-12.367435],[43.745553,-12.367341],[43.745426,-12.36734],[43.745223,-12.367452],[43.745087,-12.367573],[43.74498,-12.367761],[43.744942,-12.367892],[43.744874,-12.368231],[43.744777,-12.368559],[43.7447,-12.368982],[43.74473,-12.36917],[43.744759,-12.369565],[43.744594,-12.369734],[43.744342,-12.369893],[43.744255,-12.370165],[43.744314,-12.37056],[43.744392,-12.370748],[43.744343,-12.370955],[43.744247,-12.371171],[43.744159,-12.371321],[43.744053,-12.371349],[43.743878,-12.371216],[43.743839,-12.371066],[43.743673,-12.370999],[43.743518,-12.370829],[43.743488,-12.370406],[43.743352,-12.370255],[43.743099,-12.369962],[43.743099,-12.369906],[43.743206,-12.369737],[43.743341,-12.369502],[43.743341,-12.369211],[43.743176,-12.368975],[43.742981,-12.368786],[43.742787,-12.368672],[43.742563,-12.368606],[43.742447,-12.36852],[43.742242,-12.368313],[43.742223,-12.368162],[43.742281,-12.368096],[43.742281,-12.368031],[43.742125,-12.367804],[43.742105,-12.367541],[43.741843,-12.367258],[43.741512,-12.366927],[43.741328,-12.366879],[43.741163,-12.366813],[43.741026,-12.366633],[43.740871,-12.366426],[43.740725,-12.366152],[43.740462,-12.365869],[43.740248,-12.365642],[43.739928,-12.365462],[43.739481,-12.365291],[43.739189,-12.365111],[43.738985,-12.364941],[43.738732,-12.364789],[43.738402,-12.364571],[43.738149,-12.364476],[43.737867,-12.364353],[43.737692,-12.364239],[43.737644,-12.363994],[43.737439,-12.363749],[43.737235,-12.36372],[43.736837,-12.363615],[43.735953,-12.363281],[43.735535,-12.363026],[43.735205,-12.362892],[43.734709,-12.362768],[43.733932,-12.362755],[43.733826,-12.362792],[43.733496,-12.363044],[43.733263,-12.36325],[43.733215,-12.363476],[43.73305,-12.363569],[43.732748,-12.363285],[43.732612,-12.363181],[43.732534,-12.363059],[43.732146,-12.363085],[43.731835,-12.363121],[43.731,-12.36339],[43.730505,-12.363585],[43.73001,-12.36363],[43.729282,-12.363533],[43.729087,-12.363372],[43.728961,-12.363221],[43.72862,-12.3629],[43.727979,-12.362653],[43.727386,-12.36233],[43.726939,-12.362149],[43.726735,-12.36212],[43.726493,-12.362147],[43.726192,-12.36223],[43.725925,-12.362293],[43.72532,-12.362369],[43.72494,-12.36241],[43.724724,-12.362541],[43.724534,-12.362732],[43.724444,-12.362907],[43.724336,-12.363055],[43.724255,-12.363308],[43.72412,-12.363404],[43.723921,-12.363481],[43.723786,-12.363481],[43.723605,-12.363428],[43.723198,-12.363426],[43.723135,-12.363469],[43.722973,-12.363573],[43.722819,-12.363678],[43.722765,-12.363835],[43.722657,-12.364035],[43.722585,-12.364192],[43.722613,-12.364437],[43.722577,-12.364612],[43.722496,-12.364708],[43.722369,-12.364795],[43.722189,-12.364846],[43.722026,-12.364872],[43.721918,-12.364828],[43.721818,-12.364836],[43.721837,-12.365011],[43.721801,-12.365369],[43.721792,-12.365684],[43.721756,-12.365885],[43.721721,-12.36613],[43.721757,-12.366279],[43.721838,-12.366506],[43.721866,-12.366734],[43.721983,-12.366848],[43.722273,-12.367208],[43.722544,-12.367463],[43.722743,-12.367499],[43.722743,-12.367752],[43.722311,-12.368607],[43.722149,-12.368913],[43.722095,-12.369262],[43.721906,-12.369576],[43.721816,-12.369803],[43.721572,-12.370327],[43.721455,-12.370326],[43.721012,-12.370202],[43.720534,-12.370304],[43.71991,-12.370302],[43.719594,-12.37023],[43.719115,-12.370044],[43.718564,-12.369823],[43.718085,-12.369646],[43.717489,-12.369416],[43.716775,-12.369142],[43.716386,-12.369017],[43.715898,-12.368805],[43.715591,-12.368646],[43.71541,-12.368497],[43.715247,-12.368278],[43.715039,-12.367944],[43.71484,-12.367646],[43.714695,-12.367313],[43.714569,-12.367181],[43.714421,-12.366999],[43.714261,-12.366734],[43.714107,-12.366619],[43.713918,-12.366549],[43.7138,-12.36681],[43.713629,-12.366985],[43.713475,-12.366958],[43.713538,-12.366713],[43.71352,-12.366389],[43.713357,-12.366126],[43.713357,-12.365829],[43.713573,-12.365865],[43.713817,-12.365962],[43.713881,-12.365954],[43.714043,-12.365745],[43.714106,-12.365561],[43.714115,-12.365378],[43.713997,-12.36501],[43.713816,-12.364624],[43.713635,-12.364309],[43.713626,-12.364204],[43.713734,-12.364108],[43.714013,-12.363777],[43.714275,-12.363525],[43.714401,-12.363359],[43.71441,-12.363298],[43.714247,-12.363],[43.714129,-12.362614],[43.714129,-12.362168],[43.714075,-12.362142],[43.714073,-12.361302],[43.714128,-12.361268],[43.714135,-12.360026],[43.714026,-12.359807],[43.713737,-12.359622],[43.713602,-12.359604],[43.713385,-12.359655],[43.712672,-12.359774],[43.712446,-12.359773],[43.711886,-12.359666],[43.71138,-12.359646],[43.711082,-12.35968],[43.710757,-12.359757],[43.710459,-12.35986],[43.710306,-12.359982],[43.71027,-12.3602],[43.710143,-12.3602],[43.710098,-12.360077],[43.710017,-12.359998],[43.70979,-12.359787],[43.709601,-12.359699],[43.709221,-12.359452],[43.708769,-12.359188],[43.708371,-12.358985],[43.707947,-12.358703],[43.707675,-12.358579],[43.70726,-12.35842],[43.706953,-12.35841],[43.706474,-12.358399],[43.706004,-12.358353],[43.705905,-12.358405],[43.705399,-12.358455],[43.70502,-12.35855],[43.704903,-12.358785],[43.704904,-12.359266],[43.704823,-12.359764],[43.704724,-12.360079],[43.70458,-12.360463],[43.704436,-12.360611],[43.704273,-12.360715],[43.704131,-12.360858],[43.704075,-12.361003],[43.704075,-12.361562],[43.703922,-12.361562],[43.703786,-12.361185],[43.703641,-12.360913],[43.703451,-12.360641],[43.703315,-12.360475],[43.703171,-12.360351],[43.702972,-12.360254],[43.70271,-12.360157],[43.702376,-12.360016],[43.702141,-12.359918],[43.701924,-12.359795],[43.701625,-12.359592],[43.701417,-12.359416],[43.701264,-12.359267],[43.701119,-12.359092],[43.701037,-12.358942],[43.700938,-12.358732],[43.700829,-12.358268],[43.700765,-12.358093],[43.700828,-12.357866],[43.700828,-12.357638],[43.700756,-12.357586],[43.700304,-12.357584],[43.699988,-12.357661],[43.699735,-12.357756],[43.699419,-12.357851],[43.698426,-12.357846],[43.698236,-12.358011],[43.698038,-12.358168],[43.697839,-12.358333],[43.697551,-12.358515],[43.697325,-12.358602],[43.696756,-12.358678],[43.696684,-12.35873],[43.696558,-12.358931],[43.69644,-12.35914],[43.696424,-12.360172],[43.696325,-12.360372],[43.696171,-12.360485],[43.696036,-12.360494],[43.695819,-12.360414],[43.695728,-12.360352],[43.695566,-12.360098],[43.695439,-12.359844],[43.695339,-12.359633],[43.695267,-12.359397],[43.695158,-12.35916],[43.69504,-12.358967],[43.69485,-12.358748],[43.694706,-12.358581],[43.694552,-12.35844],[43.694398,-12.358317],[43.694181,-12.358176],[43.694073,-12.358158],[43.693928,-12.358219],[43.69363,-12.358305],[43.69336,-12.358365],[43.693035,-12.358477],[43.692755,-12.358581],[43.692565,-12.358685],[43.692412,-12.35878],[43.692276,-12.358902],[43.692204,-12.359033],[43.692141,-12.359164],[43.69216,-12.359662],[43.692223,-12.35968],[43.692332,-12.359969],[43.692458,-12.359987],[43.692657,-12.360163],[43.692838,-12.360391],[43.693001,-12.360418],[43.69301,-12.360611],[43.692884,-12.360741],[43.69273,-12.360863],[43.692586,-12.360924],[43.692369,-12.361001],[43.692189,-12.361018],[43.692008,-12.361087],[43.691213,-12.361084],[43.690925,-12.361196],[43.690789,-12.361213],[43.690635,-12.361203],[43.690518,-12.361159],[43.690355,-12.361053],[43.690238,-12.360974],[43.690147,-12.360939],[43.689994,-12.360877],[43.68984,-12.360859],[43.68975,-12.360858],[43.689606,-12.360927],[43.689524,-12.361006],[43.689416,-12.361049],[43.689244,-12.361066],[43.689082,-12.360995],[43.688955,-12.360916],[43.688955,-12.36054],[43.689126,-12.360138],[43.689135,-12.359972],[43.689098,-12.359823],[43.688908,-12.359682],[43.688764,-12.359673],[43.688484,-12.359733],[43.688249,-12.359863],[43.688006,-12.359941],[43.687735,-12.360062],[43.687482,-12.360139],[43.687175,-12.360287],[43.686904,-12.360417],[43.68667,-12.360599],[43.686489,-12.360703],[43.686201,-12.360964],[43.685966,-12.361156],[43.685822,-12.361365],[43.685723,-12.361513],[43.685651,-12.361714],[43.685651,-12.361941],[43.685823,-12.362099],[43.685958,-12.362301],[43.686022,-12.362468],[43.686094,-12.362652],[43.686374,-12.362767],[43.686474,-12.362828],[43.686618,-12.36296],[43.686718,-12.363074],[43.686827,-12.363285],[43.686872,-12.363477],[43.686936,-12.363731],[43.687044,-12.363976],[43.687162,-12.364161],[43.68718,-12.364274],[43.687117,-12.364405],[43.686927,-12.364431],[43.686783,-12.364465],[43.686747,-12.364858],[43.686657,-12.364928],[43.686612,-12.364849],[43.686625,-12.364416],[43.686589,-12.364329],[43.68648,-12.364328],[43.686372,-12.364389],[43.686219,-12.36458],[43.686092,-12.364606],[43.686002,-12.364606],[43.685848,-12.364474],[43.685848,-12.364343],[43.686001,-12.364125],[43.6861,-12.363942],[43.686145,-12.363767],[43.686163,-12.363618],[43.686163,-12.36347],[43.686064,-12.363338],[43.685874,-12.363258],[43.685765,-12.363205],[43.685639,-12.363091],[43.685458,-12.363064],[43.685196,-12.362958],[43.685024,-12.362948],[43.684753,-12.362973],[43.684474,-12.36306],[43.683679,-12.363056],[43.683552,-12.363038],[43.683552,-12.362828],[43.683687,-12.362514],[43.683732,-12.362322],[43.683696,-12.362103],[43.683551,-12.361875],[43.68346,-12.361796],[43.683225,-12.361707],[43.682828,-12.3616],[43.682503,-12.36152],[43.682268,-12.361519],[43.681916,-12.361579],[43.681564,-12.361673],[43.681419,-12.361751],[43.681338,-12.36183],[43.681311,-12.362013],[43.681257,-12.362188],[43.681149,-12.362266],[43.681004,-12.362309],[43.680896,-12.3623],[43.680634,-12.362229],[43.680435,-12.362149],[43.6803,-12.362131],[43.680119,-12.362182],[43.679713,-12.362251],[43.679343,-12.362354],[43.678927,-12.362466],[43.678494,-12.362586],[43.678169,-12.362698],[43.67788,-12.362784],[43.677726,-12.362862],[43.677582,-12.36294],[43.677492,-12.363062],[43.677447,-12.363167],[43.677465,-12.363421],[43.677528,-12.36343],[43.677529,-12.363911],[43.677394,-12.36405],[43.677186,-12.364163],[43.676994,-12.364223],[43.676906,-12.364223],[43.676536,-12.363985],[43.676255,-12.363853],[43.676102,-12.363834],[43.675921,-12.36386],[43.675741,-12.363964],[43.675569,-12.363981],[43.675416,-12.363962],[43.675208,-12.363769],[43.675117,-12.363629],[43.674963,-12.363348],[43.6748,-12.363041],[43.674639,-12.362746],[43.674457,-12.362576],[43.67433,-12.362436],[43.67414,-12.362417],[43.673869,-12.362364],[43.673652,-12.362153],[43.673498,-12.361898],[43.67348,-12.36175],[43.673525,-12.361479],[43.673498,-12.361365],[43.673452,-12.361251],[43.673271,-12.361093],[43.673127,-12.360961],[43.672973,-12.360794],[43.672909,-12.360514],[43.672828,-12.360006],[43.672836,-12.359456],[43.672854,-12.359281],[43.672944,-12.359141],[43.673278,-12.359143],[43.673404,-12.3591],[43.673666,-12.358987],[43.673847,-12.3589],[43.673946,-12.358822],[43.67391,-12.358735],[43.673666,-12.358611],[43.673404,-12.358505],[43.673295,-12.358522],[43.673205,-12.358574],[43.673024,-12.358582],[43.672816,-12.35838],[43.672626,-12.358169],[43.672509,-12.358011],[43.672464,-12.357906],[43.672472,-12.357705],[43.672653,-12.357321],[43.672652,-12.35719],[43.672526,-12.357049],[43.672516,-12.356874],[43.672733,-12.356858],[43.672787,-12.356806],[43.67285,-12.356666],[43.672877,-12.356491],[43.672832,-12.356307],[43.672741,-12.356045],[43.672605,-12.355825],[43.672452,-12.355685],[43.672226,-12.355579],[43.671946,-12.355472],[43.671648,-12.35541],[43.671313,-12.355356],[43.671097,-12.355372],[43.670889,-12.355468],[43.670736,-12.355572],[43.670691,-12.355694],[43.670727,-12.355817],[43.670754,-12.355983],[43.670682,-12.35621],[43.670493,-12.356401],[43.670294,-12.35654],[43.670042,-12.356802],[43.669798,-12.357037],[43.669555,-12.357333],[43.66923,-12.357664],[43.668824,-12.357959],[43.668544,-12.358177],[43.66821,-12.358315],[43.667858,-12.358444],[43.667596,-12.358548],[43.667036,-12.358624],[43.66663,-12.358736],[43.666188,-12.3589],[43.66561,-12.35909],[43.665149,-12.359237],[43.664725,-12.359366],[43.66449,-12.359478],[43.664202,-12.359669],[43.663877,-12.359895],[43.663633,-12.360008],[43.66329,-12.359998],[43.662982,-12.359751],[43.662802,-12.359593],[43.662666,-12.359592],[43.66244,-12.359661],[43.662206,-12.359756],[43.662061,-12.359817],[43.661827,-12.359973],[43.661502,-12.360199],[43.661429,-12.360208],[43.661149,-12.360066],[43.660992,-12.360039],[43.660824,-12.36003],[43.660653,-12.360082],[43.660174,-12.360097],[43.660174,-12.359808],[43.660237,-12.359616],[43.660083,-12.359537],[43.659875,-12.359667],[43.659659,-12.359762],[43.659352,-12.359918],[43.65927,-12.359909],[43.659135,-12.35983],[43.658954,-12.359637],[43.658818,-12.359505],[43.658484,-12.359293],[43.658474,-12.358812],[43.658194,-12.358636],[43.658302,-12.358532],[43.659187,-12.359447],[43.662784,-12.359043],[43.664893,-12.358002],[43.672521,-12.351947],[43.674244,-12.348031],[43.713139,-12.324551],[43.712999,-12.323979],[43.710479,-12.323185],[43.70986,-12.321617],[43.71019,-12.320008],[43.711091,-12.317988],[43.711659,-12.316242],[43.712561,-12.315831],[43.713417,-12.315789],[43.714844,-12.317038],[43.715748,-12.317595]]],[[[43.674698,-12.394481],[43.674933,-12.394565],[43.6751,-12.394661],[43.67508,-12.394858],[43.675079,-12.394873],[43.675143,-12.395133],[43.67507,-12.395353],[43.6752,-12.395559],[43.675217,-12.395674],[43.675269,-12.395795],[43.675389,-12.395838],[43.675338,-12.395986],[43.675247,-12.396102],[43.675181,-12.396254],[43.675126,-12.396408],[43.675054,-12.396578],[43.674883,-12.396643],[43.674733,-12.396614],[43.674649,-12.396753],[43.674547,-12.396853],[43.674373,-12.397037],[43.674268,-12.397271],[43.674084,-12.397566],[43.673847,-12.39781],[43.673591,-12.397986],[43.67351,-12.398182],[43.673447,-12.398418],[43.673321,-12.398659],[43.673128,-12.398874],[43.67292,-12.399075],[43.672635,-12.399276],[43.672477,-12.399574],[43.67233,-12.399887],[43.67229,-12.4002],[43.672276,-12.400428],[43.672294,-12.400743],[43.67228,-12.401029],[43.672219,-12.401307],[43.672326,-12.401454],[43.672279,-12.40166],[43.672156,-12.401815],[43.672095,-12.402036],[43.67217,-12.402158],[43.672137,-12.402393],[43.672226,-12.402589],[43.672238,-12.402847],[43.672237,-12.403062],[43.672204,-12.403336],[43.672141,-12.403666],[43.672113,-12.403878],[43.672008,-12.404135],[43.671966,-12.404317],[43.672001,-12.404467],[43.671959,-12.404579],[43.671843,-12.404764],[43.671697,-12.40491],[43.671462,-12.405101],[43.671509,-12.40519],[43.671499,-12.405391],[43.671382,-12.405493],[43.671341,-12.405714],[43.671193,-12.405861],[43.671046,-12.405952],[43.671063,-12.406174],[43.671049,-12.406355],[43.671037,-12.40662],[43.670994,-12.406847],[43.670846,-12.406879],[43.670729,-12.406896],[43.670568,-12.407055],[43.670569,-12.407335],[43.67057,-12.407604],[43.670379,-12.407735],[43.670292,-12.408019],[43.670278,-12.408331],[43.670205,-12.408613],[43.670365,-12.408814],[43.670496,-12.409016],[43.670481,-12.409212],[43.670554,-12.40931],[43.670744,-12.409338],[43.670889,-12.409561],[43.67105,-12.409802],[43.671224,-12.410021],[43.671398,-12.410192],[43.671542,-12.410366],[43.671687,-12.410524],[43.671892,-12.410692],[43.672009,-12.410875],[43.67223,-12.411028],[43.672396,-12.411105],[43.672541,-12.411278],[43.672537,-12.411454],[43.672529,-12.411746],[43.672523,-12.411908],[43.672641,-12.412047],[43.672723,-12.41232],[43.672779,-12.412547],[43.672765,-12.412843],[43.672766,-12.412885],[43.672724,-12.413238],[43.672593,-12.413521],[43.67249,-12.413733],[43.672389,-12.413959],[43.672223,-12.414099],[43.67212,-12.41424],[43.672079,-12.414395],[43.67213,-12.414561],[43.672045,-12.414769],[43.671961,-12.414974],[43.671844,-12.415047],[43.671908,-12.415218],[43.671886,-12.415446],[43.6718,-12.41557],[43.6718,-12.415584],[43.671879,-12.415788],[43.671778,-12.416],[43.671867,-12.416257],[43.672076,-12.416484],[43.672221,-12.416746],[43.672395,-12.417022],[43.672395,-12.417036],[43.672601,-12.417252],[43.672758,-12.417456],[43.672985,-12.417674],[43.673135,-12.417892],[43.673347,-12.418022],[43.673446,-12.41815],[43.673498,-12.41835],[43.673457,-12.418563],[43.673308,-12.418578],[43.673173,-12.418648],[43.673257,-12.418817],[43.673346,-12.418972],[43.673485,-12.419156],[43.6735,-12.41917],[43.673645,-12.4193],[43.673661,-12.419343],[43.673677,-12.419499],[43.673709,-12.419713],[43.673839,-12.419874],[43.673761,-12.420086],[43.673599,-12.420284],[43.67342,-12.420467],[43.673094,-12.420605],[43.672981,-12.420735],[43.672879,-12.420863],[43.672759,-12.420888],[43.672585,-12.420974],[43.672489,-12.421193],[43.672638,-12.421267],[43.672742,-12.421299],[43.672895,-12.421377],[43.672749,-12.421549],[43.672589,-12.421693],[43.67237,-12.421823],[43.672152,-12.422026],[43.671947,-12.422185],[43.671787,-12.422273],[43.671712,-12.422084],[43.671593,-12.421908],[43.671541,-12.421778],[43.67154,-12.421619],[43.671569,-12.421503],[43.671611,-12.421386],[43.67174,-12.421309],[43.671839,-12.421189],[43.671722,-12.42106],[43.671621,-12.420921],[43.67162,-12.420691],[43.671689,-12.420514],[43.67183,-12.420479],[43.671927,-12.420331],[43.671896,-12.420174],[43.67184,-12.42002],[43.67188,-12.419847],[43.671934,-12.419671],[43.671891,-12.419502],[43.671723,-12.419358],[43.67171,-12.419133],[43.671624,-12.41898],[43.671605,-12.418732],[43.671564,-12.418552],[43.67161,-12.418344],[43.671655,-12.418119],[43.671524,-12.41802],[43.671458,-12.417745],[43.671448,-12.417551],[43.671407,-12.417384],[43.671395,-12.417244],[43.671352,-12.417087],[43.671265,-12.416931],[43.671236,-12.416774],[43.671193,-12.41666],[43.671341,-12.41645],[43.671252,-12.416548],[43.671089,-12.416558],[43.670985,-12.416369],[43.670881,-12.416222],[43.670778,-12.416103],[43.670645,-12.415984],[43.670542,-12.415782],[43.670569,-12.415631],[43.670423,-12.415445],[43.670335,-12.415256],[43.670219,-12.415113],[43.67006,-12.414959],[43.669944,-12.41476],[43.6699,-12.414617],[43.66977,-12.414477],[43.669625,-12.414337],[43.669538,-12.414225],[43.669318,-12.414174],[43.669158,-12.414002],[43.669012,-12.413902],[43.668866,-12.41386],[43.668646,-12.413876],[43.668413,-12.413847],[43.668223,-12.413833],[43.667991,-12.413775],[43.667787,-12.413747],[43.667623,-12.413791],[43.667488,-12.413879],[43.667338,-12.413995],[43.667173,-12.414097],[43.666905,-12.41407],[43.666801,-12.413941],[43.66676,-12.413783],[43.666828,-12.413536],[43.666909,-12.413334],[43.666961,-12.413048],[43.667026,-12.412821],[43.667046,-12.41258],[43.666954,-12.412452],[43.666947,-12.412281],[43.667048,-12.412124],[43.667183,-12.412054],[43.667255,-12.411926],[43.667251,-12.411712],[43.667203,-12.411553],[43.667187,-12.41134],[43.667201,-12.411141],[43.667216,-12.410969],[43.667358,-12.410784],[43.667451,-12.410632],[43.66742,-12.410522],[43.667311,-12.410476],[43.667357,-12.41033],[43.667419,-12.410112],[43.667278,-12.410039],[43.667231,-12.409858],[43.667215,-12.409659],[43.667324,-12.409397],[43.667446,-12.409192],[43.667446,-12.409177],[43.667445,-12.409155],[43.667437,-12.409064],[43.667449,-12.408937],[43.667534,-12.40879],[43.667605,-12.408587],[43.667564,-12.408334],[43.667527,-12.408153],[43.667326,-12.408089],[43.667251,-12.407992],[43.66729,-12.407781],[43.667407,-12.407485],[43.667446,-12.407227],[43.667487,-12.406872],[43.66758,-12.406598],[43.667675,-12.406199],[43.667823,-12.405898],[43.667897,-12.405547],[43.667921,-12.40524],[43.667982,-12.404944],[43.667983,-12.404902],[43.667984,-12.404832],[43.667973,-12.40455],[43.667885,-12.404396],[43.667752,-12.404227],[43.667681,-12.404071],[43.667716,-12.403858],[43.667594,-12.403659],[43.667681,-12.403418],[43.66757,-12.403206],[43.667465,-12.402991],[43.667419,-12.402736],[43.667498,-12.402429],[43.667264,-12.402223],[43.667176,-12.402053],[43.667079,-12.401801],[43.666921,-12.401615],[43.666908,-12.401615],[43.666682,-12.401441],[43.666467,-12.401226],[43.666177,-12.401068],[43.665816,-12.40098],[43.665482,-12.400865],[43.665223,-12.400818],[43.664933,-12.400758],[43.664657,-12.400727],[43.664366,-12.40068],[43.664205,-12.40068],[43.663943,-12.400606],[43.663767,-12.400619],[43.663633,-12.400752],[43.663456,-12.400813],[43.663236,-12.400829],[43.66303,-12.400902],[43.662884,-12.401087],[43.662723,-12.401273],[43.662533,-12.401361],[43.662329,-12.401507],[43.662024,-12.401675],[43.662024,-12.401884],[43.662038,-12.401898],[43.662095,-12.40212],[43.661835,-12.402438],[43.661748,-12.402679],[43.661575,-12.402922],[43.661303,-12.403051],[43.661131,-12.403263],[43.661098,-12.403517],[43.661048,-12.403914],[43.660852,-12.404125],[43.660794,-12.404337],[43.660806,-12.404579],[43.660984,-12.404743],[43.661048,-12.404926],[43.661064,-12.405096],[43.661066,-12.405324],[43.660856,-12.405411],[43.660601,-12.405642],[43.660516,-12.405796],[43.660466,-12.406003],[43.660402,-12.406239],[43.660332,-12.406479],[43.660256,-12.406638],[43.660195,-12.406739],[43.660051,-12.406776],[43.660055,-12.406929],[43.660141,-12.407164],[43.660049,-12.407451],[43.660035,-12.407636],[43.660135,-12.407788],[43.660155,-12.407944],[43.659945,-12.40795],[43.659854,-12.408179],[43.659854,-12.408193],[43.659731,-12.408593],[43.659779,-12.408819],[43.659779,-12.408976],[43.659779,-12.409047],[43.659749,-12.40926],[43.65975,-12.409303],[43.659688,-12.40953],[43.65952,-12.409684],[43.659529,-12.40984],[43.659531,-12.409855],[43.659458,-12.410053],[43.659351,-12.410249],[43.659195,-12.410401],[43.659118,-12.41063],[43.659085,-12.410804],[43.658982,-12.410917],[43.658831,-12.411026],[43.658693,-12.411092],[43.658553,-12.411127],[43.658406,-12.411222],[43.658292,-12.411349],[43.658263,-12.411545],[43.658092,-12.411633],[43.657954,-12.411783],[43.657886,-12.411959],[43.657756,-12.412075],[43.657595,-12.412115],[43.657421,-12.41206],[43.657233,-12.411992],[43.657131,-12.411907],[43.657086,-12.411745],[43.656983,-12.411616],[43.656824,-12.411534],[43.656665,-12.411436],[43.65675,-12.411317],[43.656807,-12.411143],[43.656833,-12.410896],[43.65676,-12.410711],[43.656645,-12.410501],[43.656545,-12.410376],[43.656416,-12.410279],[43.656387,-12.410165],[43.656343,-12.409967],[43.656257,-12.409855],[43.656256,-12.409585],[43.656169,-12.40933],[43.655981,-12.409048],[43.65588,-12.408765],[43.65566,-12.408705],[43.65566,-12.408676],[43.655661,-12.408478],[43.655661,-12.408309],[43.655545,-12.408167],[43.655356,-12.40818],[43.655285,-12.408083],[43.655183,-12.408083],[43.655065,-12.408137],[43.654943,-12.408332],[43.654856,-12.408303],[43.654756,-12.408248],[43.654582,-12.40822],[43.654468,-12.408137],[43.654291,-12.408206],[43.654046,-12.408293],[43.653842,-12.408478],[43.653543,-12.408692],[43.653397,-12.408876],[43.653198,-12.409061],[43.653026,-12.409287],[43.653025,-12.409316],[43.652853,-12.409542],[43.652652,-12.409711],[43.652673,-12.409882],[43.652707,-12.410111],[43.652595,-12.410139],[43.652496,-12.410195],[43.652476,-12.410352],[43.652468,-12.410582],[43.652327,-12.410638],[43.652363,-12.410783],[43.652385,-12.410957],[43.652282,-12.411114],[43.652148,-12.411287],[43.652,-12.411416],[43.65188,-12.41156],[43.651787,-12.411735],[43.65168,-12.411894],[43.651575,-12.412039],[43.65144,-12.412213],[43.651235,-12.412371],[43.651044,-12.412499],[43.650953,-12.412659],[43.650805,-12.412803],[43.650644,-12.412832],[43.650498,-12.412759],[43.650376,-12.412632],[43.650517,-12.412484],[43.650581,-12.412252],[43.650676,-12.412085],[43.650553,-12.41196],[43.650678,-12.411826],[43.650786,-12.411665],[43.650908,-12.411462],[43.650998,-12.411217],[43.651061,-12.411072],[43.65113,-12.410852],[43.651135,-12.410621],[43.651183,-12.410448],[43.651222,-12.410245],[43.651196,-12.410102],[43.651153,-12.409917],[43.651153,-12.409903],[43.651092,-12.409706],[43.651038,-12.409436],[43.651008,-12.40928],[43.65096,-12.409154],[43.650853,-12.408955],[43.650763,-12.408808],[43.650662,-12.408702],[43.650814,-12.408477],[43.651034,-12.408333],[43.651202,-12.40811],[43.651441,-12.408],[43.651664,-12.407856],[43.651861,-12.407661],[43.652039,-12.407467],[43.652088,-12.407465],[43.652297,-12.407327],[43.652503,-12.407269],[43.652692,-12.407198],[43.652913,-12.407033],[43.653255,-12.406945],[43.653466,-12.406778],[43.653757,-12.40665],[43.653972,-12.406524],[43.654147,-12.406452],[43.654162,-12.406452],[43.654448,-12.406391],[43.654671,-12.40614],[43.654994,-12.406025],[43.655284,-12.405926],[43.655327,-12.405898],[43.655588,-12.40577],[43.655648,-12.405756],[43.655945,-12.405681],[43.655975,-12.405681],[43.656369,-12.40551],[43.656588,-12.405396],[43.656835,-12.405269],[43.657007,-12.405129],[43.657207,-12.404827],[43.657461,-12.404733],[43.65761,-12.404615],[43.657662,-12.404522],[43.657742,-12.404389],[43.657842,-12.404278],[43.657932,-12.404007],[43.657867,-12.403814],[43.658024,-12.403646],[43.658191,-12.403626],[43.658327,-12.403579],[43.658419,-12.403346],[43.658531,-12.403151],[43.658674,-12.40294],[43.658742,-12.402729],[43.658919,-12.402528],[43.659064,-12.402273],[43.659226,-12.402157],[43.659359,-12.402],[43.659535,-12.401785],[43.659638,-12.401628],[43.659644,-12.40134],[43.659505,-12.401301],[43.659365,-12.401206],[43.659225,-12.401095],[43.659162,-12.400925],[43.659266,-12.400781],[43.659406,-12.400569],[43.659477,-12.400484],[43.659506,-12.400456],[43.65959,-12.400328],[43.659589,-12.400314],[43.659733,-12.400201],[43.659761,-12.400187],[43.659999,-12.4002],[43.660287,-12.400268],[43.660521,-12.400391],[43.660537,-12.400405],[43.660858,-12.400526],[43.661103,-12.400619],[43.661333,-12.400754],[43.661443,-12.400687],[43.661651,-12.400566],[43.661781,-12.400539],[43.66201,-12.400471],[43.662241,-12.400445],[43.662357,-12.400431],[43.662549,-12.400473],[43.66287,-12.400503],[43.663289,-12.400271],[43.6634,-12.400173],[43.663619,-12.400145],[43.663772,-12.400273],[43.663912,-12.400384],[43.664139,-12.400396],[43.664344,-12.400281],[43.664569,-12.400222],[43.664816,-12.40023],[43.665008,-12.399987],[43.665263,-12.399798],[43.665555,-12.39965],[43.66578,-12.399434],[43.666017,-12.399176],[43.666227,-12.398961],[43.666374,-12.398776],[43.666564,-12.398606],[43.666824,-12.398408],[43.667006,-12.398182],[43.667147,-12.397998],[43.667323,-12.397898],[43.667466,-12.39777],[43.667702,-12.397642],[43.667881,-12.397557],[43.668064,-12.397343],[43.668192,-12.397186],[43.668336,-12.397029],[43.668602,-12.396902],[43.668862,-12.396787],[43.669065,-12.396657],[43.669285,-12.396629],[43.66955,-12.396546],[43.669739,-12.396418],[43.670046,-12.396205],[43.670323,-12.396033],[43.6706,-12.395891],[43.670789,-12.395791],[43.670993,-12.395721],[43.671182,-12.395637],[43.671357,-12.395522],[43.671561,-12.395451],[43.671723,-12.395334],[43.67197,-12.395236],[43.67222,-12.395092],[43.67247,-12.394932],[43.672805,-12.394791],[43.673022,-12.394735],[43.67324,-12.39468],[43.673327,-12.394667],[43.673583,-12.39463],[43.673756,-12.39456],[43.673784,-12.394561],[43.67402,-12.394401],[43.67423,-12.394326],[43.674446,-12.394413],[43.674698,-12.394481]]],[[[43.705174,-12.391205],[43.705482,-12.391441],[43.705713,-12.391598],[43.7061,-12.391787],[43.706331,-12.391939],[43.707648,-12.392615],[43.708232,-12.392685],[43.709124,-12.39325],[43.709313,-12.393444],[43.709738,-12.393823],[43.71001,-12.394011],[43.710243,-12.394162],[43.710551,-12.394427],[43.710824,-12.394615],[43.711057,-12.394803],[43.711406,-12.395029],[43.711878,-12.395025],[43.712189,-12.394911],[43.712461,-12.39491],[43.712771,-12.395062],[43.7132,-12.39506],[43.713626,-12.395061],[43.714014,-12.394985],[43.714445,-12.394945],[43.714797,-12.395095],[43.714405,-12.395173],[43.713972,-12.395251],[43.713585,-12.395289],[43.713513,-12.39551],[43.713701,-12.395705],[43.713172,-12.396316],[43.712801,-12.396509],[43.712446,-12.3969],[43.711733,-12.397217],[43.711309,-12.397406],[43.710766,-12.397596],[43.710029,-12.397671],[43.709602,-12.397672],[43.709098,-12.397975],[43.708322,-12.398089],[43.708283,-12.398582],[43.707739,-12.398847],[43.707506,-12.399378],[43.707308,-12.399681],[43.707189,-12.400059],[43.706636,-12.40032],[43.706872,-12.400397],[43.707105,-12.4007],[43.707379,-12.401116],[43.707532,-12.40138],[43.707764,-12.401719],[43.708076,-12.401985],[43.708238,-12.402727],[43.708405,-12.403157],[43.708366,-12.40368],[43.708343,-12.403979],[43.708107,-12.404168],[43.708027,-12.40473],[43.707946,-12.404951],[43.70763,-12.405014],[43.707671,-12.405507],[43.70807,-12.406434],[43.708187,-12.406699],[43.708385,-12.406895],[43.708376,-12.407296],[43.708609,-12.407594],[43.708649,-12.407932],[43.708693,-12.408664],[43.708363,-12.40875],[43.708683,-12.409297],[43.708803,-12.40963],[43.709134,-12.410324],[43.709174,-12.41074],[43.709214,-12.411004],[43.708888,-12.411208],[43.708642,-12.411372],[43.708407,-12.411564],[43.708334,-12.411975],[43.708214,-12.412355],[43.708014,-12.412586],[43.708018,-12.412997],[43.70802,-12.413371],[43.708104,-12.413819],[43.708105,-12.413895],[43.708184,-12.414195],[43.708382,-12.414571],[43.708536,-12.41491],[43.708535,-12.414948],[43.70873,-12.41525],[43.709042,-12.415665],[43.709584,-12.416118],[43.709786,-12.416572],[43.709331,-12.416794],[43.70925,-12.417245],[43.709337,-12.417624],[43.709545,-12.418082],[43.709549,-12.418386],[43.709871,-12.419378],[43.709405,-12.420106],[43.70912,-12.420797],[43.708887,-12.421025],[43.708279,-12.421071],[43.707532,-12.421071],[43.707112,-12.420385],[43.706599,-12.420247],[43.706424,-12.419644],[43.706375,-12.418991],[43.706373,-12.41861],[43.706256,-12.418232],[43.706255,-12.417967],[43.706254,-12.417739],[43.705985,-12.417402],[43.705944,-12.417022],[43.705638,-12.416648],[43.705445,-12.416459],[43.705098,-12.415969],[43.70475,-12.415516],[43.704282,-12.41536],[43.703811,-12.415179],[43.70386,-12.414874],[43.703666,-12.414609],[43.703976,-12.414345],[43.70444,-12.414158],[43.704478,-12.414159],[43.704671,-12.413745],[43.704825,-12.413294],[43.705053,-12.41296],[43.704748,-12.412688],[43.704518,-12.412342],[43.70471,-12.412008],[43.704902,-12.411711],[43.705131,-12.411418],[43.705283,-12.41116],[43.705057,-12.410802],[43.705247,-12.410586],[43.705399,-12.410368],[43.705325,-12.410057],[43.705326,-12.409715],[43.705342,-12.409448],[43.705554,-12.409238],[43.705327,-12.408766],[43.705365,-12.40873],[43.705707,-12.40864],[43.705709,-12.408255],[43.705521,-12.407891],[43.705789,-12.407564],[43.706017,-12.407314],[43.706132,-12.406978],[43.705947,-12.406725],[43.705797,-12.406311],[43.705905,-12.40609],[43.705791,-12.405707],[43.705982,-12.405376],[43.706288,-12.4049],[43.706288,-12.404861],[43.706442,-12.404448],[43.706442,-12.403955],[43.706367,-12.403674],[43.706404,-12.40322],[43.706404,-12.403144],[43.706364,-12.402729],[43.706286,-12.402389],[43.706209,-12.401974],[43.705976,-12.401597],[43.705784,-12.401296],[43.705552,-12.401032],[43.705206,-12.400807],[43.704782,-12.400618],[43.704423,-12.400609],[43.703985,-12.400634],[43.703423,-12.400312],[43.703396,-12.400057],[43.703048,-12.399982],[43.702815,-12.399794],[43.702632,-12.399325],[43.702589,-12.398918],[43.702445,-12.398552],[43.702625,-12.398513],[43.70247,-12.398174],[43.70232,-12.397789],[43.701931,-12.397687],[43.701599,-12.397229],[43.701257,-12.396854],[43.701266,-12.396508],[43.701389,-12.396025],[43.701238,-12.395578],[43.700964,-12.395309],[43.700652,-12.394965],[43.700576,-12.394515],[43.700538,-12.39429],[43.700302,-12.394095],[43.700383,-12.393648],[43.700739,-12.393363],[43.700976,-12.393224],[43.7012,-12.39276],[43.701391,-12.392452],[43.701429,-12.392415],[43.701499,-12.391979],[43.70169,-12.391669],[43.702077,-12.391482],[43.702388,-12.391414],[43.702776,-12.391422],[43.703044,-12.391103],[43.703314,-12.390674],[43.703818,-12.390679],[43.704438,-12.390714],[43.704709,-12.390864],[43.705174,-12.391205]]],[[[43.717463,-12.402737],[43.718302,-12.40312],[43.718833,-12.402786],[43.719056,-12.403311],[43.719101,-12.403951],[43.719367,-12.404614],[43.719457,-12.404972],[43.719723,-12.405431],[43.719678,-12.405833],[43.719767,-12.406341],[43.719856,-12.406812],[43.719856,-12.406899],[43.719856,-12.407298],[43.719989,-12.40777],[43.720165,-12.408211],[43.720297,-12.408605],[43.720386,-12.408906],[43.720564,-12.409285],[43.72096,-12.409641],[43.721451,-12.409975],[43.721758,-12.410284],[43.722245,-12.410587],[43.722993,-12.411024],[43.723656,-12.411327],[43.724195,-12.411404],[43.724907,-12.411617],[43.725314,-12.411571],[43.725942,-12.411872],[43.726472,-12.412306],[43.726498,-12.412829],[43.726624,-12.413219],[43.726578,-12.413612],[43.726723,-12.413954],[43.726728,-12.414473],[43.726362,-12.41495],[43.726234,-12.415381],[43.726204,-12.416035],[43.725754,-12.416249],[43.725352,-12.416248],[43.724863,-12.416377],[43.724506,-12.416419],[43.724333,-12.416681],[43.724061,-12.416981],[43.724248,-12.41742],[43.724298,-12.417901],[43.724434,-12.418337],[43.724205,-12.418887],[43.724979,-12.419824],[43.724485,-12.420167],[43.723635,-12.420333],[43.723505,-12.421119],[43.723331,-12.422171],[43.722975,-12.422779],[43.72288,-12.41954],[43.722919,-12.419061],[43.722736,-12.418497],[43.722336,-12.417803],[43.721985,-12.417501],[43.721588,-12.417112],[43.721235,-12.416678],[43.720882,-12.416287],[43.721233,-12.416246],[43.721101,-12.415769],[43.721144,-12.415509],[43.721275,-12.415078],[43.721275,-12.414776],[43.721186,-12.41443],[43.721097,-12.413997],[43.721141,-12.413609],[43.721184,-12.413308],[43.721271,-12.412922],[43.721226,-12.412405],[43.721006,-12.411971],[43.720917,-12.411713],[43.720739,-12.411327],[43.72043,-12.411362],[43.720032,-12.411273],[43.719678,-12.411141],[43.719458,-12.410796],[43.719279,-12.410667],[43.718395,-12.410189],[43.717906,-12.410097],[43.717505,-12.410181],[43.717419,-12.409617],[43.717421,-12.409184],[43.71729,-12.408536],[43.717025,-12.40817],[43.716584,-12.407784],[43.715865,-12.407676],[43.715505,-12.407364],[43.715372,-12.406799],[43.715738,-12.406546],[43.715921,-12.406205],[43.716239,-12.405956],[43.7161,-12.405675],[43.715779,-12.405389],[43.715643,-12.404896],[43.716094,-12.404604],[43.716184,-12.40426],[43.716003,-12.403822],[43.715777,-12.403294],[43.715325,-12.402851],[43.71488,-12.40224],[43.71488,-12.402154],[43.714835,-12.401762],[43.714607,-12.40127],[43.714516,-12.400748],[43.714963,-12.400925],[43.7155,-12.401236],[43.716036,-12.401502],[43.716392,-12.401808],[43.716662,-12.402078],[43.716975,-12.402387],[43.717197,-12.402563],[43.717463,-12.402737]]],[[[43.643941,-12.397719],[43.644267,-12.397867],[43.644578,-12.397976],[43.644834,-12.398146],[43.645168,-12.398209],[43.645226,-12.39824],[43.645513,-12.398223],[43.645694,-12.398526],[43.645707,-12.398555],[43.646064,-12.398723],[43.646242,-12.398893],[43.646498,-12.399104],[43.64693,-12.399334],[43.647159,-12.39957],[43.647174,-12.399614],[43.647311,-12.399923],[43.647296,-12.399923],[43.647052,-12.400012],[43.647006,-12.400012],[43.646793,-12.400041],[43.646777,-12.400085],[43.646626,-12.400409],[43.646568,-12.400984],[43.646416,-12.401352],[43.646128,-12.401705],[43.645778,-12.40188],[43.645442,-12.40201],[43.645179,-12.402123],[43.644937,-12.402284],[43.644563,-12.402636],[43.644399,-12.402828],[43.644384,-12.402828],[43.644124,-12.402881],[43.643945,-12.403072],[43.643767,-12.40334],[43.643543,-12.403545],[43.64323,-12.403962],[43.642797,-12.404648],[43.642465,-12.404852],[43.642103,-12.405145],[43.641998,-12.405486],[43.641832,-12.405528],[43.641575,-12.405484],[43.641545,-12.405484],[43.641153,-12.405619],[43.641078,-12.405649],[43.640791,-12.405635],[43.64061,-12.405517],[43.640656,-12.405192],[43.64046,-12.404838],[43.640221,-12.404556],[43.64007,-12.404586],[43.639902,-12.404573],[43.639705,-12.404457],[43.639584,-12.404265],[43.639359,-12.40422],[43.639344,-12.40422],[43.639212,-12.404129],[43.639124,-12.40404],[43.6389,-12.403965],[43.638596,-12.40404],[43.638551,-12.40404],[43.638264,-12.404011],[43.638194,-12.403847],[43.63826,-12.403625],[43.638416,-12.403448],[43.638419,-12.403257],[43.638313,-12.403067],[43.638019,-12.402951],[43.637862,-12.402805],[43.63786,-12.402599],[43.637875,-12.402423],[43.638271,-12.402079],[43.638443,-12.401516],[43.638752,-12.401037],[43.639098,-12.400435],[43.639444,-12.400083],[43.639502,-12.399698],[43.639409,-12.3994],[43.639439,-12.399032],[43.639545,-12.398673],[43.639696,-12.398262],[43.640059,-12.397882],[43.640316,-12.397693],[43.64086,-12.397721],[43.641265,-12.397613],[43.641622,-12.397587],[43.64211,-12.397645],[43.642387,-12.39773],[43.6427,-12.397678],[43.642865,-12.397469],[43.643114,-12.397551],[43.643474,-12.397685],[43.643941,-12.397719]]],[[[43.73699,-12.38233],[43.737128,-12.382501],[43.737407,-12.382494],[43.737576,-12.382545],[43.737735,-12.382677],[43.737869,-12.382845],[43.738066,-12.382962],[43.738247,-12.383199],[43.738407,-12.383665],[43.73855,-12.383845],[43.738664,-12.384077],[43.738787,-12.384369],[43.739065,-12.384626],[43.739257,-12.384944],[43.73937,-12.385267],[43.739652,-12.385505],[43.73995,-12.385972],[43.739989,-12.386074],[43.740072,-12.38626],[43.740142,-12.386521],[43.740126,-12.386709],[43.74019,-12.386895],[43.740299,-12.38705],[43.740436,-12.387173],[43.740657,-12.387273],[43.740705,-12.387531],[43.740842,-12.387845],[43.741049,-12.388139],[43.741395,-12.388321],[43.741525,-12.388481],[43.741776,-12.388529],[43.74192,-12.388614],[43.741967,-12.388776],[43.742057,-12.388928],[43.742251,-12.389059],[43.742386,-12.389181],[43.742619,-12.389321],[43.742471,-12.389371],[43.742306,-12.3894],[43.742036,-12.38935],[43.741822,-12.389332],[43.741598,-12.389251],[43.741415,-12.389157],[43.741148,-12.388993],[43.740919,-12.388833],[43.740736,-12.388642],[43.740555,-12.388552],[43.740407,-12.388603],[43.74025,-12.388593],[43.740052,-12.388595],[43.739815,-12.388587],[43.73971,-12.388726],[43.739517,-12.388807],[43.73934,-12.389012],[43.739209,-12.388867],[43.73898,-12.388824],[43.738787,-12.388802],[43.738672,-12.388984],[43.738484,-12.389031],[43.738198,-12.389077],[43.737992,-12.38882],[43.737764,-12.388664],[43.737438,-12.388394],[43.737396,-12.388128],[43.737426,-12.387993],[43.737241,-12.388004],[43.737001,-12.387727],[43.736723,-12.387524],[43.73648,-12.387425],[43.736344,-12.387146],[43.735897,-12.386875],[43.735587,-12.386645],[43.73531,-12.386386],[43.735294,-12.386364],[43.734977,-12.386055],[43.734876,-12.385767],[43.734814,-12.385447],[43.734913,-12.385059],[43.735145,-12.38462],[43.735221,-12.384326],[43.735293,-12.384126],[43.735465,-12.383829],[43.735561,-12.383613],[43.735661,-12.383241],[43.73586,-12.383047],[43.735738,-12.382903],[43.735521,-12.3827],[43.735465,-12.382454],[43.735366,-12.38222],[43.735215,-12.381937],[43.735095,-12.381718],[43.735,-12.381584],[43.735086,-12.381444],[43.735192,-12.381307],[43.735263,-12.381145],[43.735412,-12.381094],[43.735582,-12.381144],[43.735772,-12.381197],[43.736027,-12.381322],[43.73618,-12.381466],[43.736326,-12.381649],[43.736439,-12.381809],[43.736651,-12.381968],[43.736864,-12.382126],[43.73699,-12.38233]]],[[[43.761402,-12.377584],[43.761451,-12.377614],[43.761476,-12.377659],[43.761466,-12.377717],[43.76152,-12.377754],[43.761574,-12.377831],[43.761666,-12.377848],[43.761722,-12.377872],[43.761827,-12.377998],[43.761838,-12.378014],[43.761846,-12.378042],[43.761859,-12.378118],[43.761962,-12.378217],[43.761992,-12.378276],[43.76207,-12.378363],[43.762105,-12.378389],[43.762171,-12.378433],[43.762247,-12.378493],[43.762269,-12.378556],[43.762327,-12.378606],[43.762382,-12.378635],[43.762451,-12.378661],[43.762537,-12.378709],[43.762601,-12.378726],[43.762662,-12.37883],[43.762756,-12.378873],[43.762808,-12.378955],[43.762739,-12.378995],[43.762719,-12.379064],[43.762735,-12.37912],[43.762756,-12.379223],[43.762766,-12.37931],[43.762805,-12.379389],[43.762766,-12.379481],[43.762832,-12.379526],[43.76288,-12.3796],[43.762822,-12.379583],[43.762761,-12.379579],[43.762764,-12.379638],[43.762774,-12.379693],[43.762928,-12.379755],[43.762967,-12.379841],[43.763042,-12.379882],[43.763112,-12.379974],[43.763158,-12.380055],[43.763112,-12.380119],[43.763036,-12.380158],[43.762927,-12.380198],[43.762867,-12.380121],[43.762836,-12.380074],[43.76283,-12.380071],[43.762792,-12.380025],[43.762749,-12.380006],[43.762703,-12.380003],[43.762654,-12.380005],[43.762613,-12.380009],[43.762552,-12.37998],[43.762492,-12.379961],[43.762426,-12.379922],[43.762368,-12.379877],[43.762323,-12.379866],[43.762289,-12.379868],[43.762255,-12.379928],[43.762222,-12.379962],[43.762212,-12.380003],[43.762209,-12.380037],[43.762182,-12.380055],[43.762164,-12.380072],[43.76213,-12.380083],[43.762071,-12.380094],[43.762005,-12.380053],[43.762003,-12.380049],[43.761959,-12.380018],[43.761916,-12.379996],[43.761877,-12.380021],[43.761837,-12.380048],[43.761829,-12.380076],[43.761815,-12.380108],[43.761789,-12.380057],[43.761747,-12.380001],[43.761717,-12.379973],[43.761689,-12.380002],[43.761676,-12.380037],[43.761647,-12.380053],[43.761632,-12.380024],[43.761616,-12.380001],[43.761607,-12.379973],[43.761578,-12.379985],[43.761527,-12.379959],[43.761505,-12.379924],[43.761503,-12.37992],[43.761473,-12.379875],[43.761442,-12.379853],[43.761418,-12.379828],[43.761403,-12.379812],[43.761449,-12.379802],[43.761508,-12.3798],[43.761572,-12.379819],[43.761611,-12.379828],[43.761629,-12.379808],[43.761616,-12.379764],[43.761569,-12.379753],[43.761487,-12.379714],[43.761448,-12.379656],[43.76141,-12.37958],[43.761428,-12.379552],[43.761394,-12.379489],[43.761392,-12.379483],[43.761374,-12.379447],[43.761405,-12.379443],[43.761442,-12.379447],[43.761437,-12.379422],[43.761426,-12.379399],[43.76146,-12.379384],[43.761481,-12.379387],[43.761493,-12.379389],[43.761539,-12.379394],[43.761549,-12.379357],[43.761524,-12.379341],[43.761475,-12.37932],[43.761444,-12.379306],[43.761399,-12.379294],[43.761366,-12.379289],[43.761334,-12.379262],[43.761309,-12.37921],[43.761284,-12.379179],[43.761271,-12.379147],[43.761261,-12.379115],[43.76124,-12.379091],[43.761227,-12.379059],[43.761207,-12.379047],[43.761212,-12.37902],[43.76123,-12.378996],[43.761235,-12.378969],[43.761262,-12.378946],[43.761295,-12.378939],[43.761332,-12.378943],[43.761321,-12.378902],[43.761294,-12.378879],[43.761274,-12.378848],[43.76129,-12.378812],[43.761297,-12.378777],[43.761279,-12.378719],[43.761289,-12.378661],[43.761298,-12.378614],[43.761299,-12.378574],[43.761299,-12.378556],[43.761286,-12.378523],[43.761288,-12.37849],[43.761284,-12.378462],[43.761306,-12.378429],[43.76134,-12.378414],[43.761361,-12.3784],[43.761383,-12.378367],[43.761373,-12.378334],[43.761354,-12.378334],[43.761327,-12.378348],[43.761291,-12.378353],[43.761263,-12.378363],[43.761233,-12.37837],[43.761203,-12.37834],[43.761223,-12.378319],[43.761254,-12.378291],[43.761267,-12.378275],[43.761281,-12.37825],[43.761297,-12.378232],[43.761312,-12.3782],[43.761319,-12.378177],[43.76133,-12.378154],[43.761291,-12.378157],[43.761263,-12.378173],[43.761245,-12.3782],[43.76122,-12.378229],[43.761206,-12.378248],[43.761188,-12.378208],[43.761174,-12.378183],[43.761158,-12.37815],[43.761141,-12.378134],[43.761121,-12.378139],[43.761084,-12.378126],[43.76106,-12.378115],[43.761037,-12.378083],[43.761056,-12.378065],[43.761089,-12.378062],[43.761102,-12.378043],[43.761131,-12.378026],[43.761117,-12.378014],[43.761135,-12.377984],[43.761146,-12.377961],[43.76116,-12.377938],[43.761169,-12.377922],[43.761149,-12.377889],[43.761139,-12.377872],[43.761143,-12.377829],[43.761154,-12.377806],[43.761161,-12.377785],[43.761186,-12.37768],[43.761226,-12.377657],[43.761252,-12.377656],[43.761256,-12.377616],[43.761283,-12.37759],[43.76132,-12.377597],[43.761402,-12.377584]]],[[[43.729563,-12.400985],[43.729616,-12.401024],[43.729674,-12.400976],[43.729713,-12.400924],[43.729848,-12.400889],[43.729977,-12.400893],[43.730103,-12.400964],[43.730174,-12.401065],[43.730283,-12.401172],[43.730349,-12.401301],[43.730433,-12.401385],[43.730582,-12.401489],[43.730623,-12.401643],[43.730686,-12.401732],[43.73071,-12.401815],[43.73076,-12.401921],[43.730701,-12.402027],[43.73056,-12.402041],[43.730572,-12.402188],[43.730547,-12.40232],[43.730583,-12.402443],[43.730618,-12.402575],[43.730697,-12.402677],[43.730668,-12.402836],[43.730721,-12.402972],[43.730747,-12.403045],[43.730782,-12.40312],[43.730816,-12.403204],[43.730803,-12.40327],[43.73076,-12.40334],[43.730688,-12.403355],[43.730552,-12.40334],[43.730466,-12.403324],[43.730401,-12.403302],[43.730356,-12.403225],[43.730294,-12.403136],[43.730267,-12.403015],[43.730237,-12.402864],[43.730167,-12.402813],[43.730084,-12.40273],[43.730009,-12.4026],[43.730003,-12.402473],[43.729913,-12.402428],[43.729934,-12.402316],[43.72988,-12.402238],[43.72992,-12.402071],[43.729931,-12.401957],[43.72979,-12.401815],[43.72973,-12.401717],[43.729624,-12.401698],[43.7295,-12.401617],[43.729471,-12.401564],[43.729383,-12.401509],[43.729329,-12.401422],[43.72923,-12.401365],[43.729189,-12.40126],[43.729098,-12.401215],[43.728998,-12.401167],[43.728896,-12.40105],[43.728831,-12.401008],[43.728783,-12.400941],[43.728726,-12.400872],[43.72867,-12.400793],[43.728647,-12.400691],[43.728623,-12.400598],[43.72867,-12.400509],[43.728687,-12.400414],[43.728734,-12.400325],[43.728817,-12.400311],[43.728952,-12.400406],[43.72901,-12.400476],[43.729058,-12.400543],[43.729087,-12.400607],[43.729144,-12.400676],[43.729234,-12.400721],[43.729314,-12.400775],[43.72938,-12.400845],[43.729465,-12.400929],[43.729563,-12.400985]]]]}},{"type":"Feature","properties":{"pcode":"KM332","name":"Moimbao","name_src":"Moimbao","island":"Moh\u00e9li (Mwali)"},"geometry":{"type":"Polygon","coordinates":[[[43.627218,-12.266048],[43.634188,-12.269419],[43.639438,-12.270142],[43.645871,-12.271807],[43.647679,-12.273104],[43.648774,-12.274306],[43.652769,-12.276855],[43.653388,-12.277916],[43.655243,-12.278891],[43.655719,-12.2794],[43.656005,-12.280183],[43.658574,-12.282174],[43.659051,-12.282958],[43.659337,-12.283834],[43.659575,-12.284249],[43.660193,-12.284712],[43.660574,-12.285082],[43.661097,-12.285131],[43.661715,-12.285318],[43.662429,-12.285689],[43.663094,-12.286106],[43.663999,-12.287491],[43.66419,-12.288136],[43.664286,-12.288643],[43.664999,-12.28883],[43.666045,-12.288881],[43.666853,-12.289069],[43.667424,-12.289669],[43.668755,-12.290044],[43.669564,-12.290692],[43.670278,-12.291155],[43.670848,-12.291572],[43.671372,-12.292173],[43.671848,-12.292497],[43.672608,-12.292546],[43.673322,-12.292918],[43.67413,-12.293566],[43.676034,-12.295553],[43.676414,-12.295693],[43.677127,-12.295466],[43.677745,-12.295469],[43.678458,-12.295703],[43.679457,-12.296259],[43.680457,-12.297415],[43.680981,-12.298844],[43.682028,-12.299861],[43.682647,-12.3006],[43.683076,-12.301798],[43.683742,-12.302446],[43.684837,-12.303371],[43.685741,-12.304158],[43.688214,-12.305734],[43.688453,-12.306471],[43.688359,-12.307161],[43.688122,-12.307804],[43.688692,-12.307945],[43.689405,-12.30781],[43.690308,-12.307952],[43.690974,-12.308415],[43.691308,-12.308969],[43.691451,-12.309982],[43.691357,-12.310396],[43.691832,-12.310674],[43.692498,-12.310723],[43.693069,-12.311462],[43.69383,-12.311834],[43.695353,-12.313083],[43.695877,-12.314144],[43.696733,-12.314516],[43.697874,-12.31535],[43.698588,-12.315859],[43.699302,-12.316507],[43.700016,-12.317292],[43.701063,-12.318264],[43.701538,-12.318496],[43.702394,-12.318868],[43.703725,-12.319196],[43.705056,-12.319432],[43.706292,-12.31953],[43.707101,-12.31981],[43.707671,-12.320135],[43.707864,-12.32193],[43.708293,-12.323175],[43.70915,-12.324329],[43.709768,-12.32447],[43.711051,-12.324246],[43.713139,-12.324551],[43.674244,-12.348031],[43.672521,-12.351947],[43.664893,-12.358002],[43.662784,-12.359043],[43.659187,-12.359447],[43.658302,-12.358532],[43.658284,-12.358374],[43.658456,-12.358384],[43.658655,-12.358586],[43.658808,-12.358779],[43.658917,-12.358919],[43.659062,-12.359139],[43.659134,-12.359165],[43.65926,-12.359122],[43.659504,-12.359001],[43.659504,-12.358668],[43.659576,-12.358564],[43.659973,-12.358557],[43.66,-12.358487],[43.660235,-12.358506],[43.660425,-12.358664],[43.660533,-12.358682],[43.660777,-12.358569],[43.660886,-12.358622],[43.661039,-12.358754],[43.661193,-12.358834],[43.661328,-12.358747],[43.661518,-12.358503],[43.661653,-12.358206],[43.66186,-12.357665],[43.661976,-12.357027],[43.662211,-12.356836],[43.662491,-12.356776],[43.662816,-12.35669],[43.663024,-12.356577],[43.66315,-12.356481],[43.663294,-12.356333],[43.663366,-12.356238],[43.663384,-12.356098],[43.663384,-12.355827],[43.663239,-12.355529],[43.663085,-12.35537],[43.662859,-12.355265],[43.662661,-12.355229],[43.662453,-12.35528],[43.66201,-12.355339],[43.661758,-12.355417],[43.661568,-12.355442],[43.661414,-12.355503],[43.661279,-12.355633],[43.661231,-12.356025],[43.661054,-12.356148],[43.660901,-12.3562],[43.660747,-12.356121],[43.660611,-12.355997],[43.660503,-12.355848],[43.660403,-12.355586],[43.66033,-12.354711],[43.660456,-12.354239],[43.660446,-12.354125],[43.660275,-12.353941],[43.660274,-12.353705],[43.660428,-12.353548],[43.660563,-12.353487],[43.660816,-12.353384],[43.660969,-12.353262],[43.661014,-12.35314],[43.661077,-12.353026],[43.661249,-12.352852],[43.661519,-12.352722],[43.661917,-12.352602],[43.662504,-12.352613],[43.662585,-12.352745],[43.662612,-12.352832],[43.662594,-12.352911],[43.662522,-12.352989],[43.662333,-12.353268],[43.662324,-12.353469],[43.662406,-12.353819],[43.662487,-12.353986],[43.662596,-12.354144],[43.662714,-12.354328],[43.662876,-12.354478],[43.663789,-12.354455],[43.663202,-12.354908],[43.66341,-12.355048],[43.663681,-12.355146],[43.664124,-12.355139],[43.664313,-12.355044],[43.664503,-12.354861],[43.664791,-12.354591],[43.664909,-12.354478],[43.664917,-12.354006],[43.664872,-12.353892],[43.664754,-12.35362],[43.664636,-12.353497],[43.664564,-12.353453],[43.664456,-12.353488],[43.664302,-12.353566],[43.664203,-12.353574],[43.664022,-12.353442],[43.664022,-12.35304],[43.663894,-12.35248],[43.663975,-12.351702],[43.664164,-12.351274],[43.664416,-12.350838],[43.664506,-12.350279],[43.664596,-12.350078],[43.664731,-12.349886],[43.664921,-12.34966],[43.66511,-12.349424],[43.665272,-12.349294],[43.665462,-12.349111],[43.665696,-12.348999],[43.665913,-12.348877],[43.666121,-12.348799],[43.666699,-12.348723],[43.666906,-12.348637],[43.667791,-12.34865],[43.668216,-12.348582],[43.66827,-12.348512],[43.668141,-12.346657],[43.667942,-12.346543],[43.667689,-12.346445],[43.667318,-12.346059],[43.667263,-12.345298],[43.667444,-12.345168],[43.667552,-12.345072],[43.667597,-12.344757],[43.667452,-12.344407],[43.66737,-12.343987],[43.667252,-12.343715],[43.667162,-12.343496],[43.667143,-12.343347],[43.667098,-12.343251],[43.666755,-12.342917],[43.666537,-12.342645],[43.666393,-12.342417],[43.666184,-12.342075],[43.666085,-12.341812],[43.666003,-12.341418],[43.666066,-12.341025],[43.666129,-12.340815],[43.66621,-12.340658],[43.666345,-12.340528],[43.666535,-12.340389],[43.666706,-12.340302],[43.666878,-12.34025],[43.667203,-12.340173],[43.667464,-12.340069],[43.667654,-12.339939],[43.667446,-12.339868],[43.667293,-12.339824],[43.666742,-12.339856],[43.666552,-12.339803],[43.666425,-12.339697],[43.666308,-12.339522],[43.666208,-12.339154],[43.66609,-12.338629],[43.665963,-12.338392],[43.665782,-12.338155],[43.665637,-12.338023],[43.665506,-12.337966],[43.665262,-12.337895],[43.665046,-12.337833],[43.664901,-12.337744],[43.664765,-12.337648],[43.664639,-12.337525],[43.664584,-12.337411],[43.664503,-12.337384],[43.664299,-12.337531],[43.664223,-12.337628],[43.664034,-12.337933],[43.663854,-12.338081],[43.663727,-12.33808],[43.663619,-12.337975],[43.663619,-12.337861],[43.663736,-12.337774],[43.663736,-12.337608],[43.663627,-12.337415],[43.663627,-12.337275],[43.663726,-12.337171],[43.663862,-12.337101],[43.664069,-12.33705],[43.664141,-12.337006],[43.664186,-12.33691],[43.664276,-12.336587],[43.664384,-12.336404],[43.664556,-12.336274],[43.664556,-12.336204],[43.664501,-12.336064],[43.664348,-12.335739],[43.664148,-12.335345],[43.66404,-12.335065],[43.663976,-12.334793],[43.663967,-12.334522],[43.664039,-12.334321],[43.664183,-12.334191],[43.664246,-12.334069],[43.664264,-12.333841],[43.664164,-12.333465],[43.664028,-12.332966],[43.663928,-12.332729],[43.66381,-12.332309],[43.663656,-12.331976],[43.663539,-12.33166],[43.663466,-12.331415],[43.663321,-12.331248],[43.663194,-12.33095],[43.663004,-12.330556],[43.662887,-12.330372],[43.662751,-12.330039],[43.662552,-12.329662],[43.662325,-12.329399],[43.662135,-12.329205],[43.6619,-12.328942],[43.661747,-12.328793],[43.661421,-12.328642],[43.661331,-12.328572],[43.661159,-12.328335],[43.661077,-12.32816],[43.660978,-12.327897],[43.66086,-12.327599],[43.660751,-12.327415],[43.660616,-12.327327],[43.659803,-12.327279],[43.659794,-12.327428],[43.660246,-12.327596],[43.66039,-12.327658],[43.660372,-12.32784],[43.659976,-12.327883],[43.659725,-12.328014],[43.659497,-12.327836],[43.659413,-12.327836],[43.659108,-12.328238],[43.658721,-12.328194],[43.658615,-12.328171],[43.658493,-12.328134],[43.658036,-12.327793],[43.657869,-12.327681],[43.657717,-12.327607],[43.657564,-12.327629],[43.657412,-12.327797],[43.657177,-12.328157],[43.656827,-12.327993],[43.656774,-12.327942],[43.656789,-12.327787],[43.657024,-12.327449],[43.657229,-12.32717],[43.657252,-12.326979],[43.657183,-12.326861],[43.657213,-12.326765],[43.657396,-12.326538],[43.657555,-12.326244],[43.657509,-12.325897],[43.65725,-12.325719],[43.65693,-12.325593],[43.656733,-12.325474],[43.656641,-12.325415],[43.656496,-12.325274],[43.656413,-12.325089],[43.656336,-12.32489],[43.656237,-12.324698],[43.656108,-12.324565],[43.655963,-12.324498],[43.655803,-12.324556],[43.655697,-12.324666],[43.655583,-12.324879],[43.655446,-12.325011],[43.65534,-12.325004],[43.655286,-12.324849],[43.655149,-12.32473],[43.655157,-12.324561],[43.65521,-12.324311],[43.655361,-12.323958],[43.655376,-12.323715],[43.655269,-12.323427],[43.654995,-12.323028],[43.654789,-12.322924],[43.654257,-12.322936],[43.654074,-12.323016],[43.653831,-12.323126],[43.653565,-12.323257],[43.653466,-12.323257],[43.653322,-12.323182],[43.653237,-12.322799],[43.653146,-12.322629],[43.652895,-12.322436],[43.652735,-12.322377],[43.652583,-12.322332],[43.652457,-12.322276],[43.652438,-12.322044],[43.652483,-12.321956],[43.652468,-12.321889],[43.65224,-12.321933],[43.652042,-12.321968],[43.651768,-12.322033],[43.651464,-12.322113],[43.650993,-12.32228],[43.650719,-12.322397],[43.650597,-12.322529],[43.650453,-12.322558],[43.650301,-12.32252],[43.650194,-12.322424],[43.650179,-12.322166],[43.650323,-12.32185],[43.650315,-12.321511],[43.650261,-12.321386],[43.650124,-12.321267],[43.649941,-12.321193],[43.64953,-12.320992],[43.649142,-12.320836],[43.648769,-12.320723],[43.648434,-12.320604],[43.648039,-12.32058],[43.647742,-12.320601],[43.647598,-12.320821],[43.647576,-12.321138],[43.647713,-12.3213],[43.647629,-12.321447],[43.647431,-12.321513],[43.647203,-12.321622],[43.647189,-12.321909],[43.646953,-12.322033],[43.646984,-12.322417],[43.646855,-12.322534],[43.646536,-12.322834],[43.646224,-12.323032],[43.645996,-12.32323],[43.645715,-12.323427],[43.645456,-12.32361],[43.645289,-12.323609],[43.645281,-12.323366],[43.645479,-12.323213],[43.645463,-12.323102],[43.645402,-12.323043],[43.645425,-12.322947],[43.645608,-12.322918],[43.645638,-12.32283],[43.645607,-12.32272],[43.645486,-12.322697],[43.645318,-12.322785],[43.645098,-12.322857],[43.644946,-12.322834],[43.64477,-12.322723],[43.644375,-12.322545],[43.643979,-12.322499],[43.643796,-12.322431],[43.64369,-12.322357],[43.643408,-12.322002],[43.643088,-12.321721],[43.642928,-12.32161],[43.642715,-12.321579],[43.642609,-12.321505],[43.642578,-12.32138],[43.642593,-12.320953],[43.642448,-12.320724],[43.642387,-12.32065],[43.642295,-12.320311],[43.642249,-12.3202],[43.641945,-12.319882],[43.641602,-12.319674],[43.641168,-12.319444],[43.640864,-12.319295],[43.640635,-12.319257],[43.639981,-12.319232],[43.639859,-12.319276],[43.639799,-12.319423],[43.63992,-12.319598],[43.639906,-12.31971],[43.639853,-12.319798],[43.639449,-12.319789],[43.63932,-12.319811],[43.639145,-12.319987],[43.639176,-12.320274],[43.639252,-12.32037],[43.639169,-12.320583],[43.639002,-12.320634],[43.638591,-12.320699],[43.638218,-12.320704],[43.637906,-12.32085],[43.637785,-12.32085],[43.637686,-12.320967],[43.637671,-12.321173],[43.637473,-12.321194],[43.637359,-12.321245],[43.637329,-12.321334],[43.637253,-12.321429],[43.637131,-12.321539],[43.637048,-12.321568],[43.636896,-12.321612],[43.636652,-12.321662],[43.636523,-12.321765],[43.636333,-12.321808],[43.63612,-12.321939],[43.636036,-12.321895],[43.635793,-12.321798],[43.635663,-12.321768],[43.63558,-12.321812],[43.635504,-12.3219],[43.635344,-12.321965],[43.635238,-12.321943],[43.635093,-12.32178],[43.635009,-12.321699],[43.634827,-12.321779],[43.634621,-12.321815],[43.63437,-12.321895],[43.63418,-12.321975],[43.634013,-12.321996],[43.633937,-12.321966],[43.633663,-12.321921],[43.633541,-12.321972],[43.633389,-12.322001],[43.633138,-12.321985],[43.632841,-12.321748],[43.632833,-12.321475],[43.632886,-12.321409],[43.63313,-12.321351],[43.633343,-12.321256],[43.633601,-12.32114],[43.633745,-12.320905],[43.633928,-12.320773],[43.633958,-12.320648],[43.63395,-12.32042],[43.633866,-12.320272],[43.633866,-12.320117],[43.633988,-12.319978],[43.634025,-12.319845],[43.634086,-12.319728],[43.634345,-12.319692],[43.634763,-12.319517],[43.634976,-12.319319],[43.635363,-12.319152],[43.635668,-12.318954],[43.635789,-12.318911],[43.635896,-12.318904],[43.636147,-12.318986],[43.636307,-12.319105],[43.636558,-12.319201],[43.636801,-12.319276],[43.637075,-12.319292],[43.637304,-12.319352],[43.637501,-12.319405],[43.637768,-12.319457],[43.638201,-12.319504],[43.638475,-12.319512],[43.638779,-12.319381],[43.639221,-12.31942],[43.639342,-12.319266],[43.639341,-12.318632],[43.63947,-12.318302],[43.639614,-12.318],[43.63969,-12.317839],[43.639682,-12.317249],[43.639393,-12.317012],[43.63921,-12.316886],[43.639202,-12.316746],[43.639354,-12.316747],[43.639545,-12.316821],[43.639758,-12.316867],[43.63994,-12.316801],[43.640092,-12.316669],[43.640084,-12.316308],[43.639871,-12.316013],[43.639634,-12.31568],[43.639322,-12.315266],[43.638987,-12.314712],[43.638865,-12.314579],[43.638736,-12.314763],[43.638637,-12.314747],[43.638606,-12.314195],[43.63856,-12.314209],[43.638393,-12.314282],[43.63789,-12.314125],[43.637799,-12.314191],[43.63764,-12.314316],[43.637404,-12.314499],[43.637161,-12.314704],[43.63694,-12.314887],[43.636834,-12.315049],[43.636705,-12.315048],[43.636705,-12.314996],[43.63672,-12.314753],[43.637031,-12.314445],[43.637252,-12.314336],[43.637381,-12.314211],[43.637342,-12.313998],[43.637342,-12.31357],[43.63738,-12.313445],[43.637509,-12.313372],[43.637554,-12.313026],[43.637645,-12.312334],[43.637462,-12.312105],[43.637021,-12.312111],[43.636746,-12.311829],[43.636472,-12.311777],[43.636358,-12.31168],[43.636175,-12.311562],[43.636175,-12.311451],[43.636259,-12.31137],[43.636289,-12.311268],[43.636327,-12.311084],[43.636411,-12.311121],[43.636517,-12.311158],[43.636654,-12.3111],[43.636738,-12.311027],[43.636806,-12.310821],[43.636882,-12.310607],[43.636935,-12.310409],[43.636926,-12.30979],[43.636713,-12.309546],[43.636545,-12.309273],[43.636416,-12.309036],[43.636301,-12.308469],[43.636293,-12.307879],[43.636231,-12.307651],[43.636048,-12.307363],[43.636056,-12.30712],[43.636185,-12.307054],[43.636299,-12.306944],[43.636291,-12.306649],[43.636154,-12.306487],[43.635887,-12.306331],[43.635575,-12.306086],[43.6354,-12.305887],[43.635225,-12.305606],[43.635049,-12.305428],[43.634867,-12.305324],[43.634737,-12.305221],[43.634653,-12.305073],[43.634608,-12.304881],[43.634576,-12.304262],[43.634614,-12.304174],[43.634652,-12.304071],[43.634796,-12.303866],[43.635002,-12.303682],[43.635001,-12.303329],[43.635062,-12.303197],[43.635229,-12.303138],[43.635419,-12.302933],[43.635541,-12.302742],[43.63554,-12.302447],[43.635365,-12.30227],[43.635342,-12.302034],[43.635646,-12.30166],[43.63563,-12.301586],[43.635615,-12.301468],[43.635462,-12.301026],[43.635272,-12.300811],[43.635081,-12.300523],[43.634814,-12.300065],[43.634555,-12.299659],[43.634228,-12.299311],[43.633847,-12.298948],[43.633497,-12.29866],[43.633101,-12.298363],[43.63275,-12.298074],[43.632514,-12.297852],[43.632202,-12.297689],[43.631913,-12.297533],[43.631282,-12.297714],[43.630833,-12.297815],[43.630582,-12.297806],[43.630529,-12.297615],[43.630208,-12.296818],[43.630223,-12.296405],[43.630375,-12.296229],[43.630374,-12.295868],[43.630229,-12.29558],[43.630145,-12.29544],[43.629978,-12.295115],[43.629909,-12.294975],[43.62981,-12.294842],[43.629544,-12.294804],[43.629331,-12.294729],[43.629041,-12.294544],[43.628782,-12.294314],[43.628744,-12.294233],[43.628691,-12.294152],[43.62834,-12.293775],[43.628066,-12.29356],[43.627876,-12.293331],[43.627875,-12.292992],[43.627997,-12.292528],[43.62805,-12.292381],[43.628277,-12.29211],[43.628703,-12.291589],[43.628687,-12.291279],[43.628421,-12.291094],[43.628147,-12.290805],[43.628009,-12.290554],[43.627842,-12.290377],[43.627758,-12.290251],[43.627758,-12.290067],[43.627879,-12.289773],[43.627863,-12.289559],[43.627802,-12.289279],[43.627711,-12.289065],[43.627574,-12.288947],[43.627072,-12.288959],[43.626874,-12.288965],[43.626721,-12.288862],[43.626562,-12.288787],[43.626432,-12.288757],[43.626349,-12.288772],[43.626242,-12.288823],[43.626075,-12.288925],[43.625915,-12.289013],[43.625733,-12.289019],[43.625581,-12.288937],[43.625436,-12.288826],[43.625299,-12.288634],[43.625162,-12.288464],[43.625161,-12.288361],[43.62526,-12.288192],[43.625306,-12.288082],[43.625458,-12.288009],[43.625511,-12.287928],[43.625404,-12.287751],[43.625297,-12.287684],[43.625199,-12.287698],[43.624932,-12.287793],[43.62424,-12.28776],[43.623883,-12.287714],[43.623677,-12.287654],[43.62351,-12.28758],[43.623357,-12.287439],[43.623174,-12.287195],[43.62306,-12.287011],[43.622831,-12.286185],[43.622845,-12.285456],[43.622898,-12.285338],[43.623035,-12.285324],[43.623126,-12.285243],[43.623255,-12.285089],[43.62343,-12.28484],[43.623559,-12.284627],[43.62381,-12.284385],[43.624,-12.284386],[43.624023,-12.284342],[43.625149,-12.284332],[43.625263,-12.284251],[43.625384,-12.28409],[43.625468,-12.283862],[43.625459,-12.283346],[43.625535,-12.283317],[43.625512,-12.283045],[43.625603,-12.283001],[43.62558,-12.282699],[43.625527,-12.282691],[43.625526,-12.282072],[43.625602,-12.281918],[43.625754,-12.281786],[43.625929,-12.281647],[43.625921,-12.281345],[43.625647,-12.281145],[43.625418,-12.280997],[43.62519,-12.280701],[43.624984,-12.280545],[43.624733,-12.28036],[43.624489,-12.280175],[43.624284,-12.280019],[43.624055,-12.279782],[43.62391,-12.279583],[43.623857,-12.27945],[43.623887,-12.279251],[43.623948,-12.279097],[43.624069,-12.279083],[43.62413,-12.279171],[43.624085,-12.279252],[43.624106,-12.279369],[43.624176,-12.279459],[43.62426,-12.27954],[43.624397,-12.279548],[43.62464,-12.279417],[43.624876,-12.279403],[43.625005,-12.279301],[43.625218,-12.279117],[43.625324,-12.278949],[43.6254,-12.278861],[43.625392,-12.278455],[43.625331,-12.278374],[43.625225,-12.278285],[43.625042,-12.278225],[43.624867,-12.278166],[43.624867,-12.278011],[43.625171,-12.277953],[43.625155,-12.277519],[43.625026,-12.277489],[43.62479,-12.277502],[43.624638,-12.277568],[43.624357,-12.277662],[43.62425,-12.277596],[43.62422,-12.2775],[43.62409,-12.277418],[43.624014,-12.277396],[43.623877,-12.277351],[43.623742,-12.277316],[43.623611,-12.277261],[43.623481,-12.277165],[43.623405,-12.277054],[43.623428,-12.27687],[43.623519,-12.276679],[43.623617,-12.276598],[43.623754,-12.276562],[43.623861,-12.276555],[43.623937,-12.276615],[43.62397,-12.276734],[43.623892,-12.276821],[43.623808,-12.276857],[43.623793,-12.276938],[43.623801,-12.277004],[43.623884,-12.277101],[43.623999,-12.277167],[43.624105,-12.277197],[43.62431,-12.27711],[43.624766,-12.276817],[43.624964,-12.276826],[43.62504,-12.276752],[43.62504,-12.276561],[43.62523,-12.276444],[43.625428,-12.27643],[43.625443,-12.276275],[43.625412,-12.276143],[43.625458,-12.275907],[43.625396,-12.27559],[43.625548,-12.275473],[43.625525,-12.2752],[43.625449,-12.275171],[43.625448,-12.274567],[43.625273,-12.274374],[43.625067,-12.274204],[43.624787,-12.27409],[43.624603,-12.273981],[43.624535,-12.27387],[43.624458,-12.273759],[43.624291,-12.27356],[43.624199,-12.273346],[43.624062,-12.272844],[43.624099,-12.272609],[43.624342,-12.272322],[43.624677,-12.272309],[43.625187,-12.272393],[43.625354,-12.27243],[43.62559,-12.27249],[43.625742,-12.272388],[43.625742,-12.272204],[43.626145,-12.272213],[43.626342,-12.271831],[43.626334,-12.271286],[43.626509,-12.270837],[43.626516,-12.270631],[43.626508,-12.270277],[43.626188,-12.27004],[43.625906,-12.269936],[43.625597,-12.26985],[43.625465,-12.269713],[43.625465,-12.269411],[43.625563,-12.269264],[43.625692,-12.268837],[43.625874,-12.268006],[43.626033,-12.267764],[43.6262,-12.267595],[43.62655,-12.267589],[43.626733,-12.267516],[43.626884,-12.267326],[43.627196,-12.266929],[43.627272,-12.266804],[43.627271,-12.26634],[43.627128,-12.266026],[43.627218,-12.266048]]]}}]}