{"type": "FeatureCollection", "features": [{"type": "Feature", "properties": {"id": "villalobos", "name": "Cuenca Villalobos"}, "geometry": {"type": "Polygon", "coordinates": [[[-90.64703888, 14.67236789], [-90.64431321, 14.67472677], [-90.64290839, 14.67474911], [-90.64134448, 14.67347835], [-90.63946795, 14.66693907], [-90.63756966, 14.66774705], [-90.63801575, 14.66491748], [-90.6357753, 14.66265153], [-90.6351134, 14.6588639], [-90.63368927, 14.65615314], [-90.62975998, 14.65373236], [-90.62445828, 14.64774785], [-90.6196748, 14.64567139], [-90.61573499, 14.64559675], [-90.6141237, 14.64469605], [-90.61171985, 14.64443439], [-90.60983734, 14.64333305], [-90.60875091, 14.64038327], [-90.60764083, 14.63924332], [-90.60197863, 14.63543388], [-90.60016418, 14.63550805], [-90.59799212, 14.63655341], [-90.59208998, 14.63659708], [-90.58390151, 14.63830634], [-90.57550013, 14.63787869], [-90.57345779, 14.63746685], [-90.56435836, 14.63248862], [-90.55833395, 14.63108991], [-90.55542853, 14.62975235], [-90.55304531, 14.62764816], [-90.54894268, 14.62554431], [-90.54127157, 14.61749639], [-90.53488099, 14.61256766], [-90.53022967, 14.60592942], [-90.52843062, 14.60462695], [-90.52301414, 14.59764598], [-90.52047364, 14.59592301], [-90.5051376, 14.58988338], [-90.50319244, 14.5872429], [-90.49984476, 14.58523301], [-90.4911391, 14.57762783], [-90.48852533, 14.57083232], [-90.48640917, 14.56897978], [-90.48338801, 14.56466103], [-90.48170013, 14.56411496], [-90.4801336, 14.56198137], [-90.47718522, 14.56206423], [-90.47449722, 14.56467805], [-90.47297622, 14.5651079], [-90.46983399, 14.56456601], [-90.46683418, 14.56505271], [-90.46360812, 14.56370361], [-90.46189245, 14.55874997], [-90.45887705, 14.55820414], [-90.45601148, 14.55626837], [-90.45446041, 14.54766204], [-90.4554425, 14.54309157], [-90.45704863, 14.5402188], [-90.45584577, 14.53872372], [-90.45246837, 14.53886502], [-90.45167586, 14.53826086], [-90.45168425, 14.5369769], [-90.45247014, 14.53622365], [-90.45713838, 14.53550368], [-90.45874869, 14.53293654], [-90.46017029, 14.52872685], [-90.46346941, 14.52566768], [-90.46362228, 14.52405555], [-90.46229327, 14.52096591], [-90.46444541, 14.5147568], [-90.46647388, 14.51310446], [-90.46566413, 14.5102629], [-90.46577292, 14.50692423], [-90.46179989, 14.50475432], [-90.45901283, 14.50168761], [-90.45707125, 14.49792017], [-90.45750352, 14.49445101], [-90.45637708, 14.4912802], [-90.45701743, 14.48874122], [-90.45520333, 14.48581253], [-90.45577046, 14.48392766], [-90.45144684, 14.4767357], [-90.45119557, 14.47530237], [-90.44666483, 14.47132054], [-90.44578525, 14.46901818], [-90.44315453, 14.4681899], [-90.43848006, 14.46187025], [-90.43797546, 14.46035196], [-90.43854789, 14.45890541], [-90.43831405, 14.4573814], [-90.43589964, 14.4545106], [-90.4356918, 14.45175698], [-90.43390743, 14.44759476], [-90.42968452, 14.44670754], [-90.42838696, 14.44543754], [-90.42813707, 14.44402392], [-90.42942932, 14.44058809], [-90.42995127, 14.43646212], [-90.42911837, 14.43035106], [-90.42717229, 14.42472695], [-90.42234464, 14.42325408], [-90.42255843, 14.42241702], [-90.42151129, 14.42023894], [-90.41769329, 14.41865422], [-90.41392611, 14.42059871], [-90.41168974, 14.42093627], [-90.41092452, 14.41976878], [-90.41131378, 14.41826235], [-90.41075785, 14.41681536], [-90.40896341, 14.41444867], [-90.40630403, 14.41255332], [-90.40367335, 14.41251399], [-90.40193635, 14.41151829], [-90.40049877, 14.40845632], [-90.40041235, 14.40656004], [-90.39613729, 14.40465982], [-90.39549884, 14.40307856], [-90.39236662, 14.40236729], [-90.39134207, 14.39857007], [-90.38941408, 14.39778258], [-90.39038995, 14.39358631], [-90.38866977, 14.38763078], [-90.38738217, 14.38641035], [-90.38672081, 14.38413782], [-90.38689366, 14.37901939], [-90.3858904, 14.37691564], [-90.38298862, 14.37492037], [-90.38351169, 14.3729088], [-90.37723714, 14.36463024], [-90.37714426, 14.36126017], [-90.37511396, 14.35033331], [-90.37218817, 14.34851278], [-90.37027466, 14.34838258], [-90.36702299, 14.34599854], [-90.36621506, 14.34321401], [-90.36312506, 14.34141839], [-90.36140434, 14.33906384], [-90.35995369, 14.33640808], [-90.3610831, 14.33486841], [-90.35981563, 14.32741336], [-90.36046473, 14.32240045], [-90.35824796, 14.32233974], [-90.35470905, 14.320778], [-90.35394409, 14.32020349], [-90.35371823, 14.31779229], [-90.35310202, 14.31748587], [-90.35052888, 14.31763972], [-90.35025077, 14.31428221], [-90.34856997, 14.31326665], [-90.34694233, 14.30789807], [-90.34482455, 14.30571536], [-90.34843765, 14.30196014], [-90.34896457289938, 14.3], [-90.78, 14.3], [-90.78, 14.327632019729583], [-90.77796087, 14.33059508], [-90.77697524, 14.33585772], [-90.7769005, 14.34197479], [-90.7757604, 14.34463471], [-90.77628333, 14.34895328], [-90.77350029, 14.35605049], [-90.77230343, 14.35714559], [-90.77188351, 14.35982641], [-90.76865289, 14.36710327], [-90.76926487, 14.37358235], [-90.76806305, 14.3781326], [-90.76617675, 14.3817227], [-90.76646203, 14.38638319], [-90.76494279, 14.39304244], [-90.76648439, 14.4010031], [-90.76444909, 14.40325979], [-90.76414198, 14.40817464], [-90.76150343, 14.41820109], [-90.76104246, 14.42341553], [-90.75897282, 14.42605063], [-90.75828904, 14.4293601], [-90.75434115, 14.43271905], [-90.75350768, 14.43443225], [-90.75195854, 14.4417122], [-90.74822915, 14.4486708], [-90.74645719, 14.45709245], [-90.74419161, 14.46150715], [-90.74360194, 14.4646784], [-90.74154008, 14.46530659], [-90.73662316, 14.46916862], [-90.73293998, 14.47399175], [-90.72850988, 14.4773782], [-90.72513678, 14.48277595], [-90.72195115, 14.48392357], [-90.7191084, 14.48770731], [-90.71639782, 14.48868023], [-90.71318827, 14.49095159], [-90.71049482, 14.49583458], [-90.70675118, 14.5002842], [-90.70184736, 14.50251064], [-90.70120768, 14.50398394], [-90.69792523, 14.50440673], [-90.69495639, 14.50629996], [-90.69040942, 14.51322699], [-90.69132357, 14.51643304], [-90.69132668, 14.520054], [-90.68826453, 14.52356972], [-90.68526602, 14.52478384], [-90.68246205, 14.52780983], [-90.67834345, 14.52691435], [-90.67568423, 14.52936933], [-90.67556918, 14.53465529], [-90.67662445, 14.53863284], [-90.67588665, 14.54298129], [-90.67440716, 14.54589209], [-90.67550661, 14.55154167], [-90.66822776, 14.56103145], [-90.66736951, 14.56347118], [-90.66719898, 14.56693924], [-90.66556394, 14.57076453], [-90.66526163, 14.57444835], [-90.66214343, 14.5753414], [-90.66074764, 14.57949091], [-90.66101735, 14.58027638], [-90.66515206, 14.58243185], [-90.66645983, 14.58723499], [-90.67051276, 14.58866002], [-90.67550887, 14.58902219], [-90.67801916, 14.59060193], [-90.68288625, 14.58919304], [-90.68540091, 14.59217416], [-90.68633269, 14.5951907], [-90.68494715, 14.59539828], [-90.6781028, 14.59941202], [-90.67569033, 14.60296304], [-90.67507058, 14.60555643], [-90.67207874, 14.61036934], [-90.67113428, 14.61304152], [-90.66560951, 14.61442296], [-90.66313601, 14.6172058], [-90.65655729, 14.62169402], [-90.65347532, 14.62178933], [-90.64858064, 14.62394772], [-90.64613144, 14.62771374], [-90.64577847, 14.62938648], [-90.64999847, 14.63537096], [-90.65280435, 14.63559215], [-90.65456132, 14.63495817], [-90.65608176, 14.63749245], [-90.65901182, 14.63896954], [-90.65986035, 14.64124773], [-90.65932758, 14.64338728], [-90.66023524, 14.64400805], [-90.6629887, 14.64417405], [-90.664094, 14.64766596], [-90.66314062, 14.64844683], [-90.66301016, 14.64984089], [-90.67026926, 14.65864658], [-90.67057789, 14.6624757], [-90.67210652, 14.66463967], [-90.66963788, 14.66421901], [-90.66694482, 14.66608441], [-90.65745381, 14.66898983], [-90.65609154, 14.67077738], [-90.65440932, 14.67531804], [-90.65074259, 14.67446107], [-90.64703888, 14.67236789]]]}}]}