{"type": "FeatureCollection", "features": [{"type": "Feature", "properties": {"id": "cuenca_villalobos_1", "name": "Rio Villalobos at Villa Nueva", "basin": "villalobos"}, "geometry": {"type": "Point", "coordinates": [-90.535389, 14.487846]}}, {"type": "Feature", "properties": {"id": "cuenca_villalobos_2", "name": "Rio Villalobos at Petapa", "basin": "villalobos"}, "geometry": {"type": "Point", "coordinates": [-90.541955, 14.486986]}}, {"type": "Feature", "properties": {"id": "cuenca_villalobos_out", "name": "Basin outlet, Michatoya at Palin", "basin": "villalobos"}, "geometry": {"type": "Point", "coordinates": [-90.671137, 14.412713]}}]}