{"type":"FeatureCollection","features":[{"type":"Feature","properties":{"n":"UNIÓN CANTINIL","d":"HUEHUETENANGO"},"geometry":{"type":"Point","coordinates":[-91.71834562,15.60392656]}},{"type":"Feature","properties":{"n":"RAXRUJÁ","d":"ALTA VERAPAZ"},"geometry":{"type":"Point","coordinates":[-90.04469775,15.86795977]}},{"type":"Feature","properties":{"n":"LAS CRUCES","d":"PETEN"},"geometry":{"type":"Point","coordinates":[-90.29209696,16.66311206]}},{"type":"Feature","properties":{"n":"CHIQUIMULA","d":"CHIQUIMULA"},"geometry":{"type":"Point","coordinates":[-89.54422364,14.79974125]}},{"type":"Feature","properties":{"n":"RABINAL","d":"BAJA VERAPAZ"},"geometry":{"type":"Point","coordinates":[-90.49353167,15.08539821]}},{"type":"Feature","properties":{"n":"SANTA CATARINA BARAHONA","d":"SACATEPEQUEZ"},"geometry":{"type":"Point","coordinates":[-90.78647466,14.55057746]}},{"type":"Feature","properties":{"n":"CHIMALTENANGO","d":"CHIMALTENANGO"},"geometry":{"type":"Point","coordinates":[-90.81955707,14.66007395]}},{"type":"Feature","properties":{"n":"EL TEJAR","d":"CHIMALTENANGO"},"geometry":{"type":"Point","coordinates":[-90.79153147,14.64539863]}},{"type":"Feature","properties":{"n":"SAN JOSE ACATEMPA","d":"JUTIAPA"},"geometry":{"type":"Point","coordinates":[-90.129349,14.26273682]}},{"type":"Feature","properties":{"n":"RETALHULEU","d":"RETALHULEU"},"geometry":{"type":"Point","coordinates":[-91.67779453,14.53590907]}},{"type":"Feature","properties":{"n":"SAN FELIPE","d":"RETALHULEU"},"geometry":{"type":"Point","coordinates":[-91.59624071,14.62346831]}},{"type":"Feature","properties":{"n":"CHAMPERICO","d":"RETALHULEU"},"geometry":{"type":"Point","coordinates":[-91.91182943,14.29295923]}},{"type":"Feature","properties":{"n":"AGUACATAN","d":"HUEHUETENANGO"},"geometry":{"type":"Point","coordinates":[-91.31082308,15.34137177]}},{"type":"Feature","properties":{"n":"SANTA CATARINA PINULA","d":"GUATEMALA"},"geometry":{"type":"Point","coordinates":[-90.4953147,14.56993502]}},{"type":"Feature","properties":{"n":"MELCHOR DE MENCOS","d":"PETEN"},"geometry":{"type":"Point","coordinates":[-89.15171723,17.06670606]}},{"type":"Feature","properties":{"n":"SAN ANDRES","d":"PETEN"},"geometry":{"type":"Point","coordinates":[-89.91305074,16.97096434]}},{"type":"Feature","properties":{"n":"SAN JOSE","d":"PETEN"},"geometry":{"type":"Point","coordinates":[-89.89699025,16.9933953]}},{"type":"Feature","properties":{"n":"SAN BENITO","d":"PETEN"},"geometry":{"type":"Point","coordinates":[-89.90578511,16.91860684]}},{"type":"Feature","properties":{"n":"SANTA ANA","d":"PETEN"},"geometry":{"type":"Point","coordinates":[-89.82704953,16.80709928]}},{"type":"Feature","properties":{"n":"SAN FRANCISCO","d":"PETEN"},"geometry":{"type":"Point","coordinates":[-89.93564707,16.7979849]}},{"type":"Feature","properties":{"n":"LA LIBERTAD","d":"PETEN"},"geometry":{"type":"Point","coordinates":[-90.11920993,16.78772452]}},{"type":"Feature","properties":{"n":"SAYAXCHE","d":"PETEN"},"geometry":{"type":"Point","coordinates":[-90.18871375,16.52671112]}},{"type":"Feature","properties":{"n":"DOLORES","d":"PETEN"},"geometry":{"type":"Point","coordinates":[-89.41679307,16.51335701]}},{"type":"Feature","properties":{"n":"POPTUN","d":"PETEN"},"geometry":{"type":"Point","coordinates":[-89.41797101,16.33515086]}},{"type":"Feature","properties":{"n":"SAN LUIS","d":"PETEN"},"geometry":{"type":"Point","coordinates":[-89.44209548,16.19775801]}},{"type":"Feature","properties":{"n":"IXCAN","d":"QUICHE"},"geometry":{"type":"Point","coordinates":[-90.78179703,15.98544291]}},{"type":"Feature","properties":{"n":"LIVINGSTON","d":"IZABAL"},"geometry":{"type":"Point","coordinates":[-88.75037823,15.82731064]}},{"type":"Feature","properties":{"n":"SAN MATEO IXTATAN","d":"HUEHUETENANGO"},"geometry":{"type":"Point","coordinates":[-91.47699744,15.83086983]}},{"type":"Feature","properties":{"n":"FRAY BARTOLOME DE LAS CASAS","d":"ALTA VERAPAZ"},"geometry":{"type":"Point","coordinates":[-89.87314086,15.80750493]}},{"type":"Feature","properties":{"n":"CHISEC","d":"ALTA VERAPAZ"},"geometry":{"type":"Point","coordinates":[-90.28967623,15.8112208]}},{"type":"Feature","properties":{"n":"BARILLAS","d":"HUEHUETENANGO"},"geometry":{"type":"Point","coordinates":[-91.3151268,15.8021891]}},{"type":"Feature","properties":{"n":"NENTON","d":"HUEHUETENANGO"},"geometry":{"type":"Point","coordinates":[-91.75497755,15.79979772]}},{"type":"Feature","properties":{"n":"SAN SEBASTIAN COATAN","d":"HUEHUETENANGO"},"geometry":{"type":"Point","coordinates":[-91.56360082,15.73580902]}},{"type":"Feature","properties":{"n":"SANTA EULALIA","d":"HUEHUETENANGO"},"geometry":{"type":"Point","coordinates":[-91.45847405,15.73163013]}},{"type":"Feature","properties":{"n":"SAN MIGUEL ACATAN","d":"HUEHUETENANGO"},"geometry":{"type":"Point","coordinates":[-91.59768698,15.70348248]}},{"type":"Feature","properties":{"n":"SAN RAFAEL  LA INDEPENDENCIA","d":"HUEHUETENANGO"},"geometry":{"type":"Point","coordinates":[-91.53370318,15.70113612]}},{"type":"Feature","properties":{"n":"SANTA ANA HUISTA","d":"HUEHUETENANGO"},"geometry":{"type":"Point","coordinates":[-91.82093028,15.68010313]}},{"type":"Feature","properties":{"n":"JACALTENANGO","d":"HUEHUETENANGO"},"geometry":{"type":"Point","coordinates":[-91.71139461,15.66633828]}},{"type":"Feature","properties":{"n":"SOLOMA","d":"HUEHUETENANGO"},"geometry":{"type":"Point","coordinates":[-91.4316295,15.65623896]}},{"type":"Feature","properties":{"n":"SAN ANTONIO HUISTA","d":"HUEHUETENANGO"},"geometry":{"type":"Point","coordinates":[-91.77218014,15.6505951]}},{"type":"Feature","properties":{"n":"CONCEPCION HUISTA","d":"HUEHUETENANGO"},"geometry":{"type":"Point","coordinates":[-91.66527732,15.62333654]}},{"type":"Feature","properties":{"n":"CAHABON","d":"ALTA VERAPAZ"},"geometry":{"type":"Point","coordinates":[-89.81516035,15.60664932]}},{"type":"Feature","properties":{"n":"LA DEMOCRACIA","d":"HUEHUETENANGO"},"geometry":{"type":"Point","coordinates":[-91.88613248,15.62432726]}},{"type":"Feature","properties":{"n":"SAN JUAN IXCOY","d":"HUEHUETENANGO"},"geometry":{"type":"Point","coordinates":[-91.4462404,15.59895047]}},{"type":"Feature","properties":{"n":"LANQUIN","d":"ALTA VERAPAZ"},"geometry":{"type":"Point","coordinates":[-89.98058093,15.57459126]}},{"type":"Feature","properties":{"n":"EL ESTOR","d":"IZABAL"},"geometry":{"type":"Point","coordinates":[-89.32973716,15.52837054]}},{"type":"Feature","properties":{"n":"MORALES","d":"IZABAL"},"geometry":{"type":"Point","coordinates":[-88.83554988,15.47165146]}},{"type":"Feature","properties":{"n":"LA LIBERTAD","d":"HUEHUETENANGO"},"geometry":{"type":"Point","coordinates":[-91.86978478,15.51339419]}},{"type":"Feature","properties":{"n":"TODOS SANTOS CUCHUMATAN","d":"HUEHUETENANGO"},"geometry":{"type":"Point","coordinates":[-91.60385526,15.50794417]}},{"type":"Feature","properties":{"n":"CHAJUL","d":"QUICHE"},"geometry":{"type":"Point","coordinates":[-91.03556507,15.48434926]}},{"type":"Feature","properties":{"n":"SAN PEDRO NECTA","d":"HUEHUETENANGO"},"geometry":{"type":"Point","coordinates":[-91.76586132,15.49049887]}},{"type":"Feature","properties":{"n":"SANTIAGO CHIMALTENANGO","d":"HUEHUETENANGO"},"geometry":{"type":"Point","coordinates":[-91.69662584,15.47601645]}},{"type":"Feature","properties":{"n":"SAN JUAN  ATITAN","d":"HUEHUETENANGO"},"geometry":{"type":"Point","coordinates":[-91.61887692,15.42888141]}},{"type":"Feature","properties":{"n":"SAN JUAN CHAMELCO","d":"ALTA VERAPAZ"},"geometry":{"type":"Point","coordinates":[-90.32990163,15.42367847]}},{"type":"Feature","properties":{"n":"SAN JUAN COTZAL","d":"QUICHE"},"geometry":{"type":"Point","coordinates":[-91.03506167,15.43305602]}},{"type":"Feature","properties":{"n":"SENAHU","d":"ALTA VERAPAZ"},"geometry":{"type":"Point","coordinates":[-89.82197412,15.41586974]}},{"type":"Feature","properties":{"n":"PANZOS","d":"ALTA VERAPAZ"},"geometry":{"type":"Point","coordinates":[-89.64170792,15.39897177]}},{"type":"Feature","properties":{"n":"NEBAJ","d":"QUICHE"},"geometry":{"type":"Point","coordinates":[-91.14783489,15.40543149]}},{"type":"Feature","properties":{"n":"IXTAHUACAN","d":"HUEHUETENANGO"},"geometry":{"type":"Point","coordinates":[-91.77002115,15.41672234]}},{"type":"Feature","properties":{"n":"SAN RAFAEL PETZAL","d":"HUEHUETENANGO"},"geometry":{"type":"Point","coordinates":[-91.65944481,15.40302467]}},{"type":"Feature","properties":{"n":"COLOTENANGO","d":"HUEHUETENANGO"},"geometry":{"type":"Point","coordinates":[-91.71429203,15.40398453]}},{"type":"Feature","properties":{"n":"CUILCO","d":"HUEHUETENANGO"},"geometry":{"type":"Point","coordinates":[-91.94625784,15.40602062]}},{"type":"Feature","properties":{"n":"SAN SEBASTIAN HUEHUETENANGO","d":"HUEHUETENANGO"},"geometry":{"type":"Point","coordinates":[-91.61507434,15.38643608]}},{"type":"Feature","properties":{"n":"SAN GASPAR IXCHIL","d":"HUEHUETENANGO"},"geometry":{"type":"Point","coordinates":[-91.72647909,15.3864118]}},{"type":"Feature","properties":{"n":"SANTA CRUZ VERAPAZ","d":"ALTA VERAPAZ"},"geometry":{"type":"Point","coordinates":[-90.42947466,15.3751964]}},{"type":"Feature","properties":{"n":"SAN CRISTOBAL VERAPAZ","d":"ALTA VERAPAZ"},"geometry":{"type":"Point","coordinates":[-90.47892703,15.36541697]}},{"type":"Feature","properties":{"n":"CHIANTLA","d":"HUEHUETENANGO"},"geometry":{"type":"Point","coordinates":[-91.45724252,15.35429024]}},{"type":"Feature","properties":{"n":"CHICAMAN","d":"QUICHE"},"geometry":{"type":"Point","coordinates":[-90.7988107,15.3476672]}},{"type":"Feature","properties":{"n":"USPANTAN","d":"QUICHE"},"geometry":{"type":"Point","coordinates":[-90.87037767,15.347579]}},{"type":"Feature","properties":{"n":"CUNEN","d":"QUICHE"},"geometry":{"type":"Point","coordinates":[-91.02816542,15.335618]}},{"type":"Feature","properties":{"n":"TACTIC","d":"ALTA VERAPAZ"},"geometry":{"type":"Point","coordinates":[-90.35354814,15.31855226]}},{"type":"Feature","properties":{"n":"SANTA CATALINA LA TINTA","d":"ALTA VERAPAZ"},"geometry":{"type":"Point","coordinates":[-89.88652878,15.31659708]}},{"type":"Feature","properties":{"n":"SANTA BARBARA","d":"HUEHUETENANGO"},"geometry":{"type":"Point","coordinates":[-91.63696866,15.31457673]}},{"type":"Feature","properties":{"n":"TAMAHU","d":"ALTA VERAPAZ"},"geometry":{"type":"Point","coordinates":[-90.23356106,15.30726273]}},{"type":"Feature","properties":{"n":"TUCURU","d":"ALTA VERAPAZ"},"geometry":{"type":"Point","coordinates":[-90.11882734,15.29344012]}},{"type":"Feature","properties":{"n":"TECTITAN","d":"HUEHUETENANGO"},"geometry":{"type":"Point","coordinates":[-92.06055552,15.30511227]}},{"type":"Feature","properties":{"n":"SACAPULAS","d":"QUICHE"},"geometry":{"type":"Point","coordinates":[-91.09185026,15.28633716]}},{"type":"Feature","properties":{"n":"LOS AMATES","d":"IZABAL"},"geometry":{"type":"Point","coordinates":[-89.09272818,15.25610984]}},{"type":"Feature","properties":{"n":"SAN MIGUEL  IXTAHUACAN","d":"SAN MARCOS"},"geometry":{"type":"Point","coordinates":[-91.74841567,15.27146897]}},{"type":"Feature","properties":{"n":"PURULHA","d":"BAJA VERAPAZ"},"geometry":{"type":"Point","coordinates":[-90.2357135,15.23548986]}},{"type":"Feature","properties":{"n":"MALACATANCITO","d":"HUEHUETENANGO"},"geometry":{"type":"Point","coordinates":[-91.49808625,15.24435562]}},{"type":"Feature","properties":{"n":"TACANA","d":"SAN MARCOS"},"geometry":{"type":"Point","coordinates":[-92.06732087,15.23979121]}},{"type":"Feature","properties":{"n":"CONCEPCION TUTUAPA","d":"SAN MARCOS"},"geometry":{"type":"Point","coordinates":[-91.84503316,15.2390476]}},{"type":"Feature","properties":{"n":"SAN JOSE OJETENAM","d":"SAN MARCOS"},"geometry":{"type":"Point","coordinates":[-91.97385156,15.23324242]}},{"type":"Feature","properties":{"n":"SIPACAPA","d":"SAN MARCOS"},"geometry":{"type":"Point","coordinates":[-91.63463693,15.21173066]}},{"type":"Feature","properties":{"n":"SAN BARTOLOME  JOCOTENANGO","d":"QUICHE"},"geometry":{"type":"Point","coordinates":[-91.07823492,15.19112911]}},{"type":"Feature","properties":{"n":"SAN ANDRES SAJCABAJA","d":"QUICHE"},"geometry":{"type":"Point","coordinates":[-90.94189471,15.17571106]}},{"type":"Feature","properties":{"n":"CANILLA","d":"QUICHE"},"geometry":{"type":"Point","coordinates":[-90.85189705,15.16604124]}},{"type":"Feature","properties":{"n":"IXCHIGUAN","d":"SAN MARCOS"},"geometry":{"type":"Point","coordinates":[-91.93290805,15.16277807]}},{"type":"Feature","properties":{"n":"SIBINAL","d":"SAN MARCOS"},"geometry":{"type":"Point","coordinates":[-92.04822905,15.14863095]}},{"type":"Feature","properties":{"n":"GUALAN","d":"ZACAPA"},"geometry":{"type":"Point","coordinates":[-89.3602692,15.11269963]}},{"type":"Feature","properties":{"n":"SANTA LUCIA LA REFORMA","d":"TOTONICAPAN"},"geometry":{"type":"Point","coordinates":[-91.23626623,15.12817621]}},{"type":"Feature","properties":{"n":"TEJUTLA","d":"SAN MARCOS"},"geometry":{"type":"Point","coordinates":[-91.8048312,15.12222074]}},{"type":"Feature","properties":{"n":"SALAMA","d":"BAJA VERAPAZ"},"geometry":{"type":"Point","coordinates":[-90.31889974,15.10224353]}},{"type":"Feature","properties":{"n":"CUBULCO","d":"BAJA VERAPAZ"},"geometry":{"type":"Point","coordinates":[-90.62921514,15.10634049]}},{"type":"Feature","properties":{"n":"SAN MIGUEL CHICAJ","d":"BAJA VERAPAZ"},"geometry":{"type":"Point","coordinates":[-90.39523409,15.09475786]}},{"type":"Feature","properties":{"n":"SAN PEDRO JOCOPILAS","d":"QUICHE"},"geometry":{"type":"Point","coordinates":[-91.15112479,15.09376141]}},{"type":"Feature","properties":{"n":"COMITANCILLO","d":"SAN MARCOS"},"geometry":{"type":"Point","coordinates":[-91.75006189,15.08604369]}},{"type":"Feature","properties":{"n":"SAN BARTOLO","d":"TOTONICAPAN"},"geometry":{"type":"Point","coordinates":[-91.45569389,15.08316108]}},{"type":"Feature","properties":{"n":"SAN JERONIMO","d":"BAJA VERAPAZ"},"geometry":{"type":"Point","coordinates":[-90.24067079,15.06013052]}},{"type":"Feature","properties":{"n":"TAJUMULCO","d":"SAN MARCOS"},"geometry":{"type":"Point","coordinates":[-91.92274992,15.08239445]}},{"type":"Feature","properties":{"n":"CABRICAN","d":"QUETZALTENANGO"},"geometry":{"type":"Point","coordinates":[-91.6478806,15.07393173]}},{"type":"Feature","properties":{"n":"RIO HONDO","d":"ZACAPA"},"geometry":{"type":"Point","coordinates":[-89.58510751,15.04420168]}},{"type":"Feature","properties":{"n":"SAN ANTONIO ILOTENANGO","d":"QUICHE"},"geometry":{"type":"Point","coordinates":[-91.23046265,15.05372353]}},{"type":"Feature","properties":{"n":"MOMOSTENANGO","d":"TOTONICAPAN"},"geometry":{"type":"Point","coordinates":[-91.40901509,15.04432622]}},{"type":"Feature","properties":{"n":"CHINIQUE","d":"QUICHE"},"geometry":{"type":"Point","coordinates":[-91.02681935,15.03999976]}},{"type":"Feature","properties":{"n":"RIO BLANCO","d":"SAN MARCOS"},"geometry":{"type":"Point","coordinates":[-91.68435305,15.03643693]}},{"type":"Feature","properties":{"n":"SANTA MARIA CHIQUIMULA","d":"TOTONICAPAN"},"geometry":{"type":"Point","coordinates":[-91.33028899,15.02872923]}},{"type":"Feature","properties":{"n":"ZACUALPA","d":"QUICHE"},"geometry":{"type":"Point","coordinates":[-90.87883014,15.027677]}},{"type":"Feature","properties":{"n":"SAN LORENZO","d":"SAN MARCOS"},"geometry":{"type":"Point","coordinates":[-91.73497305,15.02976089]}},{"type":"Feature","properties":{"n":"ESTANZUELA","d":"ZACAPA"},"geometry":{"type":"Point","coordinates":[-89.57289977,14.99759557]}},{"type":"Feature","properties":{"n":"CHICHE","d":"QUICHE"},"geometry":{"type":"Point","coordinates":[-91.0643671,15.00872977]}},{"type":"Feature","properties":{"n":"TECULUTAN","d":"ZACAPA"},"geometry":{"type":"Point","coordinates":[-89.71976369,14.9885593]}},{"type":"Feature","properties":{"n":"JOYABAJ","d":"QUICHE"},"geometry":{"type":"Point","coordinates":[-90.80635041,14.99330105]}},{"type":"Feature","properties":{"n":"ZACAPA","d":"ZACAPA"},"geometry":{"type":"Point","coordinates":[-89.53251134,14.97213175]}},{"type":"Feature","properties":{"n":"LA UNION","d":"ZACAPA"},"geometry":{"type":"Point","coordinates":[-89.29058081,14.96550654]}},{"type":"Feature","properties":{"n":"SAN CARLOS SIJA","d":"QUETZALTENANGO"},"geometry":{"type":"Point","coordinates":[-91.54902688,14.98337036]}},{"type":"Feature","properties":{"n":"EL CHOL","d":"BAJA VERAPAZ"},"geometry":{"type":"Point","coordinates":[-90.48717646,14.96101919]}},{"type":"Feature","properties":{"n":"SAN PEDRO SACATEPEQUEZ","d":"SAN MARCOS"},"geometry":{"type":"Point","coordinates":[-91.77785876,14.96603724]}},{"type":"Feature","properties":{"n":"SAN MARCOS","d":"SAN MARCOS"},"geometry":{"type":"Point","coordinates":[-91.7946139,14.96116948]}},{"type":"Feature","properties":{"n":"USUMATLAN","d":"ZACAPA"},"geometry":{"type":"Point","coordinates":[-89.7771558,14.94742988]}},{"type":"Feature","properties":{"n":"PATZITE","d":"QUICHE"},"geometry":{"type":"Point","coordinates":[-91.20734257,14.96293694]}},{"type":"Feature","properties":{"n":"SAN AGUSTIN ACASAGUASTLAN","d":"EL PROGRESO"},"geometry":{"type":"Point","coordinates":[-89.96975266,14.94420567]}},{"type":"Feature","properties":{"n":"SAN ANTONIO SACATEPEQUEZ","d":"SAN MARCOS"},"geometry":{"type":"Point","coordinates":[-91.73099998,14.95966091]}},{"type":"Feature","properties":{"n":"HUITE","d":"ZACAPA"},"geometry":{"type":"Point","coordinates":[-89.71611526,14.92701688]}},{"type":"Feature","properties":{"n":"CABAÑAS","d":"ZACAPA"},"geometry":{"type":"Point","coordinates":[-89.7972171,14.93483165]}},{"type":"Feature","properties":{"n":"CHICHICASTENANGO","d":"QUICHE"},"geometry":{"type":"Point","coordinates":[-91.11083234,14.94174179]}},{"type":"Feature","properties":{"n":"SAN FRANCISCO EL ALTO","d":"TOTONICAPAN"},"geometry":{"type":"Point","coordinates":[-91.44303921,14.94398685]}},{"type":"Feature","properties":{"n":"MORAZAN","d":"EL PROGRESO"},"geometry":{"type":"Point","coordinates":[-90.14464052,14.93207184]}},{"type":"Feature","properties":{"n":"ESQUIPULAS PALO GORDO","d":"SAN MARCOS"},"geometry":{"type":"Point","coordinates":[-91.82641616,14.94050492]}},{"type":"Feature","properties":{"n":"PALESTINA DE LOS ALTOS","d":"QUETZALTENANGO"},"geometry":{"type":"Point","coordinates":[-91.69407655,14.93227276]}},{"type":"Feature","properties":{"n":"PACHALUM","d":"QUICHE"},"geometry":{"type":"Point","coordinates":[-90.66391548,14.92502736]}},{"type":"Feature","properties":{"n":"SAN PABLO","d":"SAN MARCOS"},"geometry":{"type":"Point","coordinates":[-92.00425678,14.93141388]}},{"type":"Feature","properties":{"n":"SAN RAFAEL PIE DE  LA CUESTA","d":"SAN MARCOS"},"geometry":{"type":"Point","coordinates":[-91.91331469,14.92994883]}},{"type":"Feature","properties":{"n":"EL JICARO","d":"EL PROGRESO"},"geometry":{"type":"Point","coordinates":[-89.89530469,14.91263838]}},{"type":"Feature","properties":{"n":"GRANADOS","d":"BAJA VERAPAZ"},"geometry":{"type":"Point","coordinates":[-90.52164888,14.91795558]}},{"type":"Feature","properties":{"n":"CAJOLA","d":"QUETZALTENANGO"},"geometry":{"type":"Point","coordinates":[-91.61435907,14.92145576]}},{"type":"Feature","properties":{"n":"SAN CRISTOBAL TOTONICAPAN","d":"TOTONICAPAN"},"geometry":{"type":"Point","coordinates":[-91.44108518,14.91729472]}},{"type":"Feature","properties":{"n":"TOTONICAPAN","d":"TOTONICAPAN"},"geometry":{"type":"Point","coordinates":[-91.36030325,14.91028788]}},{"type":"Feature","properties":{"n":"EL RODEO","d":"SAN MARCOS"},"geometry":{"type":"Point","coordinates":[-91.97586898,14.91352252]}},{"type":"Feature","properties":{"n":"MALACATAN","d":"SAN MARCOS"},"geometry":{"type":"Point","coordinates":[-92.05756272,14.90950565]}},{"type":"Feature","properties":{"n":"SAN ANDRES XECUL","d":"TOTONICAPAN"},"geometry":{"type":"Point","coordinates":[-91.48363059,14.90384344]}},{"type":"Feature","properties":{"n":"SAN CRISTOBAL CUCHO","d":"SAN MARCOS"},"geometry":{"type":"Point","coordinates":[-91.78170616,14.90410155]}},{"type":"Feature","properties":{"n":"OLINTEPEQUE","d":"QUETZALTENANGO"},"geometry":{"type":"Point","coordinates":[-91.51442608,14.88496215]}},{"type":"Feature","properties":{"n":"SAN MIGUEL SIGUILA","d":"QUETZALTENANGO"},"geometry":{"type":"Point","coordinates":[-91.61439754,14.89318169]}},{"type":"Feature","properties":{"n":"SALCAJA","d":"QUETZALTENANGO"},"geometry":{"type":"Point","coordinates":[-91.45815955,14.8789839]}},{"type":"Feature","properties":{"n":"LA ESPERANZA","d":"QUETZALTENANGO"},"geometry":{"type":"Point","coordinates":[-91.56217512,14.87088969]}},{"type":"Feature","properties":{"n":"SAN JUAN OSTUNCALCO","d":"QUETZALTENANGO"},"geometry":{"type":"Point","coordinates":[-91.62123711,14.8677286]}},{"type":"Feature","properties":{"n":"QUETZALTENANGO","d":"QUETZALTENANGO"},"geometry":{"type":"Point","coordinates":[-91.51496686,14.84207866]}},{"type":"Feature","properties":{"n":"EL TUMBADOR","d":"SAN MARCOS"},"geometry":{"type":"Point","coordinates":[-91.93075416,14.86317052]}},{"type":"Feature","properties":{"n":"SAN MATEO","d":"QUETZALTENANGO"},"geometry":{"type":"Point","coordinates":[-91.59173507,14.85707014]}},{"type":"Feature","properties":{"n":"CONCEPCION CHIQUIRICHAPA","d":"QUETZALTENANGO"},"geometry":{"type":"Point","coordinates":[-91.62377065,14.85375578]}},{"type":"Feature","properties":{"n":"CATARINA","d":"SAN MARCOS"},"geometry":{"type":"Point","coordinates":[-92.07705757,14.85327294]}},{"type":"Feature","properties":{"n":"JOCOTAN","d":"CHIQUIMULA"},"geometry":{"type":"Point","coordinates":[-89.39058886,14.81942448]}},{"type":"Feature","properties":{"n":"NAHUALA","d":"SOLOLA"},"geometry":{"type":"Point","coordinates":[-91.3177724,14.84198442]}},{"type":"Feature","properties":{"n":"CAMOTAN","d":"CHIQUIMULA"},"geometry":{"type":"Point","coordinates":[-89.37277852,14.81922531]}},{"type":"Feature","properties":{"n":"CHUARRANCHO","d":"GUATEMALA"},"geometry":{"type":"Point","coordinates":[-90.49958165,14.82268249]}},{"type":"Feature","properties":{"n":"SAN JOSE POAQUIL","d":"CHIMALTENANGO"},"geometry":{"type":"Point","coordinates":[-90.91246537,14.81769713]}},{"type":"Feature","properties":{"n":"ALMOLONGA","d":"QUETZALTENANGO"},"geometry":{"type":"Point","coordinates":[-91.49492885,14.81312769]}},{"type":"Feature","properties":{"n":"CANTEL","d":"QUETZALTENANGO"},"geometry":{"type":"Point","coordinates":[-91.45476485,14.80942969]}},{"type":"Feature","properties":{"n":"SAN DIEGO","d":"ZACAPA"},"geometry":{"type":"Point","coordinates":[-89.77669491,14.78910832]}},{"type":"Feature","properties":{"n":"SAN MARTIN JILOTEPEQUE","d":"CHIMALTENANGO"},"geometry":{"type":"Point","coordinates":[-90.79267743,14.7819896]}},{"type":"Feature","properties":{"n":"LA REFORMA","d":"SAN MARCOS"},"geometry":{"type":"Point","coordinates":[-91.82038655,14.79929735]}},{"type":"Feature","properties":{"n":"SANTA CATARINA IXTAHUACAN","d":"SOLOLA"},"geometry":{"type":"Point","coordinates":[-91.35914744,14.79736592]}},{"type":"Feature","properties":{"n":"SANTA APOLONIA","d":"CHIMALTENANGO"},"geometry":{"type":"Point","coordinates":[-90.97333322,14.79084305]}},{"type":"Feature","properties":{"n":"SAN PEDRO AYAMPUC","d":"GUATEMALA"},"geometry":{"type":"Point","coordinates":[-90.45278295,14.77856374]}},{"type":"Feature","properties":{"n":"CONCEPCION","d":"SOLOLA"},"geometry":{"type":"Point","coordinates":[-91.14691094,14.78375394]}},{"type":"Feature","properties":{"n":"NUEVO PROGRESO","d":"SAN MARCOS"},"geometry":{"type":"Point","coordinates":[-91.92017766,14.79048573]}},{"type":"Feature","properties":{"n":"SAN JUAN  ERMITA","d":"CHIQUIMULA"},"geometry":{"type":"Point","coordinates":[-89.43021313,14.76339296]}},{"type":"Feature","properties":{"n":"ZUNIL","d":"QUETZALTENANGO"},"geometry":{"type":"Point","coordinates":[-91.48381957,14.7828263]}},{"type":"Feature","properties":{"n":"SOLOLA","d":"SOLOLA"},"geometry":{"type":"Point","coordinates":[-91.18269791,14.77025529]}},{"type":"Feature","properties":{"n":"SAN JOSE DEL GOLFO","d":"GUATEMALA"},"geometry":{"type":"Point","coordinates":[-90.3720346,14.76168512]}},{"type":"Feature","properties":{"n":"SAN RAIMUNDO","d":"GUATEMALA"},"geometry":{"type":"Point","coordinates":[-90.5952281,14.76522354]}},{"type":"Feature","properties":{"n":"SANTA LUCIA UTATLAN","d":"SOLOLA"},"geometry":{"type":"Point","coordinates":[-91.26690261,14.77005724]}},{"type":"Feature","properties":{"n":"SAN JOSE CHACAYA","d":"SOLOLA"},"geometry":{"type":"Point","coordinates":[-91.2155643,14.77007974]}},{"type":"Feature","properties":{"n":"EL QUETZAL","d":"SAN MARCOS"},"geometry":{"type":"Point","coordinates":[-91.81787511,14.76735158]}},{"type":"Feature","properties":{"n":"SANSARE","d":"EL PROGRESO"},"geometry":{"type":"Point","coordinates":[-90.11547733,14.74710094]}},{"type":"Feature","properties":{"n":"COMALAPA","d":"CHIMALTENANGO"},"geometry":{"type":"Point","coordinates":[-90.88771359,14.74118233]}},{"type":"Feature","properties":{"n":"PANAJACHEL","d":"SOLOLA"},"geometry":{"type":"Point","coordinates":[-91.15373568,14.74382649]}},{"type":"Feature","properties":{"n":"SAN ANDRES SEMETABAJ","d":"SOLOLA"},"geometry":{"type":"Point","coordinates":[-91.13340708,14.74386549]}},{"type":"Feature","properties":{"n":"SANTA CRUZ LA LAGUNA","d":"SOLOLA"},"geometry":{"type":"Point","coordinates":[-91.2066504,14.74256935]}},{"type":"Feature","properties":{"n":"SAN JOSE LA ARADA","d":"CHIQUIMULA"},"geometry":{"type":"Point","coordinates":[-89.58635242,14.72188478]}},{"type":"Feature","properties":{"n":"SAN MARCOS LA LAGUNA","d":"SOLOLA"},"geometry":{"type":"Point","coordinates":[-91.25821588,14.72441287]}},{"type":"Feature","properties":{"n":"SANTA CATARINA PALOPO","d":"SOLOLA"},"geometry":{"type":"Point","coordinates":[-91.13570048,14.72296163]}},{"type":"Feature","properties":{"n":"PAJAPITA","d":"SAN MARCOS"},"geometry":{"type":"Point","coordinates":[-92.03443937,14.72151323]}},{"type":"Feature","properties":{"n":"SAN PABLO LA LAGUNA","d":"SOLOLA"},"geometry":{"type":"Point","coordinates":[-91.27223029,14.71832402]}},{"type":"Feature","properties":{"n":"SANTA MARIA VISITACION","d":"SOLOLA"},"geometry":{"type":"Point","coordinates":[-91.30901458,14.71581478]}},{"type":"Feature","properties":{"n":"OLOPA","d":"CHIQUIMULA"},"geometry":{"type":"Point","coordinates":[-89.34969846,14.69127685]}},{"type":"Feature","properties":{"n":"SANTA CLARA LA LAGUNA","d":"SOLOLA"},"geometry":{"type":"Point","coordinates":[-91.30359677,14.71429311]}},{"type":"Feature","properties":{"n":"COLOMBA","d":"QUETZALTENANGO"},"geometry":{"type":"Point","coordinates":[-91.73145562,14.70690415]}},{"type":"Feature","properties":{"n":"SAN JACINTO","d":"CHIQUIMULA"},"geometry":{"type":"Point","coordinates":[-89.50261589,14.67641641]}},{"type":"Feature","properties":{"n":"SAN JUAN LA LAGUNA","d":"SOLOLA"},"geometry":{"type":"Point","coordinates":[-91.28667023,14.69342903]}},{"type":"Feature","properties":{"n":"SAN PEDRO SACATEPEQUEZ","d":"GUATEMALA"},"geometry":{"type":"Point","coordinates":[-90.64185118,14.68613631]}},{"type":"Feature","properties":{"n":"SAN ANTONIO PALOPO","d":"SOLOLA"},"geometry":{"type":"Point","coordinates":[-91.11639639,14.69085278]}},{"type":"Feature","properties":{"n":"SAN PEDRO LA LAGUNA","d":"SOLOLA"},"geometry":{"type":"Point","coordinates":[-91.27186082,14.68992776]}},{"type":"Feature","properties":{"n":"SANTA CRUZ BALANYA","d":"CHIMALTENANGO"},"geometry":{"type":"Point","coordinates":[-90.91838118,14.68512538]}},{"type":"Feature","properties":{"n":"PATZUN","d":"CHIMALTENANGO"},"geometry":{"type":"Point","coordinates":[-91.01423342,14.68198978]}},{"type":"Feature","properties":{"n":"PALENCIA","d":"GUATEMALA"},"geometry":{"type":"Point","coordinates":[-90.35744076,14.66798198]}},{"type":"Feature","properties":{"n":"SANTO DOMINGO XENACOJ","d":"SACATEPEQUEZ"},"geometry":{"type":"Point","coordinates":[-90.70054921,14.68076568]}},{"type":"Feature","properties":{"n":"SAN PEDRO PINULA","d":"JALAPA"},"geometry":{"type":"Point","coordinates":[-89.8464402,14.66269791]}},{"type":"Feature","properties":{"n":"SAN LUIS JILOTEPEQUE","d":"JALAPA"},"geometry":{"type":"Point","coordinates":[-89.72861101,14.64357696]}},{"type":"Feature","properties":{"n":"JALAPA","d":"JALAPA"},"geometry":{"type":"Point","coordinates":[-89.9861228,14.63247832]}},{"type":"Feature","properties":{"n":"EL PALMAR","d":"QUETZALTENANGO"},"geometry":{"type":"Point","coordinates":[-91.58917846,14.65122967]}},{"type":"Feature","properties":{"n":"QUEZALTEPEQUE","d":"CHIQUIMULA"},"geometry":{"type":"Point","coordinates":[-89.44278937,14.6354632]}},{"type":"Feature","properties":{"n":"ZARAGOZA","d":"CHIMALTENANGO"},"geometry":{"type":"Point","coordinates":[-90.89038341,14.64905098]}},{"type":"Feature","properties":{"n":"SUMPANGO","d":"SACATEPEQUEZ"},"geometry":{"type":"Point","coordinates":[-90.73663281,14.64706766]}},{"type":"Feature","properties":{"n":"FLORES COSTA CUCA","d":"QUETZALTENANGO"},"geometry":{"type":"Point","coordinates":[-91.82579211,14.65524648]}},{"type":"Feature","properties":{"n":"PUEBLO NUEVO","d":"SUCHITEPEQUEZ"},"geometry":{"type":"Point","coordinates":[-91.53994294,14.64619765]}},{"type":"Feature","properties":{"n":"SANTIAGO SACATEPEQUEZ","d":"SACATEPEQUEZ"},"geometry":{"type":"Point","coordinates":[-90.67757407,14.63324458]}},{"type":"Feature","properties":{"n":"IPALA","d":"CHIQUIMULA"},"geometry":{"type":"Point","coordinates":[-89.62170019,14.61873158]}},{"type":"Feature","properties":{"n":"PATZICIA","d":"CHIMALTENANGO"},"geometry":{"type":"Point","coordinates":[-90.92651944,14.63203371]}},{"type":"Feature","properties":{"n":"MIXCO","d":"GUATEMALA"},"geometry":{"type":"Point","coordinates":[-90.60741257,14.63095524]}},{"type":"Feature","properties":{"n":"SANTIAGO ATITLAN","d":"SOLOLA"},"geometry":{"type":"Point","coordinates":[-91.22988614,14.63747608]}},{"type":"Feature","properties":{"n":"SAN  LUCAS TOLIMAN","d":"SOLOLA"},"geometry":{"type":"Point","coordinates":[-91.14256849,14.63399907]}},{"type":"Feature","properties":{"n":"SANTO TOMAS LA UNION","d":"SUCHITEPEQUEZ"},"geometry":{"type":"Point","coordinates":[-91.41066874,14.63075399]}},{"type":"Feature","properties":{"n":"SAN ANDRES ITZAPA","d":"CHIMALTENANGO"},"geometry":{"type":"Point","coordinates":[-90.84387443,14.62083514]}},{"type":"Feature","properties":{"n":"SAN BARTOLOME MILPAS ALTAS","d":"SACATEPEQUEZ"},"geometry":{"type":"Point","coordinates":[-90.67875018,14.60698302]}},{"type":"Feature","properties":{"n":"PARRAMOS","d":"CHIMALTENANGO"},"geometry":{"type":"Point","coordinates":[-90.802961,14.6089459]}},{"type":"Feature","properties":{"n":"SAN MARTIN ZAPOTITLAN","d":"RETALHULEU"},"geometry":{"type":"Point","coordinates":[-91.60688999,14.60737189]}},{"type":"Feature","properties":{"n":"PASTORES","d":"SACATEPEQUEZ"},"geometry":{"type":"Point","coordinates":[-90.75535421,14.59244254]}},{"type":"Feature","properties":{"n":"EL ASINTAL","d":"RETALHULEU"},"geometry":{"type":"Point","coordinates":[-91.72664264,14.59644915]}},{"type":"Feature","properties":{"n":"NUEVO SAN CARLOS","d":"RETALHULEU"},"geometry":{"type":"Point","coordinates":[-91.69391975,14.59207913]}},{"type":"Feature","properties":{"n":"SAN PABLO JOCOPILAS","d":"SUCHITEPEQUEZ"},"geometry":{"type":"Point","coordinates":[-91.45236588,14.58690744]}},{"type":"Feature","properties":{"n":"SANTA CRUZ MULUA","d":"RETALHULEU"},"geometry":{"type":"Point","coordinates":[-91.62417389,14.58073015]}},{"type":"Feature","properties":{"n":"SAMAYAC","d":"SUCHITEPEQUEZ"},"geometry":{"type":"Point","coordinates":[-91.46130002,14.58111214]}},{"type":"Feature","properties":{"n":"SAN ANDRES VILLA SECA","d":"RETALHULEU"},"geometry":{"type":"Point","coordinates":[-91.58550234,14.57711667]}},{"type":"Feature","properties":{"n":"ANTIGUA GUATEMALA","d":"SACATEPEQUEZ"},"geometry":{"type":"Point","coordinates":[-90.73349363,14.55699875]}},{"type":"Feature","properties":{"n":"SAN JOSE PINULA","d":"GUATEMALA"},"geometry":{"type":"Point","coordinates":[-90.41333056,14.54611992]}},{"type":"Feature","properties":{"n":"MAGDALENA MILPAS ALTAS","d":"SACATEPEQUEZ"},"geometry":{"type":"Point","coordinates":[-90.67498307,14.54761175]}},{"type":"Feature","properties":{"n":"SAN ANTONIO AGUAS CALIENTES","d":"SACATEPEQUEZ"},"geometry":{"type":"Point","coordinates":[-90.78087367,14.54620296]}},{"type":"Feature","properties":{"n":"POCHUTA","d":"CHIMALTENANGO"},"geometry":{"type":"Point","coordinates":[-91.08841869,14.54444475]}},{"type":"Feature","properties":{"n":"CHICACAO","d":"SUCHITEPEQUEZ"},"geometry":{"type":"Point","coordinates":[-91.32654714,14.54194221]}},{"type":"Feature","properties":{"n":"CONCEPCION  LAS MINAS","d":"CHIQUIMULA"},"geometry":{"type":"Point","coordinates":[-89.4572403,14.52226885]}},{"type":"Feature","properties":{"n":"MATAQUESCUINTLA","d":"JALAPA"},"geometry":{"type":"Point","coordinates":[-90.18619506,14.52633011]}},{"type":"Feature","properties":{"n":"SAN MANUEL CHAPARRON","d":"JALAPA"},"geometry":{"type":"Point","coordinates":[-89.7698832,14.51892616]}},{"type":"Feature","properties":{"n":"VILLA NUEVA","d":"GUATEMALA"},"geometry":{"type":"Point","coordinates":[-90.5885926,14.52488441]}},{"type":"Feature","properties":{"n":"SAN ANTONIO SUCHITEPEQUEZ","d":"SUCHITEPEQUEZ"},"geometry":{"type":"Point","coordinates":[-91.41589481,14.53801304]}},{"type":"Feature","properties":{"n":"CIUDAD VIEJA","d":"SACATEPEQUEZ"},"geometry":{"type":"Point","coordinates":[-90.76198815,14.52389402]}},{"type":"Feature","properties":{"n":"SAN MIGUEL PANAN","d":"SUCHITEPEQUEZ"},"geometry":{"type":"Point","coordinates":[-91.36811169,14.52733455]}},{"type":"Feature","properties":{"n":"SAN MIGUEL DUEÑAS","d":"SACATEPEQUEZ"},"geometry":{"type":"Point","coordinates":[-90.79774083,14.52267758]}},{"type":"Feature","properties":{"n":"MONJAS","d":"JALAPA"},"geometry":{"type":"Point","coordinates":[-89.8726153,14.50260118]}},{"type":"Feature","properties":{"n":"AGUA BLANCA","d":"JUTIAPA"},"geometry":{"type":"Point","coordinates":[-89.64950621,14.49684691]}},{"type":"Feature","properties":{"n":"SAN CARLOS ALZATATE","d":"JALAPA"},"geometry":{"type":"Point","coordinates":[-90.0597113,14.4968781]}},{"type":"Feature","properties":{"n":"SAN GABRIEL","d":"SUCHITEPEQUEZ"},"geometry":{"type":"Point","coordinates":[-91.50754663,14.50943369]}},{"type":"Feature","properties":{"n":"OCOS","d":"SAN MARCOS"},"geometry":{"type":"Point","coordinates":[-92.1913736,14.50804155]}},{"type":"Feature","properties":{"n":"SANTA MARIA DE JESUS","d":"SACATEPEQUEZ"},"geometry":{"type":"Point","coordinates":[-90.7096115,14.49423595]}},{"type":"Feature","properties":{"n":"AMATITLAN","d":"GUATEMALA"},"geometry":{"type":"Point","coordinates":[-90.6206754,14.48445311]}},{"type":"Feature","properties":{"n":"ALOTENANGO","d":"SACATEPEQUEZ"},"geometry":{"type":"Point","coordinates":[-90.80440481,14.48355596]}},{"type":"Feature","properties":{"n":"VILLA CANALES","d":"GUATEMALA"},"geometry":{"type":"Point","coordinates":[-90.53419432,14.48263097]}},{"type":"Feature","properties":{"n":"SAN RAFAEL LAS FLORES","d":"SANTA ROSA"},"geometry":{"type":"Point","coordinates":[-90.17986951,14.47392832]}},{"type":"Feature","properties":{"n":"FRAIJANES","d":"GUATEMALA"},"geometry":{"type":"Point","coordinates":[-90.44019052,14.46351301]}},{"type":"Feature","properties":{"n":"SAN LORENZO","d":"SUCHITEPEQUEZ"},"geometry":{"type":"Point","coordinates":[-91.51266357,14.48583644]}},{"type":"Feature","properties":{"n":"SANTO DOMINGO SUCHITEPEQUEZ","d":"SUCHITEPEQUEZ"},"geometry":{"type":"Point","coordinates":[-91.48346475,14.48003939]}},{"type":"Feature","properties":{"n":"SANTA CATARINA MITA","d":"JUTIAPA"},"geometry":{"type":"Point","coordinates":[-89.74264947,14.44908225]}},{"type":"Feature","properties":{"n":"SAN JOSE EL  IDOLO","d":"SUCHITEPEQUEZ"},"geometry":{"type":"Point","coordinates":[-91.42236364,14.44809457]}},{"type":"Feature","properties":{"n":"CASILLAS","d":"SANTA ROSA"},"geometry":{"type":"Point","coordinates":[-90.24325369,14.41840643]}},{"type":"Feature","properties":{"n":"SAN VICENTE PACAYA","d":"ESCUINTLA"},"geometry":{"type":"Point","coordinates":[-90.63538705,14.41242415]}},{"type":"Feature","properties":{"n":"PALIN","d":"ESCUINTLA"},"geometry":{"type":"Point","coordinates":[-90.69750815,14.40408156]}},{"type":"Feature","properties":{"n":"SAN JUAN BAUTISTA","d":"SUCHITEPEQUEZ"},"geometry":{"type":"Point","coordinates":[-91.17795519,14.42062048]}},{"type":"Feature","properties":{"n":"SANTA ROSA DE LIMA","d":"SANTA ROSA"},"geometry":{"type":"Point","coordinates":[-90.29554535,14.38706755]}},{"type":"Feature","properties":{"n":"RIO BRAVO","d":"SUCHITEPEQUEZ"},"geometry":{"type":"Point","coordinates":[-91.32110467,14.39788627]}},{"type":"Feature","properties":{"n":"SANTA CRUZ  NARANJO","d":"SANTA ROSA"},"geometry":{"type":"Point","coordinates":[-90.37121217,14.38487221]}},{"type":"Feature","properties":{"n":"EL PROGRESO","d":"JUTIAPA"},"geometry":{"type":"Point","coordinates":[-89.84770288,14.35526372]}},{"type":"Feature","properties":{"n":"ASUNCION MITA","d":"JUTIAPA"},"geometry":{"type":"Point","coordinates":[-89.70961382,14.33130781]}},{"type":"Feature","properties":{"n":"ESCUINTLA","d":"ESCUINTLA"},"geometry":{"type":"Point","coordinates":[-90.78128151,14.31003885]}},{"type":"Feature","properties":{"n":"BARBERENA","d":"SANTA ROSA"},"geometry":{"type":"Point","coordinates":[-90.35916973,14.30400797]}},{"type":"Feature","properties":{"n":"JUTIAPA","d":"JUTIAPA"},"geometry":{"type":"Point","coordinates":[-89.89785741,14.29125099]}},{"type":"Feature","properties":{"n":"QUEZADA","d":"JUTIAPA"},"geometry":{"type":"Point","coordinates":[-90.03712686,14.27173918]}},{"type":"Feature","properties":{"n":"ORATORIO","d":"SANTA ROSA"},"geometry":{"type":"Point","coordinates":[-90.18025861,14.23215703]}},{"type":"Feature","properties":{"n":"LA DEMOCRACIA","d":"ESCUINTLA"},"geometry":{"type":"Point","coordinates":[-90.94825185,14.22897587]}},{"type":"Feature","properties":{"n":"YUPILTEPEQUE","d":"JUTIAPA"},"geometry":{"type":"Point","coordinates":[-89.79242051,14.1963648]}},{"type":"Feature","properties":{"n":"MASAGUA","d":"ESCUINTLA"},"geometry":{"type":"Point","coordinates":[-90.84908999,14.2025195]}},{"type":"Feature","properties":{"n":"SANTA MARIA IXHUATAN","d":"SANTA ROSA"},"geometry":{"type":"Point","coordinates":[-90.27688665,14.18839546]}},{"type":"Feature","properties":{"n":"EL ADELANTO","d":"JUTIAPA"},"geometry":{"type":"Point","coordinates":[-89.82741532,14.17180005]}},{"type":"Feature","properties":{"n":"ATESCATEMPA","d":"JUTIAPA"},"geometry":{"type":"Point","coordinates":[-89.74035626,14.17573636]}},{"type":"Feature","properties":{"n":"NUEVA CONCEPCION","d":"ESCUINTLA"},"geometry":{"type":"Point","coordinates":[-91.29824732,14.18406843]}},{"type":"Feature","properties":{"n":"ZAPOTITLAN","d":"JUTIAPA"},"geometry":{"type":"Point","coordinates":[-89.826259,14.13905311]}},{"type":"Feature","properties":{"n":"COMAPA","d":"JUTIAPA"},"geometry":{"type":"Point","coordinates":[-89.91437669,14.11193]}},{"type":"Feature","properties":{"n":"JEREZ","d":"JUTIAPA"},"geometry":{"type":"Point","coordinates":[-89.75124627,14.09002724]}},{"type":"Feature","properties":{"n":"CHIQUIMULILLA","d":"SANTA ROSA"},"geometry":{"type":"Point","coordinates":[-90.37996839,14.08730633]}},{"type":"Feature","properties":{"n":"SAN JUAN TECUACO","d":"SANTA ROSA"},"geometry":{"type":"Point","coordinates":[-90.26704181,14.08355766]}},{"type":"Feature","properties":{"n":"GUAZACAPAN","d":"SANTA ROSA"},"geometry":{"type":"Point","coordinates":[-90.41870561,14.0729469]}},{"type":"Feature","properties":{"n":"TAXISCO","d":"SANTA ROSA"},"geometry":{"type":"Point","coordinates":[-90.46396657,14.07014883]}},{"type":"Feature","properties":{"n":"LA GOMERA","d":"ESCUINTLA"},"geometry":{"type":"Point","coordinates":[-91.05112425,14.08551109]}},{"type":"Feature","properties":{"n":"CONGUACO","d":"JUTIAPA"},"geometry":{"type":"Point","coordinates":[-90.03346261,14.04708662]}},{"type":"Feature","properties":{"n":"MOYUTA","d":"JUTIAPA"},"geometry":{"type":"Point","coordinates":[-90.08107087,14.03753928]}},{"type":"Feature","properties":{"n":"PASACO","d":"JUTIAPA"},"geometry":{"type":"Point","coordinates":[-90.20399178,13.9797878]}},{"type":"Feature","properties":{"n":"SAN JOSE","d":"ESCUINTLA"},"geometry":{"type":"Point","coordinates":[-90.82033945,13.92418258]}},{"type":"Feature","properties":{"n":"IZTAPA","d":"ESCUINTLA"},"geometry":{"type":"Point","coordinates":[-90.71487533,13.93093967]}},{"type":"Feature","properties":{"n":"JOCOTENANGO","d":"SACATEPEQUEZ"},"geometry":{"type":"Point","coordinates":[-90.74118685,14.57513351]}},{"type":"Feature","properties":{"n":"SANTA LUCIA MILPAS ALTAS","d":"SACATEPEQUEZ"},"geometry":{"type":"Point","coordinates":[-90.67652908,14.57658966]}},{"type":"Feature","properties":{"n":"AYUTLA","d":"SAN MARCOS"},"geometry":{"type":"Point","coordinates":[-92.14099291,14.6746029]}},{"type":"Feature","properties":{"n":"CUILAPA","d":"SANTA ROSA"},"geometry":{"type":"Point","coordinates":[-90.29839825,14.27619651]}},{"type":"Feature","properties":{"n":"NUEVA SANTA ROSA","d":"SANTA ROSA"},"geometry":{"type":"Point","coordinates":[-90.28585788,14.38112044]}},{"type":"Feature","properties":{"n":"PUEBLO NUEVO VIÑAS","d":"SANTA ROSA"},"geometry":{"type":"Point","coordinates":[-90.47559835,14.22434007]}},{"type":"Feature","properties":{"n":"CUYOTENANGO","d":"SUCHITEPEQUEZ"},"geometry":{"type":"Point","coordinates":[-91.57140134,14.53985866]}},{"type":"Feature","properties":{"n":"MAZATENANGO","d":"SUCHITEPEQUEZ"},"geometry":{"type":"Point","coordinates":[-91.50647653,14.53284176]}},{"type":"Feature","properties":{"n":"PATULUL","d":"SUCHITEPEQUEZ"},"geometry":{"type":"Point","coordinates":[-91.16041845,14.42185137]}},{"type":"Feature","properties":{"n":"SAN BERNARDINO","d":"SUCHITEPEQUEZ"},"geometry":{"type":"Point","coordinates":[-91.45796855,14.54114035]}},{"type":"Feature","properties":{"n":"SAN FRANCISCO ZAPOTITLAN","d":"SUCHITEPEQUEZ"},"geometry":{"type":"Point","coordinates":[-91.52118501,14.58761164]}},{"type":"Feature","properties":{"n":"SANTA BARBARA","d":"SUCHITEPEQUEZ"},"geometry":{"type":"Point","coordinates":[-91.22692795,14.4352909]}},{"type":"Feature","properties":{"n":"ZUNILITO","d":"SUCHITEPEQUEZ"},"geometry":{"type":"Point","coordinates":[-91.51027221,14.61134073]}},{"type":"Feature","properties":{"n":"SAN LUCAS SACATEPEQUEZ","d":"SACATEPEQUEZ"},"geometry":{"type":"Point","coordinates":[-90.65609055,14.60937542]}},{"type":"Feature","properties":{"n":"JALPATAGUA","d":"JUTIAPA"},"geometry":{"type":"Point","coordinates":[-90.00945045,14.13558287]}},{"type":"Feature","properties":{"n":"FLORES","d":"PETEN"},"geometry":{"type":"Point","coordinates":[-89.89146582,16.92886341]}},{"type":"Feature","properties":{"n":"SAN CRISTOBAL ACASAGUASTLAN","d":"EL PROGRESO"},"geometry":{"type":"Point","coordinates":[-89.87476104,14.92439513]}},{"type":"Feature","properties":{"n":"GUASTATOYA","d":"EL PROGRESO"},"geometry":{"type":"Point","coordinates":[-90.07027936,14.85251697]}},{"type":"Feature","properties":{"n":"SANARATE","d":"EL PROGRESO"},"geometry":{"type":"Point","coordinates":[-90.19854219,14.78636548]}},{"type":"Feature","properties":{"n":"SAN ANTONIO LA PAZ","d":"EL PROGRESO"},"geometry":{"type":"Point","coordinates":[-90.28627079,14.75732212]}},{"type":"Feature","properties":{"n":"HUITAN","d":"QUETZALTENANGO"},"geometry":{"type":"Point","coordinates":[-91.63897287,15.04816187]}},{"type":"Feature","properties":{"n":"SIBILIA","d":"QUETZALTENANGO"},"geometry":{"type":"Point","coordinates":[-91.62487639,14.99310632]}},{"type":"Feature","properties":{"n":"SAN FRANCISCO LA UNION","d":"QUETZALTENANGO"},"geometry":{"type":"Point","coordinates":[-91.54337551,14.92156442]}},{"type":"Feature","properties":{"n":"SAN MARTIN SACATEPEQUEZ","d":"QUETZALTENANGO"},"geometry":{"type":"Point","coordinates":[-91.64204823,14.82276841]}},{"type":"Feature","properties":{"n":"COATEPEQUE","d":"QUETZALTENANGO"},"geometry":{"type":"Point","coordinates":[-91.86418157,14.69891215]}},{"type":"Feature","properties":{"n":"GENOVA","d":"QUETZALTENANGO"},"geometry":{"type":"Point","coordinates":[-91.83769474,14.61991393]}},{"type":"Feature","properties":{"n":"SANTA CRUZ DEL  QUICHE","d":"QUICHE"},"geometry":{"type":"Point","coordinates":[-91.14846907,15.02920724]}},{"type":"Feature","properties":{"n":"SAN SEBASTIAN","d":"RETALHULEU"},"geometry":{"type":"Point","coordinates":[-91.6485668,14.56103351]}},{"type":"Feature","properties":{"n":"TECPAN GUATEMALA","d":"CHIMALTENANGO"},"geometry":{"type":"Point","coordinates":[-90.99169497,14.76231242]}},{"type":"Feature","properties":{"n":"YEPOCAPA","d":"CHIMALTENANGO"},"geometry":{"type":"Point","coordinates":[-90.95371142,14.50001936]}},{"type":"Feature","properties":{"n":"ESQUIPULAS","d":"CHIQUIMULA"},"geometry":{"type":"Point","coordinates":[-89.35117149,14.56377276]}},{"type":"Feature","properties":{"n":"SANTA LUCIA  COTZUMALGUAPA","d":"ESCUINTLA"},"geometry":{"type":"Point","coordinates":[-91.02506954,14.33236281]}},{"type":"Feature","properties":{"n":"SIQUINALA","d":"ESCUINTLA"},"geometry":{"type":"Point","coordinates":[-90.96659873,14.30555385]}},{"type":"Feature","properties":{"n":"HUEHUETENANGO","d":"HUEHUETENANGO"},"geometry":{"type":"Point","coordinates":[-91.47051229,15.32055328]}},{"type":"Feature","properties":{"n":"CHINAUTLA","d":"GUATEMALA"},"geometry":{"type":"Point","coordinates":[-90.49938943,14.70228797]}},{"type":"Feature","properties":{"n":"SAN JUAN SACATEPEQUEZ","d":"GUATEMALA"},"geometry":{"type":"Point","coordinates":[-90.64295288,14.71869804]}},{"type":"Feature","properties":{"n":"PETAPA","d":"GUATEMALA"},"geometry":{"type":"Point","coordinates":[-90.56147017,14.50168952]}},{"type":"Feature","properties":{"n":"PUERTO BARRIOS","d":"IZABAL"},"geometry":{"type":"Point","coordinates":[-88.59793103,15.73267555]}},{"type":"Feature","properties":{"n":"COBAN","d":"ALTA VERAPAZ"},"geometry":{"type":"Point","coordinates":[-90.36916297,15.47031573]}},{"type":"Feature","properties":{"n":"SAN PEDRO CARCHA","d":"ALTA VERAPAZ"},"geometry":{"type":"Point","coordinates":[-90.31196372,15.47693767]}},{"type":"Feature","properties":{"n":"CHAHAL","d":"ALTA VERAPAZ"},"geometry":{"type":"Point","coordinates":[-89.60010989,15.78872374]}},{"type":"Feature","properties":{"n":"TIQUISATE","d":"ESCUINTLA"},"geometry":{"type":"Point","coordinates":[-91.36826671,14.29093198]}},{"type":"Feature","properties":{"n":"GUANAGAZAPA","d":"ESCUINTLA"},"geometry":{"type":"Point","coordinates":[-90.64363271,14.22592524]}},{"type":"Feature","properties":{"n":"GUATEMALA","d":"GUATEMALA"},"geometry":{"type":"Point","coordinates":[-90.50939712,14.63539104]}},{"type":"Feature","properties":{"n":"ACATENANGO","d":"CHIMALTENANGO"},"geometry":{"type":"Point","coordinates":[-90.94325396,14.55365223]}},{"type":"Feature","properties":{"n":"EL CHAL","d":"PETEN"},"geometry":{"type":"Point","coordinates":[-89.65340724,16.64369212]}},{"type":"Feature","properties":{"n":"PETATAN","d":"HUEHUETENANGO"},"geometry":{"type":"Point","coordinates":[-91.72952608,15.62304546]}},{"type":"Feature","properties":{"n":"SAN JORGE","d":"ZACAPA"},"geometry":{"type":"Point","coordinates":[-89.58771834,14.92567088]}},{"type":"Feature","properties":{"n":"LA BLANCA","d":"SAN MARCOS"},"geometry":{"type":"Point","coordinates":[-92.14135968,14.57601244]}},{"type":"Feature","properties":{"n":"SAN JOSE LA MAQUINA","d":"SUCHITEPEQUEZ"},"geometry":{"type":"Point","coordinates":[-91.56235321,14.302057]}},{"type":"Feature","properties":{"n":"SIPACATE","d":"ESCUINTLA"},"geometry":{"type":"Point","coordinates":[-91.14440671,13.93214057]}}]}